{"type":"FeatureCollection","name":"tl_2025_27_scsd","crs":{"type":"name","properties":{"name":"urn:ogc:def:crs:OGC:1.3:CRS84"}},"features":[{"type":"Feature","properties":{"STATEFP":"27","SCSDLEA":"27001","GEOID":"2727001","GEOIDFQ":"9600000US2727001","NAME":"Park Rapids Public School District in Pine Point (9-12)","LSAD":"00","LOGRADE":"09","HIGRADE":"12","MTFCC":"G5410","SDTYP":"A","FUNCSTAT":"F","ALAND":11191797,"AWATER":2071546,"INTPTLAT":"+46.9853376","INTPTLON":"-095.4000147"},"geometry":{"type":"Polygon","coordinates":[[[-95.423353,47.005607],[-95.421013,47.005621],[-95.413993,47.005665],[-95.411654,47.00568],[-95.411603,47.005681],[-95.411452,47.005685],[-95.411402,47.005687],[-95.409165,47.005698],[-95.400687,47.005738],[-95.40053,47.005738],[-95.399782,47.005742],[-95.398878,47.005746],[-95.381517,47.005828],[-95.381603,46.992227],[-95.381606,46.991815],[-95.371147,46.991753],[-95.371124,46.993181],[-95.371117,46.993568],[-95.370063,46.993574],[-95.370088,46.991764],[-95.36894,46.991776],[-95.362319,46.991847],[-95.360113,46.991872],[-95.360106,46.98898],[-95.360105,46.988271],[-95.360096,46.98467],[-95.360088,46.980304],[-95.360083,46.977412],[-95.360642,46.977425],[-95.362322,46.977466],[-95.362882,46.97748],[-95.363064,46.977479],[-95.363611,46.977477],[-95.363794,46.977477],[-95.365206,46.977471],[-95.369445,46.977455],[-95.370512,46.977452],[-95.370858,46.97745],[-95.371976,46.977446],[-95.373339,46.977441],[-95.373317,46.976156],[-95.373297,46.974932],[-95.373278,46.973768],[-95.383963,46.973707],[-95.394399,46.973656],[-95.394408,46.97739],[-95.39452,46.97739],[-95.397099,46.977374],[-95.397222,46.977373],[-95.398957,46.977363],[-95.401223,46.977349],[-95.402411,46.977342],[-95.408021,46.977324],[-95.410288,46.977317],[-95.410866,46.977314],[-95.412602,46.977309],[-95.413181,46.977308],[-95.413264,46.977308],[-95.413516,46.977311],[-95.4136,46.977312],[-95.415468,46.97732],[-95.421072,46.977346],[-95.422941,46.977355],[-95.422959,46.978801],[-95.42299,46.98119],[-95.423016,46.983142],[-95.423017,46.983275],[-95.423035,46.984589],[-95.423053,46.985064],[-95.423108,46.98649],[-95.423127,46.986966],[-95.423142,46.988026],[-95.42319,46.991206],[-95.423206,46.992267],[-95.423229,46.992689],[-95.423301,46.993954],[-95.423325,46.994377],[-95.423287,46.996623],[-95.423233,46.999871],[-95.423306,47.003361],[-95.423353,47.005607]]]}}]}