{"type":"FeatureCollection","name":"tl_2025_27_elsd","crs":{"type":"name","properties":{"name":"urn:ogc:def:crs:OGC:1.3:CRS84"}},"features":[{"type":"Feature","properties":{"STATEFP":"27","ELSDLEA":"00388","GEOID":"2700388","GEOIDFQ":"9500000US2700388","NAME":"Round Lake-Brewster Public Schools","LSAD":"00","LOGRADE":"PK","HIGRADE":"12","MTFCC":"G5400","SDTYP":"","FUNCSTAT":"E","ALAND":355443059,"AWATER":7317482,"INTPTLAT":"+43.6415107","INTPTLON":"-095.4736900"},"geometry":{"type":"Polygon","coordinates":[[[-95.574101,43.523965],[-95.574096,43.524522],[-95.57405,43.526834],[-95.574042,43.528851],[-95.57402,43.529029],[-95.574077,43.530264],[-95.574051,43.530348],[-95.574013,43.53055],[-95.573992,43.530876],[-95.573959,43.533044],[-95.5739,43.536831],[-95.573844,43.540828],[-95.573826,43.542073],[-95.573817,43.543565],[-95.570976,43.543572],[-95.568177,43.543552],[-95.564143,43.543524],[-95.562507,43.543517],[-95.556921,43.54347],[-95.554127,43.543452],[-95.553837,43.543453],[-95.553876,43.544753],[-95.55386,43.546121],[-95.553831,43.547605],[-95.553845,43.548416],[-95.55385,43.548957],[-95.553814,43.550014],[-95.553823,43.55069],[-95.548893,43.550706],[-95.548728,43.557955],[-95.546621,43.557944],[-95.544921,43.55795],[-95.543004,43.557947],[-95.541088,43.557961],[-95.540467,43.557969],[-95.5363,43.557938],[-95.533873,43.557935],[-95.533249,43.557965],[-95.528075,43.558054],[-95.524487,43.558087],[-95.524389,43.55809],[-95.524067,43.558098],[-95.524046,43.565401],[-95.524436,43.565393],[-95.533864,43.565216],[-95.543497,43.56523],[-95.543587,43.565273],[-95.54364,43.565279],[-95.543753,43.565273],[-95.543823,43.56525],[-95.543823,43.565593],[-95.543793,43.572527],[-95.544828,43.572532],[-95.546008,43.572543],[-95.547882,43.572549],[-95.550154,43.572544],[-95.553757,43.572555],[-95.553829,43.574507],[-95.553674,43.574535],[-95.553281,43.57471],[-95.552942,43.57496],[-95.552676,43.575323],[-95.552079,43.575617],[-95.551188,43.575845],[-95.549452,43.576394],[-95.548793,43.576777],[-95.547039,43.577628],[-95.546343,43.578142],[-95.545593,43.578755],[-95.545085,43.579474],[-95.544878,43.579886],[-95.539947,43.579831],[-95.535676,43.579777],[-95.533448,43.579769],[-95.533511,43.578697],[-95.533838,43.572466],[-95.532533,43.572488],[-95.53044,43.572537],[-95.519643,43.572746],[-95.514269,43.572824],[-95.514059,43.572821],[-95.512936,43.586945],[-95.512932,43.587139],[-95.512721,43.587132],[-95.512527,43.587131],[-95.510723,43.58712],[-95.509362,43.587088],[-95.507739,43.587084],[-95.503179,43.587038],[-95.502965,43.587035],[-95.502989,43.594516],[-95.503005,43.599744],[-95.503022,43.601624],[-95.503026,43.616156],[-95.5,43.616101],[-95.498052,43.616042],[-95.497204,43.616034],[-95.494995,43.615992],[-95.493193,43.615946],[-95.492923,43.615948],[-95.49293,43.601867],[-95.49293,43.601414],[-95.488139,43.601416],[-95.485233,43.601459],[-95.484998,43.601459],[-95.483014,43.601455],[-95.483008,43.603513],[-95.482999,43.606377],[-95.482992,43.608746],[-95.482583,43.608748],[-95.473006,43.608791],[-95.473011,43.609214],[-95.473015,43.609649],[-95.473003,43.61168],[-95.47302,43.612937],[-95.473025,43.613801],[-95.473012,43.616046],[-95.471293,43.61604],[-95.468305,43.616006],[-95.460054,43.615944],[-95.458511,43.615939],[-95.456325,43.615927],[-95.454243,43.615905],[-95.454229,43.617356],[-95.454187,43.621708],[-95.454173,43.62316],[-95.472965,43.62309],[-95.472955,43.623798],[-95.472952,43.625005],[-95.472938,43.625675],[-95.472936,43.62718],[-95.472912,43.628105],[-95.472902,43.629352],[-95.472902,43.630288],[-95.472898,43.630471],[-95.476337,43.630501],[-95.478817,43.630533],[-95.479863,43.630531],[-95.481734,43.630552],[-95.482185,43.630554],[-95.483398,43.63056],[-95.485054,43.630586],[-95.492849,43.630653],[-95.492705,43.637425],[-95.4927,43.637659],[-95.49256,43.644163],[-95.492567,43.645236],[-95.502582,43.645192],[-95.50262,43.649552],[-95.502646,43.65254],[-95.507307,43.652646],[-95.512594,43.652767],[-95.512606,43.656346],[-95.509301,43.656285],[-95.507656,43.656256],[-95.507686,43.659845],[-95.511333,43.65988],[-95.512066,43.659888],[-95.512626,43.659889],[-95.513069,43.668314],[-95.513119,43.669495],[-95.513169,43.669834],[-95.513255,43.670056],[-95.513393,43.670278],[-95.513593,43.670494],[-95.513718,43.67065],[-95.513794,43.670744],[-95.513882,43.670846],[-95.513996,43.670977],[-95.514181,43.671165],[-95.512238,43.672418],[-95.51279,43.672887],[-95.513078,43.673278],[-95.51323,43.673552],[-95.513306,43.673856],[-95.51332,43.674037],[-95.513335,43.674237],[-95.513352,43.674853],[-95.513343,43.67566],[-95.513268,43.67874],[-95.513266,43.67928],[-95.513262,43.680019],[-95.513212,43.681581],[-95.51321,43.681768],[-95.523593,43.681811],[-95.52826,43.681812],[-95.528269,43.681555],[-95.528524,43.674625],[-95.528537,43.674257],[-95.533339,43.674256],[-95.533534,43.67428],[-95.541535,43.674268],[-95.543573,43.674278],[-95.543417,43.67792],[-95.540129,43.677919],[-95.533421,43.677943],[-95.533398,43.678757],[-95.533347,43.679848],[-95.533318,43.680907],[-95.533287,43.681601],[-95.534569,43.681602],[-95.540161,43.681608],[-95.543259,43.681612],[-95.543103,43.688881],[-95.543511,43.688875],[-95.544266,43.688886],[-95.545152,43.6889],[-95.548371,43.688906],[-95.548552,43.688906],[-95.550347,43.688891],[-95.551976,43.688908],[-95.553085,43.688904],[-95.553112,43.696113],[-95.563213,43.696048],[-95.563239,43.699023],[-95.563252,43.700344],[-95.563194,43.700388],[-95.563156,43.700457],[-95.563141,43.700538],[-95.563161,43.700668],[-95.563185,43.701055],[-95.563233,43.702178],[-95.563254,43.703458],[-95.562443,43.703459],[-95.560452,43.703447],[-95.558272,43.703441],[-95.556636,43.703447],[-95.554977,43.703419],[-95.553777,43.703426],[-95.553501,43.703428],[-95.553018,43.703423],[-95.553029,43.703981],[-95.553113,43.706183],[-95.553123,43.70693],[-95.553127,43.707256],[-95.553212,43.709543],[-95.55321,43.710493],[-95.55321,43.710688],[-95.553254,43.712023],[-95.553252,43.713914],[-95.553249,43.71703],[-95.553234,43.717984],[-95.552881,43.725354],[-95.562493,43.72537],[-95.563135,43.725372],[-95.562983,43.732521],[-95.564007,43.732528],[-95.567461,43.732527],[-95.571204,43.732536],[-95.57327,43.732547],[-95.573275,43.733345],[-95.573276,43.736243],[-95.573294,43.737963],[-95.573278,43.740154],[-95.573276,43.740374],[-95.573288,43.741489],[-95.573293,43.741919],[-95.57329,43.743383],[-95.562895,43.743388],[-95.562881,43.74689],[-95.563052,43.755155],[-95.56308,43.756436],[-95.563109,43.757848],[-95.552908,43.757933],[-95.552837,43.761525],[-95.552671,43.761514],[-95.551824,43.761538],[-95.550552,43.761528],[-95.548764,43.761535],[-95.546637,43.761526],[-95.542973,43.761557],[-95.537414,43.76161],[-95.532985,43.761653],[-95.532901,43.764702],[-95.532885,43.765736],[-95.532875,43.766338],[-95.532818,43.767797],[-95.532784,43.769028],[-95.532627,43.773909],[-95.532578,43.776139],[-95.530556,43.776129],[-95.512161,43.775821],[-95.512151,43.777244],[-95.512078,43.780108],[-95.512036,43.784987],[-95.512031,43.785528],[-95.51203,43.785573],[-95.512031,43.785618],[-95.512009,43.788081],[-95.511963,43.790141],[-95.511949,43.790299],[-95.510213,43.790285],[-95.501773,43.790152],[-95.501718,43.790179],[-95.501712,43.790232],[-95.501256,43.790247],[-95.489944,43.790243],[-95.485098,43.790241],[-95.48508,43.790263],[-95.484895,43.790432],[-95.484643,43.790678],[-95.484536,43.790809],[-95.484483,43.790858],[-95.4843,43.791138],[-95.48423,43.791215],[-95.484062,43.79144],[-95.484,43.791511],[-95.483877,43.791686],[-95.483854,43.791822],[-95.483717,43.792031],[-95.483655,43.792156],[-95.483592,43.792321],[-95.483562,43.792432],[-95.483498,43.792573],[-95.483437,43.792755],[-95.483383,43.792827],[-95.483353,43.792908],[-95.483344,43.793029],[-95.483298,43.793188],[-95.48331,43.793336],[-95.48331,43.793495],[-95.483316,43.79361],[-95.483314,43.793731],[-95.483344,43.793957],[-95.483365,43.794023],[-95.483447,43.794134],[-95.483484,43.794194],[-95.483574,43.794283],[-95.483679,43.79442],[-95.483836,43.79464],[-95.483941,43.794729],[-95.484046,43.794828],[-95.484143,43.794912],[-95.484413,43.79516],[-95.484818,43.795569],[-95.48509,43.795801],[-95.485133,43.795854],[-95.485238,43.795944],[-95.485419,43.796049],[-95.485548,43.79611],[-95.485661,43.796138],[-95.48575,43.796198],[-95.485963,43.796237],[-95.486068,43.796243],[-95.486189,43.796267],[-95.486272,43.796289],[-95.486415,43.796372],[-95.486536,43.796416],[-95.486633,43.796521],[-95.486725,43.796604],[-95.486822,43.796713],[-95.486889,43.796781],[-95.486933,43.796862],[-95.487062,43.796958],[-95.487143,43.797067],[-95.487187,43.797231],[-95.487292,43.79737],[-95.487352,43.797529],[-95.487328,43.797694],[-95.48731,43.797979],[-95.487266,43.798464],[-95.487242,43.798579],[-95.487181,43.798715],[-95.487159,43.798797],[-95.487143,43.798831],[-95.487119,43.798936],[-95.486989,43.799148],[-95.486895,43.79934],[-95.486865,43.79944],[-95.486834,43.799515],[-95.486772,43.799577],[-95.486711,43.799817],[-95.486701,43.799993],[-95.486685,43.800124],[-95.486675,43.800289],[-95.486691,43.8004],[-95.486786,43.800658],[-95.486854,43.800769],[-95.486891,43.800862],[-95.486965,43.800977],[-95.487018,43.801049],[-95.487092,43.80112],[-95.487137,43.801198],[-95.487151,43.801297],[-95.487135,43.801418],[-95.487127,43.801527],[-95.487096,43.80162],[-95.487034,43.801686],[-95.486889,43.801819],[-95.48679,43.8019],[-95.486729,43.801981],[-95.486699,43.802096],[-95.486667,43.802184],[-95.486649,43.802376],[-95.48658,43.802569],[-95.486548,43.802745],[-95.4865,43.802969],[-95.486477,43.803172],[-95.486391,43.803519],[-95.486314,43.803694],[-95.486244,43.803825],[-95.486153,43.80388],[-95.486082,43.804126],[-95.485983,43.804281],[-95.485949,43.804355],[-95.485781,43.804371],[-95.475218,43.804364],[-95.472169,43.80453],[-95.470564,43.804546],[-95.46979,43.804542],[-95.467852,43.804531],[-95.466424,43.804532],[-95.463537,43.8045],[-95.460174,43.804514],[-95.45857,43.804511],[-95.457174,43.804519],[-95.456947,43.80452],[-95.452381,43.804497],[-95.452381,43.804453],[-95.452385,43.804154],[-95.452401,43.803125],[-95.452407,43.802783],[-95.452445,43.80054],[-95.452563,43.793813],[-95.452603,43.791571],[-95.452608,43.791244],[-95.452626,43.790266],[-95.452632,43.78994],[-95.452632,43.789922],[-95.452633,43.789868],[-95.452634,43.789851],[-95.452168,43.789849],[-95.445703,43.789895],[-95.445668,43.786531],[-95.445554,43.775428],[-95.444649,43.775434],[-95.444137,43.775437],[-95.44243,43.775448],[-95.437308,43.775482],[-95.435602,43.775494],[-95.435594,43.773781],[-95.435574,43.769447],[-95.435566,43.768645],[-95.435552,43.766933],[-95.435541,43.765745],[-95.435511,43.762183],[-95.435501,43.760996],[-95.431504,43.761002],[-95.419515,43.76102],[-95.415519,43.761027],[-95.415519,43.759764],[-95.415519,43.755976],[-95.41552,43.754714],[-95.41552,43.753769],[-95.409733,43.753812],[-95.4093,43.753741],[-95.40899,43.753717],[-95.407273,43.753722],[-95.402124,43.75374],[-95.400408,43.753746],[-95.399434,43.753717],[-95.396512,43.753633],[-95.395538,43.753605],[-95.395543,43.752365],[-95.395541,43.752105],[-95.395529,43.749368],[-95.395669,43.748973],[-95.395913,43.748631],[-95.3961,43.748469],[-95.396661,43.748093],[-95.396877,43.747949],[-95.397353,43.747606],[-95.396928,43.747289],[-95.39671,43.747116],[-95.396415,43.746857],[-95.396362,43.74681],[-95.396246,43.746709],[-95.39614,43.746616],[-95.395824,43.74634],[-95.395719,43.746248],[-95.395523,43.74575],[-95.395503,43.74475],[-95.395491,43.744148],[-95.395469,43.74264],[-95.395417,43.740147],[-95.395409,43.73971],[-95.395403,43.738613],[-95.395401,43.738339],[-95.395385,43.737297],[-95.395329,43.733349],[-95.395319,43.732596],[-95.395306,43.732034],[-95.395462,43.732036],[-95.397125,43.732029],[-95.397233,43.732029],[-95.399398,43.732032],[-95.403014,43.73202],[-95.404942,43.732015],[-95.405224,43.732014],[-95.405413,43.732013],[-95.405447,43.724736],[-95.395425,43.724761],[-95.385757,43.724832],[-95.385535,43.724852],[-95.385512,43.72452],[-95.385542,43.722339],[-95.385546,43.721236],[-95.395481,43.721135],[-95.395512,43.718464],[-95.395523,43.717489],[-95.395511,43.716016],[-95.395482,43.712104],[-95.395475,43.711597],[-95.395457,43.710125],[-95.392439,43.710133],[-95.383387,43.71016],[-95.38037,43.710169],[-95.379436,43.71018],[-95.376634,43.710216],[-95.375701,43.710229],[-95.37566,43.710229],[-95.375537,43.710233],[-95.375497,43.710234],[-95.37549,43.70882],[-95.375488,43.708162],[-95.375455,43.704578],[-95.375442,43.703165],[-95.376655,43.703165],[-95.37889,43.703165],[-95.380295,43.703161],[-95.381509,43.703158],[-95.382262,43.703155],[-95.384522,43.70315],[-95.384837,43.70315],[-95.385276,43.703147],[-95.385274,43.703124],[-95.385269,43.703057],[-95.385268,43.703035],[-95.385257,43.700741],[-95.38524,43.696773],[-95.385407,43.695876],[-95.390523,43.695835],[-95.395395,43.695797],[-95.395405,43.693206],[-95.395408,43.692307],[-95.39541,43.691563],[-95.395418,43.689333],[-95.395421,43.68859],[-95.391425,43.688617],[-95.388416,43.688639],[-95.379438,43.68868],[-95.375443,43.688699],[-95.374083,43.688712],[-95.373386,43.688712],[-95.367216,43.688717],[-95.36546,43.688718],[-95.365448,43.681469],[-95.375452,43.681401],[-95.375453,43.680728],[-95.375454,43.679413],[-95.37546,43.675472],[-95.375462,43.674158],[-95.376178,43.674158],[-95.377419,43.674159],[-95.377421,43.674252],[-95.377455,43.675884],[-95.377477,43.676934],[-95.377981,43.67693],[-95.37912,43.67692],[-95.379119,43.67661],[-95.379103,43.67612],[-95.379058,43.674652],[-95.379043,43.674163],[-95.380236,43.674164],[-95.380486,43.674164],[-95.380473,43.677778],[-95.382331,43.677783],[-95.385445,43.677792],[-95.385458,43.68081],[-95.38546,43.681398],[-95.390431,43.681378],[-95.390403,43.680851],[-95.390452,43.678484],[-95.390543,43.674156],[-95.389436,43.674159],[-95.38802,43.674165],[-95.386116,43.674164],[-95.385498,43.674164],[-95.385511,43.668475],[-95.385474,43.66669],[-95.38987,43.66668],[-95.395448,43.666667],[-95.395448,43.66644],[-95.395448,43.665049],[-95.395449,43.662705],[-95.395435,43.66189],[-95.395434,43.66088],[-95.395433,43.65949],[-95.395424,43.659161],[-95.395412,43.657998],[-95.395389,43.655475],[-95.395389,43.654479],[-95.39538,43.653523],[-95.395374,43.652827],[-95.395373,43.652032],[-95.39897,43.652056],[-95.40975,43.65213],[-95.41336,43.652153],[-95.413698,43.652183],[-95.414712,43.652273],[-95.41505,43.652303],[-95.415092,43.652296],[-95.415215,43.652278],[-95.415263,43.652267],[-95.415264,43.652101],[-95.415261,43.65177],[-95.415252,43.65028],[-95.415249,43.649784],[-95.415242,43.648811],[-95.415222,43.645892],[-95.415216,43.64492],[-95.415205,43.644426],[-95.4152,43.643887],[-95.41518,43.641698],[-95.415164,43.640989],[-95.415162,43.640788],[-95.415155,43.639861],[-95.41516,43.639756],[-95.415205,43.639423],[-95.415341,43.638423],[-95.415371,43.638199],[-95.415383,43.637947],[-95.415189,43.637952],[-95.413919,43.637955],[-95.412293,43.637921],[-95.411345,43.637886],[-95.41009,43.637838],[-95.40917,43.637792],[-95.40755,43.637703],[-95.403835,43.637528],[-95.403105,43.637496],[-95.4013,43.637407],[-95.400482,43.637363],[-95.399268,43.637324],[-95.396981,43.637252],[-95.395344,43.637249],[-95.395224,43.637252],[-95.395227,43.637143],[-95.395237,43.636817],[-95.395241,43.636709],[-95.395237,43.635473],[-95.395228,43.631766],[-95.395226,43.630531],[-95.39582,43.630527],[-95.397605,43.630519],[-95.3982,43.630516],[-95.399617,43.630508],[-95.403868,43.630487],[-95.405122,43.63048],[-95.405145,43.623245],[-95.415119,43.623185],[-95.425029,43.623162],[-95.424962,43.615965],[-95.419128,43.61598],[-95.415176,43.615991],[-95.415137,43.61309],[-95.41502,43.604389],[-95.414982,43.601489],[-95.41385,43.601497],[-95.411908,43.601499],[-95.408971,43.601503],[-95.406764,43.601499],[-95.405038,43.601516],[-95.402845,43.601505],[-95.402689,43.601505],[-95.399932,43.601513],[-95.400103,43.612294],[-95.399453,43.612261],[-95.398167,43.612273],[-95.395159,43.612302],[-95.395138,43.610149],[-95.395126,43.608821],[-95.395108,43.60795],[-95.395073,43.603692],[-95.395056,43.60154],[-95.39473,43.60152],[-95.393035,43.601529],[-95.386971,43.601563],[-95.38495,43.601575],[-95.384996,43.598164],[-95.385046,43.594595],[-95.378382,43.59455],[-95.374971,43.594528],[-95.371786,43.594524],[-95.362231,43.594515],[-95.360031,43.594513],[-95.359999,43.587186],[-95.359114,43.587189],[-95.358285,43.587191],[-95.355797,43.587199],[-95.354969,43.587202],[-95.354962,43.587021],[-95.354952,43.58631],[-95.35493,43.584722],[-95.354938,43.583634],[-95.354946,43.582754],[-95.354946,43.582743],[-95.354941,43.58208],[-95.35494,43.582034],[-95.354915,43.580782],[-95.354911,43.579958],[-95.374898,43.579888],[-95.374896,43.57956],[-95.3749,43.579245],[-95.374907,43.578724],[-95.374907,43.57871],[-95.374915,43.57812],[-95.374904,43.577105],[-95.374902,43.576872],[-95.374905,43.576571],[-95.374906,43.576419],[-95.37491,43.575963],[-95.374912,43.575812],[-95.374917,43.575189],[-95.374933,43.573321],[-95.374937,43.572865],[-95.374938,43.57279],[-95.374943,43.572699],[-95.374932,43.571315],[-95.3749,43.567163],[-95.37489,43.565779],[-95.374887,43.565515],[-95.378292,43.565501],[-95.379856,43.56549],[-95.379791,43.558134],[-95.379739,43.552159],[-95.379721,43.550911],[-95.384813,43.550866],[-95.384782,43.548804],[-95.384716,43.547176],[-95.374729,43.547211],[-95.374727,43.546816],[-95.374722,43.54619],[-95.374709,43.544313],[-95.374705,43.543688],[-95.374692,43.542455],[-95.374694,43.542128],[-95.374717,43.539712],[-95.374701,43.538556],[-95.374699,43.537451],[-95.374699,43.537102],[-95.374717,43.535892],[-95.374722,43.535548],[-95.374726,43.534555],[-95.374731,43.533672],[-95.37472,43.53243],[-95.374725,43.530547],[-95.374726,43.530441],[-95.374732,43.529979],[-95.374757,43.529294],[-95.374772,43.529213],[-95.375283,43.52921],[-95.376688,43.529213],[-95.376825,43.529212],[-95.379378,43.529205],[-95.381166,43.529192],[-95.381808,43.529191],[-95.382985,43.529192],[-95.384647,43.529195],[-95.384665,43.526188],[-95.38467,43.525574],[-95.374801,43.525585],[-95.374808,43.524729],[-95.374841,43.520789],[-95.374852,43.519476],[-95.374856,43.518907],[-95.37487,43.517202],[-95.374875,43.516634],[-95.374877,43.516252],[-95.374887,43.515106],[-95.374891,43.514725],[-95.375021,43.514733],[-95.376739,43.514721],[-95.37692,43.51472],[-95.378024,43.514726],[-95.378497,43.514722],[-95.378687,43.514721],[-95.379585,43.514729],[-95.381454,43.514714],[-95.382287,43.514714],[-95.384137,43.514715],[-95.384725,43.514715],[-95.384684,43.509269],[-95.38467,43.507499],[-95.394585,43.507465],[-95.394586,43.507408],[-95.394594,43.502985],[-95.394591,43.502019],[-95.394588,43.500223],[-95.395064,43.500221],[-95.396493,43.500218],[-95.39697,43.500218],[-95.397059,43.500217],[-95.397325,43.500217],[-95.397415,43.500217],[-95.399734,43.500211],[-95.406691,43.500195],[-95.409011,43.500191],[-95.410115,43.500188],[-95.41343,43.50018],[-95.413701,43.50018],[-95.414535,43.50017],[-95.414945,43.500167],[-95.416178,43.50016],[-95.416589,43.500159],[-95.418233,43.50015],[-95.423165,43.500123],[-95.424809,43.500114],[-95.425345,43.500111],[-95.426956,43.500101],[-95.427494,43.500099],[-95.428446,43.500103],[-95.431305,43.500115],[-95.432259,43.500119],[-95.432421,43.50012],[-95.432644,43.500118],[-95.4338,43.500113],[-95.433839,43.500113],[-95.433945,43.500121],[-95.434025,43.500135],[-95.434108,43.500177],[-95.434159,43.50022],[-95.434193,43.500248],[-95.434204,43.500257],[-95.434238,43.500315],[-95.434244,43.50037],[-95.43425,43.500415],[-95.436902,43.500441],[-95.444858,43.500519],[-95.447511,43.500546],[-95.448895,43.500566],[-95.453048,43.500626],[-95.454433,43.500646],[-95.454614,43.500647],[-95.454608,43.500565],[-95.454656,43.500564],[-95.454706,43.500563],[-95.456563,43.500532],[-95.457491,43.500517],[-95.457975,43.500509],[-95.460448,43.500469],[-95.460478,43.500468],[-95.474776,43.500331],[-95.474805,43.500331],[-95.475062,43.500338],[-95.475421,43.500314],[-95.475596,43.50031],[-95.476218,43.500307],[-95.476738,43.500304],[-95.477448,43.500301],[-95.478276,43.500024],[-95.480367,43.500026],[-95.482895,43.5],[-95.484295,43.500001],[-95.484345,43.500001],[-95.486318,43.499995],[-95.486552,43.499994],[-95.486793,43.499995],[-95.487376,43.499998],[-95.487392,43.500001],[-95.488731,43.50004],[-95.488749,43.50004],[-95.488773,43.500041],[-95.488837,43.500043],[-95.489028,43.500049],[-95.492711,43.500164],[-95.493053,43.500157],[-95.497158,43.500043],[-95.49835,43.50001],[-95.498425,43.500008],[-95.498536,43.500005],[-95.499306,43.499986],[-95.499985,43.499971],[-95.500145,43.499967],[-95.500283,43.499964],[-95.502536,43.499967],[-95.504899,43.499964],[-95.514656,43.499867],[-95.515856,43.499916],[-95.516169,43.499931],[-95.517329,43.499986],[-95.518115,43.499993],[-95.52067,43.499986],[-95.521726,43.499992],[-95.5245,43.499856],[-95.524576,43.499908],[-95.524608,43.499917],[-95.524676,43.499936],[-95.524764,43.499961],[-95.524788,43.499965],[-95.524921,43.49997],[-95.535187,43.499947],[-95.5354,43.499947],[-95.544504,43.499927],[-95.544538,43.499927],[-95.547574,43.499937],[-95.549808,43.499925],[-95.552454,43.499951],[-95.559951,43.499926],[-95.562494,43.499941],[-95.564236,43.499925],[-95.564295,43.503147],[-95.564157,43.521741],[-95.574122,43.521719],[-95.574101,43.523965]],[[-95.445554,43.775428],[-95.445727,43.775428],[-95.449687,43.775409],[-95.450498,43.775408],[-95.452089,43.775408],[-95.452081,43.775183],[-95.452082,43.774971],[-95.45209,43.773772],[-95.452093,43.77366],[-95.452107,43.773224],[-95.452127,43.772511],[-95.452191,43.770374],[-95.452213,43.769662],[-95.452213,43.769624],[-95.452176,43.767923],[-95.452066,43.762709],[-95.45203,43.760971],[-95.450468,43.760971],[-95.445785,43.760971],[-95.445405,43.760971],[-95.445445,43.764938],[-95.445554,43.775428]]]}},{"type":"Feature","properties":{"STATEFP":"27","ELSDLEA":"07110","GEOID":"2707110","GEOIDFQ":"9500000US2707110","NAME":"Browns Valley Public School District","LSAD":"00","LOGRADE":"PK","HIGRADE":"12","MTFCC":"G5400","SDTYP":"","FUNCSTAT":"E","ALAND":120256292,"AWATER":18198228,"INTPTLAT":"+45.6513049","INTPTLON":"-096.7505553"},"geometry":{"type":"Polygon","coordinates":[[[-96.856815,45.605556],[-96.856758,45.606092],[-96.85674,45.606271],[-96.856735,45.606319],[-96.856719,45.606463],[-96.856715,45.606512],[-96.856705,45.606606],[-96.856695,45.6067],[-96.856687,45.606774],[-96.856648,45.607146],[-96.856579,45.607557],[-96.856536,45.607817],[-96.856513,45.607947],[-96.856451,45.608189],[-96.856425,45.608334],[-96.856402,45.608465],[-96.856347,45.608771],[-96.85622,45.609655],[-96.856191,45.609864],[-96.854784,45.61205],[-96.854296,45.612686],[-96.853564,45.613642],[-96.853339,45.613935],[-96.852663,45.614816],[-96.852439,45.61511],[-96.852137,45.615941],[-96.852123,45.615982],[-96.852111,45.61602],[-96.851501,45.617951],[-96.851441,45.618492],[-96.851345,45.619372],[-96.851409,45.619468],[-96.851598,45.619755],[-96.85129,45.620524],[-96.851052,45.621114],[-96.850733,45.621912],[-96.850059,45.623594],[-96.850116,45.624337],[-96.850163,45.62496],[-96.849811,45.625688],[-96.849473,45.626375],[-96.849408,45.626517],[-96.848613,45.62827],[-96.848431,45.62867],[-96.848268,45.629063],[-96.848001,45.629712],[-96.846112,45.634932],[-96.846096,45.634979],[-96.845671,45.636149],[-96.844211,45.639583],[-96.84337,45.641107],[-96.842826,45.642093],[-96.842271,45.6431],[-96.840746,45.645294],[-96.839967,45.646117],[-96.839482,45.646626],[-96.839021,45.647115],[-96.838648,45.647509],[-96.838456,45.647653],[-96.835769,45.649648],[-96.835038,45.650134],[-96.833433,45.651203],[-96.83327,45.65131],[-96.832659,45.651716],[-96.831277,45.652105],[-96.829332,45.652345],[-96.827428,45.653067],[-96.826884,45.653474],[-96.826687,45.653662],[-96.82616,45.654164],[-96.825973,45.654354],[-96.825336,45.654999],[-96.82474,45.655351],[-96.824177,45.655684],[-96.82118,45.656922],[-96.819504,45.657826],[-96.817236,45.65905],[-96.816112,45.659658],[-96.81581,45.659822],[-96.813786,45.660914],[-96.81341,45.661125],[-96.807598,45.664397],[-96.804255,45.666329],[-96.802468,45.667276],[-96.800156,45.668355],[-96.799654,45.668528],[-96.797182,45.669384],[-96.795432,45.669991],[-96.79363,45.67072],[-96.791775,45.671724],[-96.790572,45.67261],[-96.789756,45.673177],[-96.789368,45.673448],[-96.784328,45.67609],[-96.783761,45.676387],[-96.781633,45.677506],[-96.780522,45.678083],[-96.778936,45.678909],[-96.778434,45.679174],[-96.77795,45.679428],[-96.776765,45.68005],[-96.765414,45.685324],[-96.762062,45.686882],[-96.761226,45.687326],[-96.760866,45.687518],[-96.760544,45.687769],[-96.760017,45.688186],[-96.75949,45.688604],[-96.759312,45.688744],[-96.757174,45.690957],[-96.755506,45.693135],[-96.75035,45.698782],[-96.750073,45.698928],[-96.745668,45.701267],[-96.745086,45.701576],[-96.738243,45.704663],[-96.731506,45.708007],[-96.726821,45.710347],[-96.71782,45.714509],[-96.71219,45.717087],[-96.711157,45.717561],[-96.707663,45.719007],[-96.701481,45.72125],[-96.699096,45.722039],[-96.698749,45.722152],[-96.698564,45.722214],[-96.698032,45.72239],[-96.697712,45.722496],[-96.697468,45.722578],[-96.697366,45.72261],[-96.69653,45.722874],[-96.695693,45.723139],[-96.692143,45.724264],[-96.691511,45.724465],[-96.687224,45.725931],[-96.676934,45.730457],[-96.672665,45.732336],[-96.671961,45.732745],[-96.670625,45.733523],[-96.669686,45.734125],[-96.669588,45.734189],[-96.66949,45.734253],[-96.668961,45.734592],[-96.662595,45.738682],[-96.660155,45.740434],[-96.659477,45.740922],[-96.657378,45.742601],[-96.657338,45.740926],[-96.657317,45.740056],[-96.657299,45.739251],[-96.65727,45.738004],[-96.65724,45.736756],[-96.657159,45.733317],[-96.657137,45.732422],[-96.657077,45.729878],[-96.657073,45.729576],[-96.657061,45.728671],[-96.657058,45.72837],[-96.657024,45.726889],[-96.65702,45.726692],[-96.656982,45.725013],[-96.656936,45.72299],[-96.656923,45.722447],[-96.656891,45.720967],[-96.656854,45.720103],[-96.656746,45.717513],[-96.65671,45.71665],[-96.65671,45.71661],[-96.6567,45.71654],[-96.656688,45.716295],[-96.65668,45.7161],[-96.65667,45.71537],[-96.656682,45.715231],[-96.656714,45.714878],[-96.65672,45.71481],[-96.65674,45.71444],[-96.65674,45.71398],[-96.65674,45.713944],[-96.656792,45.711143],[-96.65681,45.71021],[-96.656834,45.708538],[-96.656906,45.703522],[-96.65693,45.70185],[-96.656933,45.700306],[-96.656946,45.695676],[-96.656951,45.694133],[-96.653401,45.694114],[-96.645927,45.694074],[-96.645971,45.690899],[-96.646022,45.68735],[-96.64594,45.68735],[-96.644047,45.687343],[-96.64307,45.68734],[-96.638124,45.68734],[-96.63766,45.68734],[-96.63615,45.68733],[-96.636213,45.672851],[-96.636338,45.658356],[-96.636329,45.656806],[-96.636305,45.652157],[-96.636297,45.650608],[-96.639484,45.65064],[-96.646592,45.650714],[-96.649048,45.650739],[-96.652236,45.650773],[-96.652561,45.650772],[-96.653539,45.650772],[-96.653866,45.650772],[-96.654506,45.650778],[-96.656429,45.650798],[-96.65707,45.650805],[-96.660492,45.650848],[-96.666704,45.650928],[-96.666592,45.65498],[-96.666499,45.658402],[-96.666419,45.661995],[-96.666351,45.665128],[-96.674,45.665173],[-96.677595,45.665195],[-96.679563,45.665202],[-96.685467,45.665224],[-96.687435,45.665232],[-96.687459,45.665263],[-96.688783,45.665245],[-96.688931,45.665243],[-96.688949,45.663785],[-96.688977,45.661418],[-96.688993,45.660094],[-96.688993,45.659989],[-96.688995,45.659675],[-96.688996,45.659571],[-96.688999,45.659358],[-96.689012,45.658722],[-96.689017,45.65851],[-96.68765,45.65851],[-96.6875,45.65852],[-96.686719,45.65852],[-96.68585,45.65852],[-96.68315,45.65851],[-96.68064,45.65851],[-96.679827,45.658506],[-96.67799,45.6585],[-96.67753,45.65849],[-96.67752,45.65807],[-96.677512,45.657022],[-96.67751,45.65662],[-96.67751,45.65488],[-96.67752,45.65329],[-96.67752,45.652619],[-96.67752,45.651152],[-96.681225,45.65116],[-96.688847,45.651178],[-96.688851,45.647681],[-96.688856,45.643975],[-96.688853,45.64027],[-96.688846,45.629388],[-96.689077,45.629376],[-96.692778,45.629188],[-96.692943,45.629208],[-96.69344,45.629269],[-96.693607,45.629272],[-96.69834,45.629323],[-96.698728,45.629327],[-96.704619,45.62939],[-96.705992,45.629407],[-96.714091,45.629399],[-96.719213,45.629394],[-96.721488,45.629406],[-96.728315,45.629443],[-96.730591,45.629456],[-96.732498,45.62947],[-96.737663,45.62951],[-96.738222,45.6295],[-96.74013,45.62947],[-96.740117,45.629446],[-96.740081,45.629374],[-96.74007,45.62935],[-96.740634,45.629378],[-96.742326,45.629462],[-96.74289,45.62949],[-96.74361,45.62948],[-96.746522,45.629498],[-96.75,45.62952],[-96.75016,45.62953],[-96.75134,45.62954],[-96.75399,45.62955],[-96.75633,45.62957],[-96.757418,45.629574],[-96.76076,45.62959],[-96.76105,45.6296],[-96.76107,45.62892],[-96.76106,45.62788],[-96.761067,45.626692],[-96.76107,45.62631],[-96.76107,45.62501],[-96.76104,45.62343],[-96.76104,45.62118],[-96.76105,45.61924],[-96.761043,45.617968],[-96.76104,45.61724],[-96.76105,45.61506],[-96.76103,45.6135],[-96.76103,45.612141],[-96.76103,45.61132],[-96.76098,45.60845],[-96.76098,45.60607],[-96.76097,45.60434],[-96.760975,45.603387],[-96.76098,45.60255],[-96.76097,45.60087],[-96.76098,45.60047],[-96.760985,45.59757],[-96.761005,45.588874],[-96.761012,45.585975],[-96.761174,45.585975],[-96.761664,45.585978],[-96.761827,45.58598],[-96.761846,45.58598],[-96.765849,45.585975],[-96.771691,45.58597],[-96.772219,45.58598],[-96.772872,45.585972],[-96.775038,45.58597],[-96.777916,45.585977],[-96.781704,45.585988],[-96.781808,45.585988],[-96.781939,45.585988],[-96.782346,45.58599],[-96.788587,45.58601],[-96.802827,45.586057],[-96.80362,45.58604],[-96.804178,45.586035],[-96.804729,45.586031],[-96.804936,45.586031],[-96.80721,45.586034],[-96.807403,45.586035],[-96.807841,45.586044],[-96.807969,45.586043],[-96.808106,45.586041],[-96.808518,45.586037],[-96.808656,45.586036],[-96.80921,45.58605],[-96.810873,45.586094],[-96.811428,45.586109],[-96.811548,45.58611],[-96.813913,45.586099],[-96.818227,45.586081],[-96.821369,45.586068],[-96.823613,45.586059],[-96.823658,45.586059],[-96.823855,45.586058],[-96.823846,45.586115],[-96.823902,45.586113],[-96.82625,45.586154],[-96.830633,45.586224],[-96.830634,45.586096],[-96.830677,45.586096],[-96.831321,45.5861],[-96.833253,45.586113],[-96.833898,45.586118],[-96.834208,45.58612],[-96.83514,45.586126],[-96.835451,45.586129],[-96.836627,45.587177],[-96.840156,45.590323],[-96.840915,45.590999],[-96.841333,45.591372],[-96.8414,45.591448],[-96.841546,45.591614],[-96.842185,45.592343],[-96.84239,45.592577],[-96.8424,45.592585],[-96.842577,45.59273],[-96.843108,45.593168],[-96.843286,45.593314],[-96.84342,45.593446],[-96.843825,45.593844],[-96.84396,45.593977],[-96.844081,45.59409],[-96.844444,45.594432],[-96.844566,45.594546],[-96.84466,45.594621],[-96.844942,45.594849],[-96.845037,45.594925],[-96.845225,45.595095],[-96.845791,45.595607],[-96.84598,45.595778],[-96.846145,45.595929],[-96.846643,45.596385],[-96.846809,45.596537],[-96.846825,45.596552],[-96.846894,45.596614],[-96.847539,45.597163],[-96.849737,45.599035],[-96.85047,45.59966],[-96.850501,45.599685],[-96.850596,45.59976],[-96.850628,45.599786],[-96.850665,45.599815],[-96.85072,45.59986],[-96.850773,45.599908],[-96.850809,45.59994],[-96.850958,45.600073],[-96.851405,45.600475],[-96.851554,45.600609],[-96.851664,45.600708],[-96.851997,45.601005],[-96.852108,45.601105],[-96.853056,45.601956],[-96.85335,45.60222],[-96.85339,45.602259],[-96.85387,45.60272],[-96.854289,45.603093],[-96.85477,45.60352],[-96.855881,45.604531],[-96.85633,45.60494],[-96.856834,45.605378],[-96.856815,45.605556]]]}},{"type":"Feature","properties":{"STATEFP":"27","ELSDLEA":"15540","GEOID":"2715540","GEOIDFQ":"9500000US2715540","NAME":"Ivanhoe Public School District","LSAD":"00","LOGRADE":"PK","HIGRADE":"12","MTFCC":"G5400","SDTYP":"","FUNCSTAT":"E","ALAND":374309273,"AWATER":10054252,"INTPTLAT":"+44.4676397","INTPTLON":"-096.2310418"},"geometry":{"type":"MultiPolygon","coordinates":[[[[-96.384426,44.402731],[-96.384417,44.403654],[-96.384413,44.403996],[-96.384359,44.410615],[-96.384309,44.41213],[-96.384272,44.414966],[-96.384275,44.415448],[-96.38434,44.427148],[-96.384341,44.427407],[-96.384348,44.42996],[-96.384352,44.431098],[-96.384319,44.434085],[-96.384309,44.436555],[-96.384326,44.438448],[-96.384364,44.44258],[-96.38435,44.444464],[-96.382898,44.444473],[-96.381821,44.444475],[-96.380037,44.44449],[-96.374271,44.444558],[-96.373962,44.44456],[-96.373867,44.45193],[-96.384359,44.451871],[-96.384358,44.452403],[-96.384366,44.453],[-96.384387,44.454502],[-96.384372,44.456453],[-96.384378,44.458326],[-96.384375,44.458985],[-96.382675,44.45901],[-96.381532,44.459027],[-96.379419,44.459042],[-96.377257,44.459067],[-96.373955,44.459114],[-96.372958,44.4591],[-96.369763,44.459055],[-96.366971,44.459022],[-96.364108,44.458997],[-96.361448,44.458963],[-96.360113,44.45895],[-96.358665,44.458936],[-96.358455,44.458934],[-96.357756,44.458946],[-96.356829,44.458963],[-96.355103,44.459021],[-96.354946,44.459026],[-96.354302,44.459042],[-96.354063,44.459048],[-96.35394,44.465198],[-96.353785,44.469859],[-96.343592,44.469819],[-96.343585,44.469572],[-96.343571,44.469074],[-96.343651,44.467665],[-96.343698,44.466037],[-96.343713,44.464613],[-96.343779,44.462846],[-96.343848,44.459196],[-96.341504,44.459202],[-96.338753,44.459228],[-96.336978,44.459228],[-96.335653,44.459233],[-96.333704,44.45924],[-96.331143,44.459222],[-96.327391,44.459186],[-96.325275,44.459166],[-96.323549,44.459165],[-96.323319,44.472037],[-96.323176,44.47368],[-96.323159,44.474516],[-96.323116,44.476],[-96.322661,44.48816],[-96.322627,44.48982],[-96.322611,44.491845],[-96.322636,44.49242],[-96.322636,44.492433],[-96.322614,44.493637],[-96.322605,44.494135],[-96.322574,44.497539],[-96.322578,44.498664],[-96.322572,44.498979],[-96.322528,44.501326],[-96.322506,44.502877],[-96.322461,44.509483],[-96.322458,44.509905],[-96.322456,44.510053],[-96.312363,44.510335],[-96.312268,44.510311],[-96.312172,44.510293],[-96.312183,44.512801],[-96.312184,44.513688],[-96.312182,44.514288],[-96.31223,44.514443],[-96.312135,44.515251],[-96.31213,44.515914],[-96.312126,44.517129],[-96.312152,44.517636],[-96.31215,44.518211],[-96.312153,44.518549],[-96.312152,44.524099],[-96.312334,44.524837],[-96.313326,44.524804],[-96.31395,44.52477],[-96.314446,44.524736],[-96.314631,44.524738],[-96.314721,44.524759],[-96.316067,44.524733],[-96.316167,44.524741],[-96.316375,44.524741],[-96.316576,44.524736],[-96.316877,44.524717],[-96.317187,44.524704],[-96.317281,44.524688],[-96.317355,44.52465],[-96.317402,44.524582],[-96.317458,44.52452],[-96.317536,44.524466],[-96.317623,44.52443],[-96.317713,44.524438],[-96.317807,44.524477],[-96.317877,44.52453],[-96.31792,44.524597],[-96.317956,44.524666],[-96.318022,44.524717],[-96.318097,44.524685],[-96.318128,44.524619],[-96.318202,44.524396],[-96.318243,44.524341],[-96.318341,44.524356],[-96.318429,44.524399],[-96.318483,44.524458],[-96.318558,44.524595],[-96.322373,44.524502],[-96.32237,44.525102],[-96.322382,44.525738],[-96.322385,44.525872],[-96.322387,44.525973],[-96.322363,44.527209],[-96.322371,44.528094],[-96.342862,44.528143],[-96.342859,44.528648],[-96.342841,44.531005],[-96.342848,44.531781],[-96.342902,44.53457],[-96.342919,44.535488],[-96.337785,44.535466],[-96.337724,44.53456],[-96.337824,44.533221],[-96.337679,44.533255],[-96.337693,44.53176],[-96.332633,44.531723],[-96.332627,44.537528],[-96.332616,44.538478],[-96.332556,44.543605],[-96.328282,44.543624],[-96.327998,44.543612],[-96.327158,44.54358],[-96.327024,44.543568],[-96.326463,44.543558],[-96.323769,44.543559],[-96.32249,44.543547],[-96.321611,44.543539],[-96.321162,44.543535],[-96.320185,44.543538],[-96.319087,44.543536],[-96.317738,44.543529],[-96.316825,44.543525],[-96.316528,44.543523],[-96.314124,44.543522],[-96.31238,44.543508],[-96.31055,44.543512],[-96.308307,44.543496],[-96.306605,44.543491],[-96.30638,44.552559],[-96.296248,44.552524],[-96.296241,44.553045],[-96.296208,44.555841],[-96.296194,44.55754],[-96.296182,44.557973],[-96.296154,44.559023],[-96.296113,44.56114],[-96.296059,44.563496],[-96.296011,44.56496],[-96.296002,44.565185],[-96.290931,44.565071],[-96.29091,44.56598],[-96.29087,44.56873],[-96.289283,44.568671],[-96.285977,44.568629],[-96.285997,44.564999],[-96.284045,44.564961],[-96.280902,44.564899],[-96.280941,44.562831],[-96.280941,44.562726],[-96.280942,44.561438],[-96.283417,44.56143],[-96.284529,44.561426],[-96.285997,44.561398],[-96.286007,44.559507],[-96.286016,44.557754],[-96.284533,44.557723],[-96.284509,44.557722],[-96.281561,44.557674],[-96.278481,44.557612],[-96.276662,44.55756],[-96.27583,44.55756],[-96.275847,44.556036],[-96.275889,44.553885],[-96.268274,44.55402],[-96.265739,44.554096],[-96.265773,44.550622],[-96.265552,44.550623],[-96.260649,44.550643],[-96.260581,44.55766],[-96.260579,44.557869],[-96.262603,44.557808],[-96.26429,44.557776],[-96.265527,44.557736],[-96.265502,44.560788],[-96.265665,44.561373],[-96.275797,44.560898],[-96.275783,44.562504],[-96.275762,44.563903],[-96.27575,44.565612],[-96.27573,44.566661],[-96.275709,44.568581],[-96.275673,44.570593],[-96.275671,44.571324],[-96.275669,44.572109],[-96.282423,44.57222],[-96.285494,44.57222],[-96.285919,44.572229],[-96.286206,44.579121],[-96.286223,44.579499],[-96.291183,44.579584],[-96.291264,44.581325],[-96.291317,44.583146],[-96.296422,44.583237],[-96.296468,44.584062],[-96.296487,44.584269],[-96.296521,44.584795],[-96.296554,44.585395],[-96.296638,44.586902],[-96.29422,44.586878],[-96.293081,44.586867],[-96.291587,44.586846],[-96.291618,44.588664],[-96.291694,44.594404],[-96.291671,44.59594],[-96.291518,44.595742],[-96.291312,44.595549],[-96.291205,44.59539],[-96.291151,44.595309],[-96.290952,44.59516],[-96.290829,44.595117],[-96.290438,44.595208],[-96.290085,44.595329],[-96.289724,44.595472],[-96.289246,44.59569],[-96.288802,44.595845],[-96.288325,44.596003],[-96.28797,44.59615],[-96.287671,44.596303],[-96.287486,44.596464],[-96.287309,44.596666],[-96.287192,44.596912],[-96.287246,44.597269],[-96.287252,44.597474],[-96.287284,44.597599],[-96.287335,44.597698],[-96.281306,44.597644],[-96.281426,44.601233],[-96.28101,44.601228],[-96.276668,44.601166],[-96.276528,44.601164],[-96.276147,44.601146],[-96.276011,44.601184],[-96.269182,44.601324],[-96.267829,44.601355],[-96.26707,44.60138],[-96.266374,44.601403],[-96.266084,44.601402],[-96.266085,44.595385],[-96.266048,44.595319],[-96.266085,44.592886],[-96.266085,44.590526],[-96.267005,44.590526],[-96.270349,44.590453],[-96.273223,44.590478],[-96.273223,44.58858],[-96.273331,44.586692],[-96.274458,44.586668],[-96.274563,44.587182],[-96.275249,44.587168],[-96.275167,44.587937],[-96.276387,44.587964],[-96.27638,44.588531],[-96.27637,44.589329],[-96.276362,44.589798],[-96.276353,44.59031],[-96.284012,44.590313],[-96.286545,44.590325],[-96.28653,44.589339],[-96.286462,44.586771],[-96.285542,44.586759],[-96.285284,44.586755],[-96.285253,44.58644],[-96.284947,44.579475],[-96.275988,44.57938],[-96.275974,44.579091],[-96.255788,44.579711],[-96.255785,44.579031],[-96.255775,44.577073],[-96.255775,44.577049],[-96.25577,44.576194],[-96.245697,44.576278],[-96.2457,44.577173],[-96.245708,44.580022],[-96.245487,44.580028],[-96.245887,44.587183],[-96.245291,44.587184],[-96.243597,44.587187],[-96.238647,44.58723],[-96.235598,44.587265],[-96.235577,44.584194],[-96.235573,44.583678],[-96.231125,44.583796],[-96.230583,44.583783],[-96.23051,44.580185],[-96.227659,44.580236],[-96.220383,44.580367],[-96.220322,44.576829],[-96.215325,44.576955],[-96.215333,44.575636],[-96.215346,44.573268],[-96.215415,44.55869],[-96.214283,44.558666],[-96.212805,44.558578],[-96.210853,44.558484],[-96.209042,44.558427],[-96.207876,44.558379],[-96.207546,44.558366],[-96.206474,44.558281],[-96.203725,44.558136],[-96.202061,44.558071],[-96.200549,44.558028],[-96.197308,44.557902],[-96.195636,44.557827],[-96.194629,44.557804],[-96.194195,44.557794],[-96.192997,44.557827],[-96.191325,44.557826],[-96.189774,44.557834],[-96.188025,44.557822],[-96.187475,44.557845],[-96.18543,44.557842],[-96.184609,44.557847],[-96.184525,44.557853],[-96.184515,44.55714],[-96.184494,44.55541],[-96.184472,44.553765],[-96.184435,44.550679],[-96.17442,44.550714],[-96.174413,44.55623],[-96.174397,44.55754],[-96.174403,44.557948],[-96.173697,44.557938],[-96.17256,44.557966],[-96.171696,44.557966],[-96.170656,44.55795],[-96.169409,44.557963],[-96.169423,44.555372],[-96.169447,44.550737],[-96.169319,44.550758],[-96.167661,44.550734],[-96.161421,44.550701],[-96.154131,44.550711],[-96.15413,44.550307],[-96.154114,44.546482],[-96.15412,44.543458],[-96.153701,44.543461],[-96.152122,44.543468],[-96.150644,44.543468],[-96.150743,44.539631],[-96.146867,44.539564],[-96.144757,44.539537],[-96.143927,44.539551],[-96.143364,44.539545],[-96.142244,44.539513],[-96.140884,44.539477],[-96.140601,44.539463],[-96.140373,44.539469],[-96.140388,44.53911],[-96.140469,44.537239],[-96.140472,44.537157],[-96.140615,44.533755],[-96.140621,44.533575],[-96.140658,44.532431],[-96.140661,44.532142],[-96.14067,44.531131],[-96.140592,44.525778],[-96.140594,44.524527],[-96.134017,44.524492],[-96.133993,44.524526],[-96.133934,44.52459],[-96.133876,44.524624],[-96.133821,44.524592],[-96.13381,44.524577],[-96.133366,44.524579],[-96.132614,44.524575],[-96.13218,44.524576],[-96.120483,44.524653],[-96.120473,44.523761],[-96.120427,44.522307],[-96.120397,44.519388],[-96.120354,44.517921],[-96.120339,44.517395],[-96.119823,44.517391],[-96.118615,44.517406],[-96.117362,44.517413],[-96.116144,44.517438],[-96.115613,44.517438],[-96.113083,44.517439],[-96.111557,44.517461],[-96.11011,44.517466],[-96.110086,44.51357],[-96.110113,44.513507],[-96.110103,44.513357],[-96.110126,44.51314],[-96.110141,44.513069],[-96.110143,44.512232],[-96.110179,44.51171],[-96.110421,44.51145],[-96.110463,44.511386],[-96.110494,44.511316],[-96.110518,44.511244],[-96.110531,44.511171],[-96.110526,44.511102],[-96.110489,44.511037],[-96.110369,44.510913],[-96.110355,44.510881],[-96.110378,44.510736],[-96.110186,44.502939],[-96.109413,44.50294],[-96.107198,44.502943],[-96.104772,44.502941],[-96.103831,44.502944],[-96.103244,44.502946],[-96.101629,44.502921],[-96.100058,44.502933],[-96.100071,44.501516],[-96.100049,44.500056],[-96.100057,44.499886],[-96.100057,44.498806],[-96.100057,44.49731],[-96.100081,44.490383],[-96.100076,44.488377],[-96.097653,44.488364],[-96.07993,44.48829],[-96.079919,44.487599],[-96.079906,44.483618],[-96.079903,44.483049],[-96.079902,44.48259],[-96.079901,44.482325],[-96.0799,44.482139],[-96.079879,44.476315],[-96.079881,44.476271],[-96.079879,44.476226],[-96.07987,44.4737],[-96.079841,44.472333],[-96.079872,44.466682],[-96.079881,44.459076],[-96.079869,44.459062],[-96.079829,44.45904],[-96.079799,44.459],[-96.079789,44.45894],[-96.079769,44.45834],[-96.079799,44.45757],[-96.079779,44.455749],[-96.079739,44.454559],[-96.079689,44.449209],[-96.079679,44.449139],[-96.079649,44.449049],[-96.079609,44.448959],[-96.079509,44.448769],[-96.079469,44.448639],[-96.079439,44.44852],[-96.079434,44.448377],[-96.079429,44.448239],[-96.079419,44.448179],[-96.079463,44.447937],[-96.07947,44.4479],[-96.0795,44.44781],[-96.0796,44.44756],[-96.07965,44.44742],[-96.07967,44.44733],[-96.07967,44.44672],[-96.07962,44.44448],[-96.07959,44.44306],[-96.07957,44.44151],[-96.07952,44.439],[-96.07952,44.43801],[-96.0795,44.43751],[-96.0795,44.43619],[-96.07946,44.43383],[-96.079449,44.433268],[-96.079437,44.432742],[-96.07942,44.43181],[-96.0794,44.43033],[-96.0794,44.430254],[-96.0794,44.430026],[-96.0794,44.42995],[-96.079396,44.428697],[-96.079386,44.424941],[-96.079383,44.423689],[-96.079378,44.422017],[-96.079364,44.417001],[-96.07936,44.41533],[-96.079819,44.415336],[-96.083327,44.415275],[-96.084951,44.415263],[-96.085812,44.415248],[-96.088485,44.4152],[-96.090477,44.415192],[-96.092693,44.415145],[-96.096367,44.415091],[-96.099583,44.415056],[-96.099593,44.413925],[-96.099592,44.409872],[-96.099597,44.408066],[-96.099597,44.407796],[-96.104618,44.407827],[-96.104596,44.409731],[-96.104575,44.413355],[-96.104532,44.41512],[-96.106958,44.415153],[-96.109515,44.415183],[-96.111318,44.415204],[-96.11534,44.415192],[-96.118587,44.415193],[-96.119523,44.415201],[-96.11974,44.415249],[-96.119843,44.415272],[-96.122991,44.415332],[-96.128732,44.415393],[-96.131184,44.415442],[-96.133054,44.415448],[-96.137673,44.415503],[-96.14017,44.41554],[-96.140202,44.414626],[-96.140194,44.413814],[-96.140214,44.40822],[-96.140239,44.400932],[-96.140246,44.399051],[-96.140307,44.386354],[-96.143566,44.386396],[-96.147049,44.386454],[-96.14791,44.386469],[-96.154168,44.386575],[-96.154926,44.386583],[-96.156049,44.386595],[-96.156485,44.386602],[-96.156929,44.386619],[-96.157939,44.386629],[-96.159591,44.38662],[-96.160244,44.386609],[-96.160497,44.386633],[-96.160689,44.386692],[-96.160691,44.386313],[-96.160692,44.386124],[-96.160694,44.385895],[-96.16069,44.383845],[-96.160685,44.383496],[-96.160758,44.383458],[-96.160918,44.383392],[-96.161215,44.383286],[-96.161709,44.383167],[-96.162159,44.383114],[-96.162621,44.383076],[-96.163957,44.383116],[-96.165859,44.383134],[-96.166238,44.383134],[-96.167593,44.383133],[-96.16938,44.383155],[-96.170804,44.383181],[-96.170898,44.375884],[-96.170779,44.372222],[-96.179533,44.372271],[-96.180429,44.375896],[-96.180614,44.375897],[-96.180657,44.375898],[-96.180973,44.375881],[-96.18129,44.375865],[-96.181346,44.3759],[-96.184801,44.375961],[-96.190805,44.375969],[-96.191406,44.37597],[-96.191404,44.37662],[-96.191392,44.380304],[-96.191386,44.382068],[-96.191385,44.382314],[-96.19153,44.382315],[-96.19154,44.383247],[-96.191538,44.383428],[-96.19161,44.384363],[-96.19162,44.384581],[-96.191627,44.3846],[-96.191672,44.384799],[-96.191674,44.385056],[-96.191702,44.385487],[-96.191707,44.38622],[-96.191712,44.386877],[-96.191376,44.386874],[-96.190247,44.386862],[-96.189713,44.386857],[-96.189564,44.386856],[-96.189022,44.386851],[-96.187484,44.386838],[-96.186842,44.386828],[-96.186746,44.386826],[-96.18655,44.386823],[-96.185991,44.386819],[-96.185486,44.386816],[-96.184182,44.386807],[-96.182812,44.386799],[-96.182215,44.386795],[-96.181715,44.386792],[-96.179196,44.386777],[-96.178861,44.386776],[-96.178785,44.386776],[-96.178063,44.386774],[-96.177976,44.386785],[-96.177891,44.386795],[-96.177346,44.386799],[-96.175937,44.386809],[-96.175757,44.386868],[-96.175592,44.386897],[-96.175437,44.386904],[-96.175228,44.386878],[-96.174995,44.386817],[-96.174952,44.386818],[-96.174759,44.386818],[-96.173669,44.386811],[-96.173648,44.386788],[-96.173404,44.386795],[-96.173435,44.386865],[-96.173564,44.387064],[-96.173758,44.387223],[-96.173868,44.387336],[-96.174024,44.387483],[-96.174128,44.387657],[-96.174199,44.387794],[-96.174241,44.387919],[-96.174245,44.388106],[-96.174264,44.388265],[-96.174221,44.388451],[-96.174092,44.388882],[-96.173989,44.38903],[-96.173852,44.389148],[-96.173596,44.389308],[-96.173483,44.389425],[-96.173453,44.389475],[-96.173471,44.389556],[-96.173518,44.389671],[-96.173614,44.389808],[-96.173802,44.390005],[-96.174014,44.390237],[-96.174257,44.390465],[-96.174337,44.390528],[-96.174776,44.39051],[-96.174781,44.39039],[-96.180957,44.390429],[-96.181213,44.39131],[-96.181425,44.393344],[-96.181409,44.393446],[-96.181392,44.393568],[-96.181383,44.393853],[-96.181397,44.39466],[-96.181436,44.396874],[-96.181424,44.397918],[-96.186505,44.397918],[-96.186378,44.394635],[-96.186359,44.39413],[-96.191349,44.394174],[-96.192242,44.396207],[-96.192287,44.396219],[-96.192319,44.396245],[-96.192351,44.396332],[-96.192555,44.39661],[-96.192565,44.396644],[-96.192783,44.396743],[-96.193032,44.396679],[-96.193175,44.396651],[-96.193222,44.396657],[-96.193261,44.396684],[-96.193322,44.396741],[-96.193407,44.396831],[-96.193531,44.396987],[-96.19375,44.397311],[-96.193967,44.397675],[-96.194086,44.397833],[-96.194237,44.398008],[-96.194443,44.398225],[-96.194415,44.401503],[-96.197199,44.401482],[-96.197676,44.401478],[-96.201033,44.401452],[-96.201004,44.401429],[-96.200966,44.401288],[-96.20095,44.400564],[-96.200952,44.397888],[-96.200955,44.392852],[-96.200958,44.389166],[-96.200985,44.387016],[-96.198875,44.386975],[-96.196661,44.38695],[-96.195896,44.386939],[-96.195835,44.380657],[-96.195827,44.37972],[-96.20092,44.379777],[-96.205681,44.379755],[-96.205993,44.379755],[-96.205997,44.379021],[-96.206005,44.377731],[-96.206014,44.376046],[-96.20567,44.376053],[-96.200897,44.376168],[-96.200896,44.375899],[-96.200897,44.375819],[-96.200908,44.375007],[-96.200867,44.372384],[-96.200848,44.371447],[-96.200755,44.368667],[-96.200706,44.367224],[-96.20067,44.365933],[-96.200643,44.364979],[-96.200651,44.363128],[-96.200662,44.362046],[-96.200678,44.360593],[-96.200724,44.357746],[-96.200956,44.357755],[-96.207319,44.357633],[-96.215404,44.357478],[-96.221075,44.357402],[-96.222021,44.357412],[-96.22544,44.357452],[-96.226104,44.35746],[-96.226049,44.35019],[-96.226741,44.350213],[-96.231139,44.350254],[-96.231084,44.357503],[-96.234307,44.357534],[-96.237744,44.357542],[-96.241218,44.357562],[-96.241178,44.361926],[-96.241168,44.363147],[-96.241138,44.364422],[-96.241158,44.365171],[-96.241274,44.367244],[-96.241363,44.368939],[-96.241491,44.370994],[-96.241539,44.371878],[-96.241539,44.372167],[-96.241538,44.373421],[-96.241524,44.375004],[-96.241528,44.375643],[-96.241495,44.380362],[-96.24152,44.382875],[-96.241512,44.384295],[-96.241526,44.385329],[-96.241511,44.38677],[-96.243862,44.386749],[-96.248486,44.386722],[-96.250007,44.386719],[-96.251445,44.386704],[-96.253261,44.386684],[-96.25466,44.38668],[-96.255074,44.386685],[-96.255755,44.386692],[-96.257214,44.38667],[-96.260896,44.38665],[-96.268002,44.386645],[-96.268353,44.386639],[-96.269739,44.386611],[-96.270088,44.386616],[-96.271243,44.386633],[-96.272438,44.386619],[-96.273428,44.3866],[-96.274743,44.386556],[-96.275583,44.386519],[-96.275886,44.386519],[-96.276401,44.38652],[-96.277844,44.386568],[-96.279505,44.386584],[-96.281123,44.386561],[-96.282175,44.38653],[-96.282266,44.386527],[-96.283192,44.386521],[-96.28734,44.386495],[-96.287332,44.3887],[-96.287327,44.390065],[-96.291277,44.390136],[-96.29234,44.390136],[-96.296132,44.390098],[-96.302542,44.390076],[-96.302511,44.392025],[-96.3025,44.394394],[-96.302494,44.394773],[-96.302474,44.396114],[-96.302413,44.398406],[-96.302353,44.400927],[-96.304478,44.400869],[-96.312433,44.400871],[-96.31637,44.396794],[-96.317748,44.395367],[-96.31777,44.386354],[-96.323576,44.386325],[-96.323575,44.384773],[-96.323574,44.384062],[-96.323573,44.383734],[-96.323568,44.380206],[-96.323546,44.374973],[-96.323537,44.374472],[-96.323526,44.373045],[-96.323538,44.371799],[-96.32494,44.371784],[-96.329388,44.371778],[-96.331472,44.371755],[-96.337682,44.371753],[-96.338273,44.371753],[-96.340115,44.371747],[-96.342365,44.371745],[-96.343745,44.371737],[-96.34375,44.371938],[-96.343767,44.374256],[-96.343779,44.374987],[-96.343792,44.376771],[-96.343799,44.379241],[-96.343825,44.381455],[-96.343835,44.384188],[-96.343861,44.386309],[-96.34399,44.392774],[-96.343983,44.393531],[-96.343981,44.393756],[-96.35358,44.393578],[-96.354055,44.393581],[-96.354044,44.386611],[-96.354041,44.386322],[-96.356784,44.386312],[-96.359916,44.386291],[-96.364035,44.386278],[-96.364058,44.388769],[-96.364081,44.390123],[-96.364145,44.394048],[-96.364208,44.396077],[-96.364178,44.397763],[-96.364184,44.397797],[-96.364216,44.397834],[-96.364266,44.39785],[-96.364302,44.397855],[-96.364277,44.398716],[-96.366176,44.398731],[-96.370045,44.398761],[-96.38056,44.398843],[-96.384387,44.398895],[-96.384387,44.399052],[-96.384416,44.400402],[-96.384418,44.401098],[-96.384426,44.402731]],[[-96.211209,44.387052],[-96.211261,44.394213],[-96.221294,44.39418],[-96.223524,44.394172],[-96.23125,44.394145],[-96.2313,44.386766],[-96.231558,44.38435],[-96.231447,44.379634],[-96.225719,44.379647],[-96.221309,44.379656],[-96.221312,44.37991],[-96.221317,44.381962],[-96.221325,44.383353],[-96.221344,44.386569],[-96.221342,44.386864],[-96.21756,44.386922],[-96.21477,44.386997],[-96.214506,44.387001],[-96.211373,44.387048],[-96.211209,44.387052]],[[-96.302353,44.400927],[-96.29634,44.400942],[-96.294157,44.400954],[-96.29276,44.400955],[-96.29219,44.40096],[-96.292203,44.405101],[-96.292218,44.408256],[-96.300697,44.408229],[-96.302333,44.408224],[-96.302333,44.408203],[-96.302353,44.405157],[-96.302374,44.403041],[-96.302353,44.400927]],[[-96.205993,44.379755],[-96.205991,44.380101],[-96.206,44.380624],[-96.206119,44.387071],[-96.206404,44.387075],[-96.20881,44.387114],[-96.211209,44.387052],[-96.211072,44.380096],[-96.211063,44.379632],[-96.205993,44.379755]]],[[[-96.100137,44.510265],[-96.095099,44.510197],[-96.095161,44.512964],[-96.095262,44.517524],[-96.09434,44.51752],[-96.092595,44.517531],[-96.090968,44.517515],[-96.090475,44.517513],[-96.090149,44.517511],[-96.090115,44.510185],[-96.079885,44.510148],[-96.079878,44.509097],[-96.079851,44.504658],[-96.079842,44.503179],[-96.079837,44.503148],[-96.079844,44.503065],[-96.079845,44.503037],[-96.079852,44.50285],[-96.080124,44.502848],[-96.082976,44.502944],[-96.085233,44.502857],[-96.085328,44.502885],[-96.0857,44.502905],[-96.088056,44.502895],[-96.090696,44.50291],[-96.091841,44.502902],[-96.092297,44.502899],[-96.096624,44.502941],[-96.09723,44.502937],[-96.098214,44.50293],[-96.099551,44.502936],[-96.100058,44.502933],[-96.100056,44.503126],[-96.10009,44.50494],[-96.100123,44.508808],[-96.100137,44.510265]]],[[[-96.120562,44.531902],[-96.118669,44.531915],[-96.117188,44.531935],[-96.116261,44.531943],[-96.114893,44.531956],[-96.11246,44.53199],[-96.11044,44.532017],[-96.110395,44.526772],[-96.110371,44.524702],[-96.11275,44.524691],[-96.120483,44.524653],[-96.120524,44.528223],[-96.120525,44.528763],[-96.120526,44.529659],[-96.120548,44.530588],[-96.120562,44.531156],[-96.120562,44.531902]]],[[[-96.179425,44.565231],[-96.178687,44.56523],[-96.177286,44.56523],[-96.174322,44.56523],[-96.174317,44.564132],[-96.174342,44.563222],[-96.174362,44.562513],[-96.174367,44.561915],[-96.174372,44.561389],[-96.174407,44.559913],[-96.174413,44.558723],[-96.174403,44.557948],[-96.175433,44.557963],[-96.17868,44.557923],[-96.179259,44.557915],[-96.179267,44.558247],[-96.179391,44.563711],[-96.179425,44.565231]]]]}},{"type":"Feature","properties":{"STATEFP":"27","ELSDLEA":"18390","GEOID":"2718390","GEOIDFQ":"9500000US2718390","NAME":"Lynd Public School District","LSAD":"00","LOGRADE":"PK","HIGRADE":"12","MTFCC":"G5400","SDTYP":"","FUNCSTAT":"E","ALAND":186733948,"AWATER":816941,"INTPTLAT":"+44.4033052","INTPTLON":"-095.9276237"},"geometry":{"type":"Polygon","coordinates":[[[-96.049579,44.429677],[-96.048723,44.429677],[-96.047915,44.429676],[-96.045491,44.429674],[-96.044683,44.429674],[-96.044692,44.432581],[-96.044721,44.441302],[-96.044731,44.44421],[-96.043692,44.44421],[-96.040578,44.44421],[-96.03954,44.44421],[-96.0395,44.44179],[-96.0395,44.441297],[-96.0395,44.44023],[-96.03948,44.43825],[-96.03948,44.4375],[-96.03945,44.43643],[-96.03945,44.43521],[-96.03941,44.43377],[-96.03942,44.4326],[-96.039419,44.432561],[-96.039401,44.43041],[-96.0394,44.43035],[-96.03938,44.42965],[-96.037191,44.429625],[-96.03396,44.42959],[-96.03359,44.42957],[-96.03296,44.42958],[-96.030625,44.429554],[-96.03017,44.42955],[-96.029203,44.42955],[-96.029478,44.444111],[-96.032757,44.444144],[-96.03385,44.444155],[-96.034495,44.444161],[-96.034634,44.451512],[-96.031279,44.451473],[-96.029546,44.451453],[-96.029695,44.458518],[-96.029124,44.458513],[-96.027152,44.458489],[-96.021714,44.458426],[-96.021236,44.458445],[-96.019266,44.458528],[-96.018501,44.458518],[-96.016206,44.458489],[-96.015441,44.45848],[-96.015164,44.45848],[-96.014334,44.458484],[-96.014058,44.458486],[-96.014,44.45848],[-96.0125,44.45847],[-96.011457,44.45847],[-96.01087,44.45847],[-96.003654,44.458416],[-96.001054,44.458397],[-96.000664,44.458394],[-96.00007,44.45839],[-95.999497,44.45839],[-95.99922,44.45839],[-95.99911,44.45837],[-95.99874,44.45838],[-95.998268,44.45838],[-95.99778,44.45838],[-95.996341,44.45838],[-95.995743,44.45838],[-95.994902,44.45838],[-95.994653,44.45838],[-95.99454,44.45838],[-95.993909,44.458371],[-95.993662,44.458368],[-95.992221,44.458347],[-95.99169,44.45834],[-95.99152,44.45833],[-95.99106,44.45829],[-95.99081,44.45829],[-95.988636,44.458279],[-95.987901,44.458275],[-95.986461,44.458268],[-95.984912,44.45826],[-95.980268,44.458237],[-95.97872,44.45823],[-95.97743,44.458219],[-95.973562,44.458186],[-95.972273,44.458176],[-95.971282,44.458168],[-95.97029,44.45816],[-95.970234,44.458159],[-95.96935,44.45815],[-95.96859,44.45815],[-95.9672,44.45813],[-95.96605,44.45812],[-95.96547,44.45811],[-95.964117,44.458094],[-95.96281,44.45808],[-95.962079,44.45808],[-95.96158,44.45808],[-95.961339,44.458078],[-95.959119,44.458061],[-95.95885,44.45806],[-95.95838,44.45807],[-95.95838,44.458135],[-95.95838,44.458331],[-95.958381,44.458397],[-95.958387,44.460193],[-95.958408,44.465583],[-95.95841,44.46589],[-95.9584,44.4672],[-95.958402,44.46738],[-95.958411,44.46844],[-95.95842,44.46947],[-95.9584,44.47156],[-95.9584,44.471619],[-95.95841,44.47268],[-95.95841,44.473406],[-95.95841,44.4741],[-95.95842,44.47556],[-95.958419,44.475586],[-95.958413,44.476313],[-95.95841,44.4767],[-95.95842,44.47767],[-95.95842,44.477987],[-95.958428,44.481178],[-95.958432,44.483011],[-95.958437,44.484686],[-95.958437,44.485163],[-95.958438,44.485208],[-95.95844,44.48573],[-95.95844,44.486402],[-95.95844,44.486597],[-95.95844,44.487075],[-95.958388,44.487109],[-95.958276,44.487185],[-95.95823,44.487209],[-95.958175,44.487239],[-95.957072,44.487233],[-95.953765,44.487218],[-95.952663,44.487213],[-95.950635,44.487203],[-95.949062,44.487196],[-95.94546,44.48718],[-95.944554,44.48718],[-95.94432,44.48718],[-95.94371,44.48715],[-95.942528,44.487146],[-95.941692,44.487142],[-95.939185,44.487133],[-95.93835,44.48713],[-95.93821,44.487125],[-95.93807,44.48712],[-95.93751,44.48713],[-95.93635,44.48711],[-95.93464,44.48711],[-95.93433,44.487112],[-95.93356,44.48712],[-95.93095,44.4871],[-95.92999,44.4871],[-95.92927,44.48709],[-95.929061,44.487083],[-95.92898,44.48708],[-95.92847,44.48709],[-95.922272,44.487082],[-95.92054,44.48708],[-95.918253,44.487063],[-95.918166,44.487062],[-95.917906,44.48706],[-95.91782,44.48706],[-95.91599,44.48706],[-95.915692,44.487058],[-95.91331,44.48705],[-95.91163,44.48704],[-95.91098,44.48703],[-95.910685,44.48703],[-95.91039,44.48703],[-95.909311,44.48703],[-95.90926,44.48703],[-95.907761,44.487015],[-95.907184,44.48701],[-95.907034,44.487009],[-95.905279,44.486991],[-95.90302,44.48697],[-95.90047,44.48697],[-95.899564,44.486964],[-95.89896,44.48696],[-95.89807,44.48695],[-95.89766,44.48695],[-95.893664,44.486936],[-95.88588,44.48691],[-95.88501,44.4869],[-95.881678,44.486888],[-95.87897,44.48688],[-95.877683,44.486864],[-95.87761,44.486863],[-95.877392,44.48686],[-95.87732,44.48686],[-95.87732,44.485756],[-95.87732,44.48537],[-95.877293,44.482445],[-95.877283,44.481342],[-95.877276,44.480562],[-95.877267,44.479606],[-95.88238,44.479662],[-95.882368,44.479015],[-95.882339,44.477512],[-95.882328,44.477059],[-95.882303,44.475987],[-95.880468,44.475979],[-95.877233,44.475965],[-95.87721,44.47336],[-95.87721,44.47329],[-95.87718,44.47234],[-95.877318,44.47234],[-95.877734,44.47234],[-95.877873,44.47234],[-95.879558,44.47234],[-95.87978,44.47234],[-95.8818,44.47235],[-95.88396,44.47237],[-95.884612,44.47237],[-95.88532,44.47237],[-95.885888,44.47237],[-95.88616,44.47237],[-95.886298,44.47237],[-95.886484,44.47237],[-95.887045,44.47237],[-95.887232,44.47237],[-95.887233,44.47232],[-95.887238,44.472173],[-95.88724,44.472125],[-95.887235,44.471848],[-95.88722,44.47102],[-95.887216,44.470744],[-95.887233,44.468762],[-95.877204,44.468705],[-95.877175,44.468329],[-95.877162,44.468164],[-95.876975,44.468166],[-95.877008,44.467086],[-95.877022,44.466664],[-95.877015,44.466482],[-95.877028,44.466224],[-95.877099,44.464907],[-95.877123,44.464468],[-95.877134,44.464147],[-95.877169,44.463184],[-95.877181,44.462864],[-95.877174,44.462329],[-95.877154,44.460725],[-95.877148,44.460191],[-95.877145,44.460067],[-95.877139,44.459695],[-95.877137,44.459572],[-95.877139,44.459219],[-95.877149,44.458162],[-95.877152,44.45781],[-95.877089,44.457808],[-95.876899,44.457809],[-95.876837,44.4578],[-95.87698,44.45779],[-95.87705,44.45776],[-95.8771,44.45772],[-95.87715,44.45766],[-95.87717,44.45756],[-95.877173,44.455032],[-95.877177,44.45267],[-95.877184,44.448245],[-95.877186,44.44606],[-95.87719,44.44382],[-95.87719,44.443445],[-95.87719,44.44307],[-95.877175,44.441088],[-95.87717,44.44034],[-95.87715,44.43894],[-95.87714,44.4375],[-95.877113,44.435143],[-95.877091,44.433162],[-95.87708,44.432245],[-95.87705,44.429496],[-95.87704,44.42858],[-95.877039,44.428517],[-95.877036,44.428328],[-95.877035,44.428265],[-95.877012,44.42682],[-95.876998,44.425961],[-95.876989,44.425375],[-95.876925,44.421414],[-95.871313,44.421417],[-95.861683,44.421457],[-95.861594,44.414078],[-95.860994,44.414078],[-95.860193,44.414078],[-95.86017,44.414078],[-95.86013,44.41408],[-95.860101,44.41408],[-95.860079,44.41408],[-95.859691,44.414078],[-95.858527,44.414072],[-95.85814,44.41407],[-95.857602,44.414079],[-95.85697,44.41409],[-95.855988,44.414083],[-95.85545,44.41408],[-95.855359,44.414081],[-95.855088,44.414085],[-95.854998,44.414087],[-95.854813,44.414089],[-95.85477,44.41409],[-95.854666,44.414083],[-95.85448,44.41407],[-95.85436,44.41407],[-95.854262,44.414044],[-95.85421,44.41403],[-95.85409,44.41398],[-95.85395,44.41391],[-95.85381,44.41384],[-95.85366,44.41377],[-95.85352,44.41374],[-95.85335,44.41373],[-95.85313,44.41374],[-95.85294,44.41377],[-95.852582,44.41385],[-95.85245,44.41388],[-95.85201,44.41399],[-95.85159,44.41406],[-95.85061,44.41404],[-95.8493,44.41402],[-95.848925,44.41402],[-95.84855,44.41402],[-95.84789,44.41402],[-95.8471,44.41402],[-95.846319,44.414017],[-95.846321,44.414697],[-95.846329,44.416737],[-95.846332,44.417417],[-95.846323,44.418104],[-95.846314,44.418947],[-95.846299,44.420165],[-95.846296,44.420476],[-95.846294,44.420664],[-95.846292,44.420853],[-95.846512,44.420658],[-95.846512,44.421292],[-95.846512,44.427977],[-95.84632,44.42813],[-95.846294,44.428153],[-95.846215,44.42822],[-95.846202,44.428232],[-95.84611,44.42831],[-95.84599,44.42841],[-95.845975,44.42842],[-95.84589,44.42848],[-95.84573,44.42853],[-95.84563,44.42855],[-95.84511,44.42857],[-95.844383,44.428574],[-95.84351,44.42858],[-95.84042,44.42856],[-95.839832,44.428566],[-95.83858,44.42858],[-95.838316,44.42857],[-95.838094,44.428561],[-95.83777,44.42855],[-95.83753,44.42849],[-95.837442,44.428458],[-95.83742,44.42845],[-95.83736,44.42842],[-95.83725,44.42835],[-95.83713,44.42841],[-95.837107,44.428416],[-95.8369,44.42848],[-95.83666,44.42852],[-95.836646,44.428521],[-95.836489,44.428538],[-95.836503,44.427851],[-95.83652,44.4276],[-95.836515,44.427161],[-95.836488,44.424663],[-95.836454,44.421464],[-95.836451,44.421242],[-95.830866,44.421243],[-95.826388,44.421243],[-95.826366,44.423918],[-95.826412,44.425173],[-95.826538,44.428202],[-95.826542,44.428339],[-95.826553,44.428562],[-95.82386,44.42857],[-95.82143,44.42857],[-95.82031,44.42857],[-95.818759,44.428584],[-95.81711,44.4286],[-95.81646,44.42862],[-95.81645,44.42839],[-95.816448,44.428281],[-95.81644,44.42778],[-95.816438,44.427559],[-95.81643,44.42638],[-95.81643,44.42587],[-95.81641,44.42482],[-95.81638,44.422651],[-95.81637,44.42186],[-95.816366,44.42163],[-95.81636,44.42128],[-95.81636,44.42124],[-95.81635,44.42061],[-95.81632,44.41795],[-95.81632,44.41773],[-95.816314,44.417504],[-95.8163,44.41694],[-95.816289,44.416148],[-95.81627,44.41459],[-95.81627,44.414277],[-95.81627,44.414129],[-95.81627,44.41398],[-95.81626,44.41376],[-95.81626,44.41354],[-95.81626,44.413335],[-95.81626,44.41225],[-95.816277,44.411399],[-95.81629,44.41083],[-95.81629,44.410755],[-95.81629,44.41031],[-95.836014,44.410332],[-95.83631,44.410333],[-95.83631,44.409936],[-95.83631,44.4099],[-95.83635,44.40886],[-95.836341,44.407592],[-95.836336,44.406811],[-95.836187,44.406811],[-95.835743,44.406813],[-95.835595,44.406814],[-95.832741,44.406821],[-95.827129,44.406835],[-95.826356,44.406726],[-95.826519,44.402707],[-95.826541,44.402175],[-95.826548,44.399638],[-95.826548,44.399583],[-95.82653,44.39956],[-95.82647,44.39944],[-95.826786,44.39944],[-95.827101,44.39944],[-95.82729,44.39944],[-95.827407,44.399438],[-95.828326,44.399431],[-95.82858,44.39943],[-95.828633,44.399429],[-95.828906,44.399424],[-95.82923,44.39942],[-95.829726,44.399426],[-95.83,44.39943],[-95.831133,44.39943],[-95.83401,44.39943],[-95.834532,44.39942],[-95.83458,44.39942],[-95.83476,44.3994],[-95.83502,44.39935],[-95.83546,44.39919],[-95.835618,44.399122],[-95.835678,44.399096],[-95.83574,44.39907],[-95.835839,44.398983],[-95.83589,44.39894],[-95.83602,44.39883],[-95.83619,44.39861],[-95.83628,44.39846],[-95.83633,44.39833],[-95.836352,44.39822],[-95.836373,44.398062],[-95.83638,44.39798],[-95.83638,44.39738],[-95.836366,44.395652],[-95.83636,44.394958],[-95.836353,44.393924],[-95.83639,44.39217],[-95.836341,44.392158],[-95.83622,44.39213],[-95.83605,44.3921],[-95.83589,44.39208],[-95.831483,44.39208],[-95.831472,44.395793],[-95.826529,44.395793],[-95.826529,44.395614],[-95.826519,44.392591],[-95.826515,44.391548],[-95.826514,44.390968],[-95.826494,44.385123],[-95.826494,44.384919],[-95.830989,44.384893],[-95.836368,44.38486],[-95.836337,44.38138],[-95.836507,44.381373],[-95.836484,44.380673],[-95.836418,44.378576],[-95.836396,44.377877],[-95.836397,44.377679],[-95.836402,44.377085],[-95.836405,44.376888],[-95.836402,44.376721],[-95.836393,44.37622],[-95.83639,44.376053],[-95.836366,44.374886],[-95.836294,44.371386],[-95.83627,44.37022],[-95.83633,44.37016],[-95.83637,44.37008],[-95.83638,44.37],[-95.83638,44.368209],[-95.83638,44.368],[-95.83638,44.367622],[-95.83638,44.36711],[-95.83637,44.36609],[-95.836379,44.363058],[-95.833924,44.363055],[-95.831312,44.363052],[-95.831165,44.360003],[-95.831013,44.356837],[-95.831002,44.35572],[-95.831732,44.35572],[-95.83178,44.35572],[-95.833385,44.355737],[-95.83371,44.35574],[-95.83451,44.35574],[-95.83487,44.355745],[-95.83523,44.35575],[-95.83613,44.35576],[-95.83639,44.35575],[-95.83639,44.35517],[-95.836378,44.354364],[-95.83633,44.35105],[-95.83631,44.35072],[-95.836305,44.35021],[-95.8363,44.34964],[-95.83631,44.3489],[-95.83631,44.348825],[-95.836304,44.346876],[-95.83629,44.3418],[-95.836301,44.341184],[-95.830988,44.341157],[-95.826636,44.341136],[-95.82608,44.341138],[-95.826139,44.333855],[-95.826675,44.333858],[-95.829063,44.333848],[-95.835996,44.333925],[-95.836298,44.333921],[-95.844708,44.333831],[-95.845134,44.333826],[-95.856598,44.333692],[-95.856591,44.334497],[-95.856583,44.335434],[-95.85656,44.33799],[-95.85655,44.33931],[-95.85655,44.339351],[-95.85655,44.34015],[-95.85654,44.34097],[-95.85673,44.34098],[-95.858135,44.340972],[-95.85853,44.34097],[-95.862923,44.340988],[-95.86452,44.340995],[-95.864914,44.340996],[-95.866098,44.341001],[-95.866493,44.341003],[-95.866407,44.339555],[-95.866231,44.336561],[-95.866094,44.335218],[-95.865948,44.333776],[-95.865926,44.333585],[-95.8659,44.333361],[-95.866247,44.333377],[-95.866439,44.333386],[-95.868491,44.333465],[-95.874648,44.333702],[-95.876701,44.333782],[-95.8767,44.334031],[-95.8767,44.33428],[-95.876709,44.335233],[-95.87671,44.33525],[-95.87669,44.33717],[-95.8767,44.33868],[-95.8767,44.339588],[-95.8767,44.34075],[-95.87671,44.34104],[-95.878656,44.34104],[-95.884493,44.34104],[-95.88644,44.34104],[-95.886562,44.337286],[-95.886607,44.335902],[-95.886605,44.332596],[-95.886816,44.326516],[-95.8874,44.32651],[-95.89279,44.32651],[-95.892894,44.32651],[-95.89635,44.32651],[-95.89694,44.3265],[-95.89806,44.32651],[-95.89917,44.32652],[-95.901089,44.326527],[-95.901084,44.330064],[-95.903408,44.329432],[-95.904017,44.3295],[-95.904058,44.32658],[-95.90433,44.32658],[-95.90451,44.32658],[-95.905467,44.326594],[-95.90587,44.3266],[-95.914251,44.32657],[-95.915185,44.326567],[-95.916182,44.326564],[-95.91718,44.32656],[-95.917152,44.335397],[-95.917125,44.335807],[-95.911564,44.335776],[-95.911564,44.337379],[-95.910554,44.33742],[-95.909398,44.338364],[-95.907025,44.339084],[-95.907024,44.341054],[-95.90097,44.341041],[-95.90017,44.34104],[-95.897003,44.341049],[-95.8969,44.34105],[-95.896916,44.341791],[-95.89692,44.34194],[-95.89693,44.34316],[-95.896924,44.344017],[-95.89692,44.34476],[-95.89693,44.34589],[-95.896948,44.346923],[-95.89697,44.34809],[-95.89697,44.34862],[-95.897005,44.3521],[-95.897018,44.353415],[-95.89704,44.35558],[-95.899459,44.355584],[-95.906716,44.355596],[-95.909135,44.355601],[-95.910774,44.355604],[-95.91393,44.35561],[-95.915691,44.35561],[-95.91602,44.35561],[-95.91609,44.35561],[-95.91671,44.3556],[-95.91733,44.35559],[-95.917331,44.355507],[-95.917864,44.355552],[-95.921298,44.355703],[-95.92135,44.35568],[-95.921889,44.355652],[-95.923508,44.355569],[-95.924048,44.355542],[-95.924562,44.355555],[-95.926104,44.355595],[-95.926618,44.355609],[-95.92695,44.355611],[-95.927948,44.355619],[-95.928281,44.355622],[-95.930105,44.355632],[-95.935578,44.355663],[-95.937403,44.355674],[-95.93741,44.357071],[-95.937418,44.358465],[-95.937429,44.360562],[-95.937432,44.361262],[-95.93744,44.36266],[-95.93744,44.362972],[-95.947659,44.363364],[-95.958036,44.363471],[-95.958029,44.364342],[-95.95802,44.36557],[-95.95801,44.36577],[-95.957989,44.36914],[-95.95798,44.37074],[-95.961432,44.370789],[-95.965474,44.370848],[-95.971789,44.370939],[-95.972967,44.370957],[-95.973148,44.370952],[-95.973329,44.370947],[-95.974286,44.370949],[-95.975242,44.370951],[-95.975659,44.370941],[-95.976912,44.37091],[-95.97733,44.370901],[-95.977513,44.370897],[-95.978061,44.370888],[-95.978245,44.370885],[-95.978476,44.370887],[-95.979169,44.370893],[-95.979401,44.370896],[-95.981081,44.370896],[-95.986121,44.370899],[-95.987802,44.3709],[-95.98782,44.37095],[-95.98784,44.37098],[-95.98787,44.371],[-95.98793,44.37102],[-95.98801,44.37104],[-95.988151,44.37104],[-95.989387,44.37104],[-95.9898,44.37104],[-95.991554,44.371038],[-95.996816,44.371032],[-95.99857,44.37103],[-95.99857,44.37167],[-95.99856,44.37286],[-95.99857,44.37381],[-95.99857,44.373895],[-95.99857,44.37484],[-96.003741,44.37471],[-96.003782,44.376689],[-96.003881,44.376624],[-96.003951,44.37659],[-96.004326,44.376441],[-96.004409,44.376425],[-96.004556,44.376336],[-96.004671,44.376255],[-96.004731,44.376199],[-96.0048,44.376122],[-96.004846,44.37604],[-96.004899,44.375931],[-96.005015,44.375783],[-96.005114,44.375673],[-96.005229,44.375596],[-96.005336,44.375541],[-96.005475,44.375481],[-96.005628,44.375421],[-96.006024,44.375179],[-96.006201,44.375158],[-96.006439,44.375124],[-96.0066,44.375118],[-96.006868,44.375086],[-96.007042,44.37508],[-96.007257,44.37513],[-96.007326,44.375158],[-96.007388,44.375207],[-96.007425,44.375255],[-96.007526,44.375453],[-96.00753,44.375476],[-96.007536,44.375521],[-96.007548,44.375602],[-96.007556,44.375771],[-96.007564,44.375804],[-96.00764,44.375902],[-96.007695,44.376019],[-96.007717,44.376056],[-96.007778,44.376106],[-96.00787,44.376138],[-96.008038,44.376166],[-96.008161,44.376172],[-96.008437,44.376144],[-96.008499,44.376166],[-96.008574,44.376215],[-96.008652,44.376287],[-96.008743,44.37634],[-96.008828,44.376352],[-96.008919,44.376346],[-96.009064,44.376324],[-96.009105,44.376321],[-96.009279,44.376308],[-96.009402,44.376336],[-96.009525,44.376427],[-96.009592,44.376489],[-96.009685,44.376554],[-96.009753,44.376592],[-96.009965,44.376611],[-96.010074,44.37662],[-96.010251,44.376691],[-96.01039,44.376757],[-96.01055,44.37684],[-96.01065,44.376922],[-96.010757,44.377037],[-96.010888,44.377152],[-96.010987,44.377279],[-96.011041,44.377416],[-96.011078,44.377552],[-96.011156,44.37764],[-96.011306,44.377719],[-96.011273,44.371153],[-96.011573,44.371156],[-96.012788,44.371167],[-96.01402,44.371178],[-96.017717,44.371214],[-96.01827,44.37122],[-96.01895,44.37122],[-96.01895,44.37204],[-96.018952,44.372324],[-96.018986,44.375636],[-96.01899,44.37598],[-96.01898,44.37674],[-96.01898,44.37684],[-96.01897,44.37821],[-96.01898,44.37825],[-96.018988,44.379059],[-96.018997,44.380002],[-96.019,44.3802],[-96.019015,44.384845],[-96.01903,44.38949],[-96.01903,44.389795],[-96.01903,44.39132],[-96.01901,44.3927],[-96.01902,44.39306],[-96.01903,44.39376],[-96.019021,44.395501],[-96.018985,44.402825],[-96.01898,44.40398],[-96.01898,44.40403],[-96.01897,44.40483],[-96.01897,44.405267],[-96.01897,44.405581],[-96.01897,44.40612],[-96.018958,44.406525],[-96.01895,44.40684],[-96.01894,44.40708],[-96.01894,44.408449],[-96.01894,44.40903],[-96.01892,44.40997],[-96.01893,44.41089],[-96.018889,44.413279],[-96.01887,44.41446],[-96.01887,44.41489],[-96.01919,44.41488],[-96.02078,44.41491],[-96.022955,44.414938],[-96.02789,44.415002],[-96.033595,44.415076],[-96.035213,44.415096],[-96.0393,44.41515],[-96.03928,44.416483],[-96.03928,44.4165],[-96.0393,44.41748],[-96.03929,44.41843],[-96.03931,44.41926],[-96.03931,44.420485],[-96.03931,44.42106],[-96.03934,44.42179],[-96.039339,44.421819],[-96.039327,44.422403],[-96.04874,44.422424],[-96.049603,44.422426],[-96.049579,44.429677]]]}},{"type":"Feature","properties":{"STATEFP":"27","ELSDLEA":"21210","GEOID":"2721210","GEOIDFQ":"9500000US2721210","NAME":"Milroy Public School District","LSAD":"00","LOGRADE":"PK","HIGRADE":"12","MTFCC":"G5400","SDTYP":"","FUNCSTAT":"E","ALAND":227252966,"AWATER":1020525,"INTPTLAT":"+44.4344146","INTPTLON":"-095.5307389"},"geometry":{"type":"MultiPolygon","coordinates":[[[[-95.634613,44.399945],[-95.634594,44.401342],[-95.634588,44.401808],[-95.63458,44.40237],[-95.634564,44.402841],[-95.63456,44.40298],[-95.63456,44.40342],[-95.63453,44.40385],[-95.63454,44.40415],[-95.63454,44.40477],[-95.63452,44.405942],[-95.634507,44.406737],[-95.62438,44.406712],[-95.624304,44.413932],[-95.624072,44.413934],[-95.623906,44.413935],[-95.62287,44.41394],[-95.62152,44.41393],[-95.61914,44.41394],[-95.61422,44.41394],[-95.61212,44.413938],[-95.610471,44.413947],[-95.606652,44.413945],[-95.605907,44.413944],[-95.605162,44.413944],[-95.599554,44.413945],[-95.593946,44.413947],[-95.593905,44.424463],[-95.593779,44.428482],[-95.594398,44.428482],[-95.595586,44.428473],[-95.596425,44.428484],[-95.597913,44.428475],[-95.598342,44.428466],[-95.603005,44.42848],[-95.604124,44.428471],[-95.610495,44.428476],[-95.611274,44.428467],[-95.613031,44.428469],[-95.61388,44.428459],[-95.61413,44.42846],[-95.614162,44.435751],[-95.593876,44.43579],[-95.593882,44.436215],[-95.593897,44.437445],[-95.593896,44.438093],[-95.593924,44.439445],[-95.59396,44.440682],[-95.593973,44.442019],[-95.594005,44.443022],[-95.595131,44.443032],[-95.597881,44.443025],[-95.600781,44.443037],[-95.601518,44.443028],[-95.602748,44.443026],[-95.603978,44.443024],[-95.60411,44.443023],[-95.604237,44.450325],[-95.614322,44.450324],[-95.614329,44.450659],[-95.61435,44.451842],[-95.61437,44.45295],[-95.6144,44.4536],[-95.614422,44.455392],[-95.614437,44.456576],[-95.613544,44.457431],[-95.613323,44.457671],[-95.604341,44.457604],[-95.604376,44.464883],[-95.594245,44.464871],[-95.594252,44.465847],[-95.594286,44.471184],[-95.594299,44.472139],[-95.594337,44.473831],[-95.594316,44.474904],[-95.594321,44.475113],[-95.594341,44.475963],[-95.594322,44.477339],[-95.594353,44.478768],[-95.594359,44.479941],[-95.594373,44.483062],[-95.594409,44.483063],[-95.599429,44.483054],[-95.599435,44.486693],[-95.59997,44.48669],[-95.60135,44.48669],[-95.603066,44.486688],[-95.604781,44.486687],[-95.609575,44.486683],[-95.609696,44.493657],[-95.609702,44.493925],[-95.594473,44.493954],[-95.594472,44.494481],[-95.594461,44.495054],[-95.594473,44.495249],[-95.594496,44.495969],[-95.594592,44.497564],[-95.594595,44.4978],[-95.594601,44.498202],[-95.594625,44.499805],[-95.59461,44.499956],[-95.594601,44.500643],[-95.594572,44.502151],[-95.594369,44.50923],[-95.594392,44.509255],[-95.594485,44.509446],[-95.594534,44.509605],[-95.594585,44.509797],[-95.594609,44.515739],[-95.59461,44.515749],[-95.594565,44.517662],[-95.594542,44.518717],[-95.59452,44.520207],[-95.594507,44.521536],[-95.594488,44.522192],[-95.594484,44.522436],[-95.594363,44.529522],[-95.594376,44.530111],[-95.594392,44.530835],[-95.594459,44.532347],[-95.594517,44.534025],[-95.594558,44.535067],[-95.594578,44.535594],[-95.594669,44.537541],[-95.594675,44.537791],[-95.59471,44.539122],[-95.59477,44.541042],[-95.594817,44.542305],[-95.594637,44.542302],[-95.591913,44.542364],[-95.588503,44.542413],[-95.584289,44.542513],[-95.583969,44.542513],[-95.583956,44.542513],[-95.582643,44.542515],[-95.565492,44.542372],[-95.563809,44.542367],[-95.56361,44.542363],[-95.563584,44.542362],[-95.562516,44.542344],[-95.554594,44.542284],[-95.553659,44.542273],[-95.552154,44.542254],[-95.550537,44.542239],[-95.54971,44.542232],[-95.544588,44.542218],[-95.543853,44.542163],[-95.543246,44.542053],[-95.543225,44.542049],[-95.540279,44.541929],[-95.539188,44.541906],[-95.538096,44.541883],[-95.535734,44.541833],[-95.533373,44.541784],[-95.533217,44.541781],[-95.533213,44.541547],[-95.533423,44.540259],[-95.5334,44.539547],[-95.53341,44.538324],[-95.533406,44.53813],[-95.533369,44.536564],[-95.533362,44.535099],[-95.533335,44.533503],[-95.533335,44.532278],[-95.53332,44.53036],[-95.533317,44.529629],[-95.533314,44.528936],[-95.533337,44.52769],[-95.53334,44.526361],[-95.533351,44.524747],[-95.533355,44.523079],[-95.53337,44.521886],[-95.533358,44.520038],[-95.533355,44.51958],[-95.533381,44.515077],[-95.533432,44.50897],[-95.533435,44.508573],[-95.533439,44.508111],[-95.533453,44.506676],[-95.533471,44.50486],[-95.533526,44.50164],[-95.533521,44.501236],[-95.533306,44.501236],[-95.533306,44.501183],[-95.523361,44.501206],[-95.523318,44.50853],[-95.523279,44.515516],[-95.523278,44.515792],[-95.513175,44.515746],[-95.513179,44.515491],[-95.51325,44.510632],[-95.51326,44.509337],[-95.513251,44.508477],[-95.513336,44.504858],[-95.513072,44.501781],[-95.513054,44.501294],[-95.509296,44.50141],[-95.502926,44.501396],[-95.483891,44.501528],[-95.483898,44.501147],[-95.482754,44.501149],[-95.48285,44.49381],[-95.481131,44.493814],[-95.475152,44.49379],[-95.472919,44.494198],[-95.472595,44.494224],[-95.472597,44.493902],[-95.472602,44.493599],[-95.472605,44.4934],[-95.472607,44.493283],[-95.472629,44.491782],[-95.472687,44.487431],[-95.472704,44.486571],[-95.472718,44.485829],[-95.472716,44.48438],[-95.472731,44.483285],[-95.472737,44.482876],[-95.472713,44.481443],[-95.472738,44.480036],[-95.472738,44.479351],[-95.462256,44.479313],[-95.462197,44.471894],[-95.472778,44.472042],[-95.472777,44.471496],[-95.472807,44.470297],[-95.472814,44.470012],[-95.472824,44.468697],[-95.472823,44.468404],[-95.46803,44.468332],[-95.463336,44.468262],[-95.46205,44.468243],[-95.461488,44.457428],[-95.461309,44.457226],[-95.455457,44.45722],[-95.455183,44.457338],[-95.455171,44.457393],[-95.451096,44.45737],[-95.448454,44.457356],[-95.446863,44.457354],[-95.445427,44.457343],[-95.444939,44.457336],[-95.443818,44.45732],[-95.44061,44.457295],[-95.439131,44.457279],[-95.437493,44.457275],[-95.435769,44.457244],[-95.43389,44.45724],[-95.431112,44.457221],[-95.428065,44.457201],[-95.42619,44.457173],[-95.424209,44.457172],[-95.422163,44.457151],[-95.421534,44.457153],[-95.420915,44.457154],[-95.420995,44.450388],[-95.421615,44.450388],[-95.431196,44.450388],[-95.431211,44.44967],[-95.431322,44.444079],[-95.431362,44.443012],[-95.431464,44.443009],[-95.433123,44.44304],[-95.43452,44.443059],[-95.43607,44.443066],[-95.4375,44.443084],[-95.438667,44.443087],[-95.440148,44.443119],[-95.441374,44.443127],[-95.441748,44.443134],[-95.442597,44.44315],[-95.442833,44.443151],[-95.44507,44.443156],[-95.446915,44.443177],[-95.449889,44.44322],[-95.451153,44.443231],[-95.451999,44.443224],[-95.452018,44.442814],[-95.452022,44.441655],[-95.452037,44.440625],[-95.452064,44.439582],[-95.452062,44.43749],[-95.452059,44.437199],[-95.452056,44.436831],[-95.452074,44.435593],[-95.452062,44.43411],[-95.452094,44.429626],[-95.45213,44.428419],[-95.448352,44.428402],[-95.443893,44.428386],[-95.441777,44.428375],[-95.441756,44.42475],[-95.452136,44.42476],[-95.452124,44.424617],[-95.452107,44.423126],[-95.452091,44.42263],[-95.452056,44.421539],[-95.452004,44.418638],[-95.451924,44.414232],[-95.451929,44.413748],[-95.45268,44.413749],[-95.472827,44.413973],[-95.472828,44.412071],[-95.472828,44.410194],[-95.47282,44.408502],[-95.472824,44.40692],[-95.472819,44.405309],[-95.472819,44.403965],[-95.472811,44.403266],[-95.472801,44.402373],[-95.472826,44.400565],[-95.472818,44.399424],[-95.471067,44.399439],[-95.467752,44.399427],[-95.467751,44.392122],[-95.472778,44.39218],[-95.472753,44.386243],[-95.472728,44.384883],[-95.472901,44.384886],[-95.473481,44.384888],[-95.478411,44.384907],[-95.480806,44.384902],[-95.484189,44.384886],[-95.484192,44.38477],[-95.485141,44.384712],[-95.485232,44.384634],[-95.48515,44.374963],[-95.485147,44.374072],[-95.482672,44.374055],[-95.482671,44.373978],[-95.482636,44.370424],[-95.482633,44.370117],[-95.482635,44.368665],[-95.482637,44.368151],[-95.48264,44.366432],[-95.490589,44.366407],[-95.492717,44.3664],[-95.492751,44.365184],[-95.49302,44.355689],[-95.49299,44.352057],[-95.502122,44.35205],[-95.503103,44.352066],[-95.503021,44.341682],[-95.503019,44.34135],[-95.504518,44.341324],[-95.50664,44.341295],[-95.506932,44.341197],[-95.507213,44.341156],[-95.513176,44.341161],[-95.516366,44.3412],[-95.519478,44.341221],[-95.52206,44.341309],[-95.523532,44.34126],[-95.523432,44.326633],[-95.528063,44.326655],[-95.529179,44.326657],[-95.533656,44.326659],[-95.536259,44.326658],[-95.540368,44.326624],[-95.547758,44.326598],[-95.552134,44.326576],[-95.553849,44.326568],[-95.556315,44.326556],[-95.560625,44.326551],[-95.562508,44.32657],[-95.563801,44.326566],[-95.568186,44.326591],[-95.570017,44.326596],[-95.571821,44.326601],[-95.574032,44.326598],[-95.576289,44.326595],[-95.58029,44.326597],[-95.584672,44.326625],[-95.588703,44.326616],[-95.592775,44.326631],[-95.593754,44.326627],[-95.593758,44.329322],[-95.593784,44.332229],[-95.593798,44.333833],[-95.593798,44.33395],[-95.589298,44.333928],[-95.589348,44.336118],[-95.589381,44.337545],[-95.59383,44.337609],[-95.593967,44.341176],[-95.593959,44.343325],[-95.593958,44.345753],[-95.593955,44.348369],[-95.595558,44.348367],[-95.600371,44.348364],[-95.601975,44.348363],[-95.602242,44.348362],[-95.603044,44.348362],[-95.603312,44.348362],[-95.603567,44.348361],[-95.603987,44.348359],[-95.604024,44.355685],[-95.603664,44.355687],[-95.60263,44.355692],[-95.598631,44.355727],[-95.595032,44.355771],[-95.594442,44.355762],[-95.594192,44.355762],[-95.593982,44.355762],[-95.593923,44.355763],[-95.59395,44.359468],[-95.593983,44.36162],[-95.593993,44.362969],[-95.593993,44.363036],[-95.604105,44.362966],[-95.60411,44.363337],[-95.604219,44.370402],[-95.604496,44.370406],[-95.609074,44.370384],[-95.611379,44.370373],[-95.61432,44.37036],[-95.61433,44.37062],[-95.61434,44.37234],[-95.614332,44.373269],[-95.61433,44.37363],[-95.61434,44.37501],[-95.614326,44.377658],[-95.61432,44.37886],[-95.61435,44.38042],[-95.614346,44.381999],[-95.61434,44.38491],[-95.614334,44.386345],[-95.614315,44.390653],[-95.61431,44.39209],[-95.616444,44.392101],[-95.62003,44.39212],[-95.6214,44.39212],[-95.622849,44.392127],[-95.62335,44.39213],[-95.62417,44.39213],[-95.62439,44.39212],[-95.62455,44.3921],[-95.62473,44.39207],[-95.624973,44.392011],[-95.627313,44.392055],[-95.629307,44.392093],[-95.629382,44.397121],[-95.629418,44.399462],[-95.629613,44.399462],[-95.630201,44.399464],[-95.630397,44.399465],[-95.631241,44.399468],[-95.633775,44.399477],[-95.63462,44.39948],[-95.634613,44.399945]]],[[[-95.624338,44.428527],[-95.62413,44.42853],[-95.622828,44.428524],[-95.61744,44.4285],[-95.616304,44.428487],[-95.61569,44.42848],[-95.61456,44.42847],[-95.61413,44.42846],[-95.61415,44.42537],[-95.61414,44.42395],[-95.614162,44.421363],[-95.617783,44.421312],[-95.62429,44.421222],[-95.624338,44.428527]]],[[[-95.48273,44.380792],[-95.480605,44.38076],[-95.47269,44.380791],[-95.472685,44.379893],[-95.472672,44.379051],[-95.472654,44.377895],[-95.472649,44.377639],[-95.472648,44.377537],[-95.472636,44.376435],[-95.472619,44.375008],[-95.472603,44.373994],[-95.480543,44.374042],[-95.482654,44.374055],[-95.482672,44.374055],[-95.482695,44.376794],[-95.48273,44.380792]]]]}},{"type":"Feature","properties":{"STATEFP":"27","ELSDLEA":"28960","GEOID":"2728960","GEOIDFQ":"9500000US2728960","NAME":"Pine Point Public School District","LSAD":"00","LOGRADE":"PK","HIGRADE":"08","MTFCC":"G5400","SDTYP":"","FUNCSTAT":"E","ALAND":11191797,"AWATER":2071546,"INTPTLAT":"+46.9853376","INTPTLON":"-095.4000147"},"geometry":{"type":"Polygon","coordinates":[[[-95.423353,47.005607],[-95.421013,47.005621],[-95.413993,47.005665],[-95.411654,47.00568],[-95.411603,47.005681],[-95.411452,47.005685],[-95.411402,47.005687],[-95.409165,47.005698],[-95.400687,47.005738],[-95.40053,47.005738],[-95.399782,47.005742],[-95.398878,47.005746],[-95.381517,47.005828],[-95.381603,46.992227],[-95.381606,46.991815],[-95.371147,46.991753],[-95.371124,46.993181],[-95.371117,46.993568],[-95.370063,46.993574],[-95.370088,46.991764],[-95.36894,46.991776],[-95.362319,46.991847],[-95.360113,46.991872],[-95.360106,46.98898],[-95.360105,46.988271],[-95.360096,46.98467],[-95.360088,46.980304],[-95.360083,46.977412],[-95.360642,46.977425],[-95.362322,46.977466],[-95.362882,46.97748],[-95.363064,46.977479],[-95.363611,46.977477],[-95.363794,46.977477],[-95.365206,46.977471],[-95.369445,46.977455],[-95.370512,46.977452],[-95.370858,46.97745],[-95.371976,46.977446],[-95.373339,46.977441],[-95.373317,46.976156],[-95.373297,46.974932],[-95.373278,46.973768],[-95.383963,46.973707],[-95.394399,46.973656],[-95.394408,46.97739],[-95.39452,46.97739],[-95.397099,46.977374],[-95.397222,46.977373],[-95.398957,46.977363],[-95.401223,46.977349],[-95.402411,46.977342],[-95.408021,46.977324],[-95.410288,46.977317],[-95.410866,46.977314],[-95.412602,46.977309],[-95.413181,46.977308],[-95.413264,46.977308],[-95.413516,46.977311],[-95.4136,46.977312],[-95.415468,46.97732],[-95.421072,46.977346],[-95.422941,46.977355],[-95.422959,46.978801],[-95.42299,46.98119],[-95.423016,46.983142],[-95.423017,46.983275],[-95.423035,46.984589],[-95.423053,46.985064],[-95.423108,46.98649],[-95.423127,46.986966],[-95.423142,46.988026],[-95.42319,46.991206],[-95.423206,46.992267],[-95.423229,46.992689],[-95.423301,46.993954],[-95.423325,46.994377],[-95.423287,46.996623],[-95.423233,46.999871],[-95.423306,47.003361],[-95.423353,47.005607]]]}},{"type":"Feature","properties":{"STATEFP":"27","ELSDLEA":"33720","GEOID":"2733720","GEOIDFQ":"9500000US2733720","NAME":"Nett Lake Public School District","LSAD":"00","LOGRADE":"PK","HIGRADE":"12","MTFCC":"G5400","SDTYP":"","FUNCSTAT":"E","ALAND":248052568,"AWATER":29524347,"INTPTLAT":"+48.1299108","INTPTLON":"-093.1769538"},"geometry":{"type":"Polygon","coordinates":[[[-93.356494,48.137947],[-93.356455,48.139837],[-93.356442,48.140467],[-93.356383,48.143582],[-93.356208,48.152929],[-93.35615,48.156045],[-93.353533,48.156038],[-93.345682,48.156017],[-93.343066,48.156011],[-93.342345,48.155987],[-93.338239,48.155848],[-93.323759,48.155361],[-93.319799,48.155228],[-93.31954,48.155356],[-93.318891,48.155347],[-93.313188,48.155301],[-93.311558,48.155288],[-93.311056,48.155271],[-93.310668,48.155263],[-93.310191,48.155248],[-93.310165,48.155242],[-93.309988,48.155252],[-93.266067,48.155163],[-93.22756,48.154994],[-93.226913,48.154991],[-93.202448,48.154891],[-93.201002,48.154887],[-93.18784,48.154865],[-93.159476,48.154762],[-93.143681,48.154736],[-93.142247,48.154739],[-93.140259,48.154743],[-93.126543,48.15471],[-93.09907,48.154607],[-93.098427,48.1546],[-93.097259,48.154586],[-93.097258,48.155043],[-93.097257,48.155375],[-93.097251,48.15587],[-93.097256,48.15636],[-93.097255,48.157918],[-93.097253,48.161536],[-93.097299,48.16515],[-93.097344,48.168751],[-93.097366,48.172446],[-93.09738,48.174946],[-93.097405,48.179234],[-93.097408,48.179517],[-93.097409,48.179569],[-93.097104,48.179582],[-93.09656,48.179606],[-93.096201,48.179622],[-93.095623,48.179622],[-93.095137,48.179621],[-93.093942,48.179619],[-93.091315,48.179616],[-93.083417,48.179598],[-93.078411,48.17959],[-93.073988,48.179582],[-93.070074,48.179565],[-93.064656,48.179543],[-93.059248,48.17952],[-93.057179,48.179511],[-93.053969,48.179497],[-93.053839,48.179497],[-93.052332,48.179496],[-93.048411,48.179471],[-93.042982,48.179437],[-93.04151,48.179428],[-93.039219,48.179416],[-93.032126,48.179378],[-93.030076,48.179372],[-93.030025,48.176242],[-93.029934,48.169289],[-93.029925,48.165944],[-93.029904,48.162242],[-93.029881,48.156649],[-93.029872,48.154615],[-93.030016,48.147573],[-93.030138,48.14158],[-93.030167,48.140152],[-93.030191,48.13771],[-93.030242,48.132199],[-93.030301,48.125857],[-93.030327,48.124587],[-93.030421,48.119085],[-93.030429,48.118634],[-93.030501,48.114561],[-93.030586,48.108623],[-93.030637,48.103459],[-93.030665,48.100629],[-93.03069,48.098256],[-93.030705,48.09675],[-93.030698,48.094897],[-93.030677,48.089593],[-93.03066,48.085104],[-93.030648,48.082001],[-93.030972,48.075065],[-93.031142,48.071426],[-93.031315,48.067768],[-93.031392,48.066238],[-93.031612,48.061973],[-93.031761,48.059078],[-93.031805,48.058227],[-93.031813,48.057865],[-93.031847,48.056172],[-93.031857,48.055707],[-93.032302,48.050739],[-93.03236,48.047154],[-93.03242,48.044533],[-93.032476,48.039984],[-93.032479,48.039799],[-93.032546,48.0351],[-93.032515,48.033607],[-93.032413,48.029151],[-93.032351,48.021962],[-93.032198,48.019416],[-93.03191,48.014617],[-93.031524,48.007371],[-93.032143,48.004804],[-93.034803,48.004726],[-93.040454,48.004559],[-93.05378,48.004407],[-93.05711,48.004443],[-93.059342,48.004468],[-93.067059,48.0045],[-93.072581,48.004527],[-93.08335,48.004576],[-93.086131,48.004588],[-93.087672,48.004595],[-93.087717,48.005116],[-93.087863,48.007975],[-93.087952,48.011552],[-93.087986,48.012895],[-93.088051,48.015267],[-93.088131,48.018705],[-93.088221,48.022281],[-93.088437,48.025865],[-93.088654,48.02945],[-93.088935,48.03414],[-93.089088,48.036619],[-93.08907,48.040244],[-93.089062,48.042013],[-93.089053,48.043869],[-93.089032,48.047205],[-93.089031,48.047371],[-93.08903,48.047485],[-93.089006,48.0511],[-93.089048,48.053444],[-93.089071,48.054725],[-93.089135,48.05835],[-93.089132,48.058815],[-93.089133,48.05904],[-93.089128,48.06024],[-93.089128,48.060409],[-93.089127,48.060509],[-93.089127,48.060593],[-93.089122,48.061975],[-93.089109,48.0656],[-93.089106,48.067482],[-93.089107,48.067921],[-93.090484,48.067903],[-93.092076,48.067882],[-93.096541,48.067803],[-93.098656,48.06782],[-93.105161,48.067805],[-93.10733,48.067801],[-93.110646,48.067793],[-93.120597,48.06777],[-93.123914,48.067763],[-93.128526,48.067752],[-93.142361,48.06772],[-93.146974,48.06771],[-93.152687,48.067697],[-93.169827,48.067659],[-93.175541,48.067647],[-93.17579,48.0677],[-93.1761,48.06775],[-93.1771,48.06783],[-93.17803,48.06785],[-93.17954,48.06787],[-93.180024,48.067872],[-93.18612,48.0679],[-93.18751,48.06789],[-93.18869,48.0679],[-93.19286,48.06788],[-93.193513,48.067885],[-93.19514,48.0679],[-93.19625,48.0679],[-93.19801,48.067923],[-93.19852,48.06793],[-93.198858,48.067931],[-93.201405,48.067945],[-93.202254,48.06795],[-93.204224,48.067971],[-93.210137,48.068037],[-93.21032,48.06804],[-93.212108,48.068048],[-93.21277,48.068051],[-93.21467,48.06806],[-93.214757,48.068061],[-93.21523,48.06807],[-93.21542,48.06808],[-93.217944,48.068091],[-93.225518,48.068125],[-93.228043,48.068137],[-93.242972,48.068269],[-93.287761,48.068668],[-93.302691,48.068801],[-93.303463,48.068807],[-93.305653,48.068827],[-93.305782,48.068828],[-93.306555,48.068836],[-93.312838,48.068891],[-93.331688,48.069059],[-93.337662,48.069112],[-93.337817,48.069114],[-93.337972,48.069115],[-93.338159,48.069116],[-93.338347,48.069118],[-93.338895,48.069122],[-93.341665,48.069147],[-93.342589,48.069156],[-93.342977,48.068558],[-93.347624,48.068561],[-93.348758,48.06857],[-93.351122,48.06864],[-93.355622,48.06864],[-93.355686,48.075258],[-93.355702,48.076901],[-93.35579,48.085785],[-93.355861,48.092932],[-93.355874,48.094522],[-93.356224,48.13724],[-93.35628,48.13726],[-93.356396,48.137289],[-93.356418,48.137294],[-93.356484,48.137311],[-93.356507,48.137317],[-93.356494,48.137947]]]}}]}