{"type":"FeatureCollection","crs":{"type":"name","properties":{"name":"urn:ogc:def:crs:OGC:1.3:CRS84"}},"features":[{"type":"Feature","id":1,"geometry":{"type":"Polygon","coordinates":[[[-122.836652867728,47.160219537997],[-122.836679865726,47.1477535375852],[-122.83670086284,47.1379875365934],[-122.836639863242,47.1374915373962],[-122.836700863068,47.1369195365768],[-122.836837862418,47.1365005365544],[-122.837218862762,47.1358665372653],[-122.838882862796,47.1338225369516],[-122.83972186269,47.1331055363552],[-122.839804861648,47.1330135363372],[-122.840041862521,47.132754536356],[-122.840560862608,47.1324035362313],[-122.84126286183,47.1320675361653],[-122.84352486288,47.1313645356526],[-122.84426386301,47.1311345355238],[-122.844274862375,47.1304305361487],[-122.844289861735,47.1276595359258],[-122.844288861115,47.1267895359141],[-122.844277861063,47.1266945356591],[-122.844270861748,47.1264885359775],[-122.844275861725,47.1263465352614],[-122.844269861637,47.1262765353081],[-122.844280862015,47.1261545352806],[-122.844280861019,47.1257935352671],[-122.844295861421,47.1255515355596],[-122.844290861877,47.1254755352465],[-122.844293861122,47.125212535255],[-122.844306861404,47.1250895352684],[-122.844314861734,47.124770535437],[-122.844336861651,47.1245825352627],[-122.844337860766,47.1242435351741],[-122.844288860861,47.1233415355454],[-122.844288860766,47.1231705350412],[-122.844305860608,47.1226215350014],[-122.844311860541,47.1222475356516],[-122.844300859948,47.1220935357413],[-122.844304861013,47.1219155352931],[-122.844301860722,47.1215615349965],[-122.844289860126,47.1213055354319],[-122.844296860922,47.1212465351001],[-122.844292860691,47.1211315356392],[-122.844304860141,47.1210825356065],[-122.844351860574,47.1209885351236],[-122.844387859799,47.1209475353035],[-122.844426860684,47.1208455356332],[-122.84435786043,47.1207335354206],[-122.844307860607,47.1205715354187],[-122.844295859774,47.1204755356752],[-122.844294860447,47.120251534857],[-122.844287860614,47.1201305351841],[-122.844293860138,47.1196105349416],[-122.849723860844,47.1195925343548],[-122.8549608612,47.11964553378],[-122.861725862598,47.1197155335424],[-122.865083862891,47.119748533304],[-122.865088863643,47.1192065330375],[-122.865082862632,47.1190885333807],[-122.865087863501,47.1189215326224],[-122.865088863033,47.1184895328151],[-122.865075862635,47.1179445332933],[-122.865073862918,47.1163575326595],[-122.86507386265,47.1162075332284],[-122.865078862905,47.1159055330783],[-122.865078862004,47.1148645325323],[-122.865065861109,47.1120935327459],[-122.865084860912,47.1114115328796],[-122.865078860874,47.1112755322639],[-122.865080861745,47.1108485325166],[-122.865074860613,47.1105665324218],[-122.865074860905,47.1103965323624],[-122.865075861449,47.1101375326794],[-122.865064860856,47.1096945325345],[-122.865059861003,47.1084165322596],[-122.865067860531,47.1082665324019],[-122.865058860324,47.1065035320817],[-122.865048859966,47.1062105324759],[-122.865044860053,47.1056225325158],[-122.865053859591,47.1054725318313],[-122.865048859464,47.1052145320528],[-122.865050859343,47.1046295318365],[-122.865042860266,47.1044955319442],[-122.8650358589,47.1040865317867],[-122.865041860026,47.1036685322332],[-122.865034859296,47.103532531977],[-122.865040859318,47.1026755320687],[-122.865022858559,47.1009715323578],[-122.865010858441,47.0998645318691],[-122.864999858291,47.098856531567],[-122.864998858533,47.0982245315658],[-122.864997858624,47.0979775320918],[-122.865000857784,47.0973435322181],[-122.865003857755,47.0968615313855],[-122.864993857287,47.0963675313701],[-122.864993857143,47.0961805314237],[-122.864996857889,47.0953085320364],[-122.864990857528,47.0950445321482],[-122.864977857987,47.094917531472],[-122.864973857053,47.0939985313863],[-122.864970857638,47.0934345317816],[-122.864989857203,47.0932905316696],[-122.864979857381,47.0927655314684],[-122.864971856465,47.0926655320517],[-122.864970856516,47.0926385315982],[-122.864968856929,47.0925085318821],[-122.864975856196,47.0923815318536],[-122.864965856806,47.0912715318564],[-122.864962856357,47.0908915316271],[-122.864954856473,47.0900605318287],[-122.864958856852,47.0899775313159],[-122.864961855945,47.0899255311446],[-122.864955856824,47.0898035318892],[-122.864958855842,47.0889115311406],[-122.864963855166,47.088001531565],[-122.864959856001,47.0878725310606],[-122.864949855347,47.0874865316527],[-122.86495685535,47.0871235313338],[-122.864950854881,47.0865745311038],[-122.864951854833,47.0856665314499],[-122.864950855601,47.0855365316476],[-122.864944854603,47.0848845309506],[-122.864953855279,47.0847505311705],[-122.864942854686,47.0843725308234],[-122.864950854351,47.0842425311063],[-122.864942854471,47.0841235307602],[-122.864939854889,47.0838975309593],[-122.864948854694,47.0837925311561],[-122.86494385446,47.0836325314926],[-122.864945854818,47.0834585309669],[-122.864952854467,47.0823965311695],[-122.864945853724,47.0816245310086],[-122.864955854119,47.0813655307696],[-122.864956853985,47.0805005310465],[-122.864948853829,47.0798795312803],[-122.864950853615,47.0791585308537],[-122.864950853355,47.0789585309492],[-122.864954853851,47.0775005310181],[-122.864956853741,47.0767555309917],[-122.86494785252,47.0763175311778],[-122.864947852461,47.0760045303142],[-122.864954853191,47.0751925303542],[-122.864956853178,47.0750735308817],[-122.864948853027,47.0749415303906],[-122.864947852381,47.0747985303431],[-122.864945852418,47.0744235302255],[-122.864942852824,47.0732325303263],[-122.864941851861,47.0731715303816],[-122.864933852238,47.0717135306076],[-122.864938851189,47.0707435304546],[-122.86493985182,47.0705245303569],[-122.864941851072,47.0702445306663],[-122.864937851999,47.0700295306864],[-122.864943852034,47.0695665304883],[-122.864953851164,47.0689445306464],[-122.865032850354,47.0648695297277],[-122.865136850431,47.064869530288],[-122.865116850639,47.0644855302142],[-122.865162849963,47.0644845298524],[-122.865113849706,47.0639385298948],[-122.865027849745,47.0638945296668],[-122.864978850441,47.063876530392],[-122.864941849785,47.0638685303034],[-122.865045849883,47.0635155302048],[-122.864474850348,47.0634415302432],[-122.864558849374,47.0633845301705],[-122.865067850331,47.0630955303762],[-122.865208850192,47.0630165302505],[-122.865272850019,47.0629715300726],[-122.865343850217,47.0629065297206],[-122.865403850522,47.0628265302289],[-122.865424849629,47.0627825301767],[-122.865448850205,47.0626905296933],[-122.865448850273,47.0626035299636],[-122.865432849462,47.0625155298899],[-122.865304849931,47.0621495303742],[-122.865270850428,47.0620535296009],[-122.865159849556,47.061725529554],[-122.86515084968,47.0616535302662],[-122.865160850071,47.0606235294873],[-122.865164849198,47.0597495294269],[-122.865166849303,47.059736529941],[-122.864166848508,47.0597325296357],[-122.864286848468,47.0583445296899],[-122.864284848762,47.0583145300764],[-122.86511484929,47.0583215302253],[-122.865128849123,47.0567765297997],[-122.86677084819,47.0566705296809],[-122.867074848849,47.0566825293836],[-122.867085849251,47.0565235293171],[-122.866997849255,47.0557025297637],[-122.866868848227,47.0555415292986],[-122.86653284913,47.05555752986],[-122.865134848437,47.0556275295809],[-122.865139848441,47.0546895295232],[-122.865121847803,47.0544435293237],[-122.863905848337,47.0545025301066],[-122.863479847316,47.0545235301084],[-122.863441847456,47.0544175293379],[-122.861769847172,47.0543995298877],[-122.861771847282,47.0542995297132],[-122.860981847711,47.0542885303048],[-122.860981847945,47.0543855304421],[-122.85534784597,47.0543205309869],[-122.851602845739,47.0542765307691],[-122.850263846229,47.0542595309802],[-122.849583844953,47.0542515316075],[-122.849596844845,47.0510465313589],[-122.849529844822,47.0510675310463],[-122.84933784498,47.0510595309609],[-122.848725844592,47.0510715309232],[-122.848644844528,47.0510695314799],[-122.848462844577,47.0510655309568],[-122.847866844451,47.0510605317089],[-122.847869844746,47.0496925309975],[-122.848653843726,47.0497015315192],[-122.848666843481,47.0479155309713],[-122.848699843936,47.0477805308795],[-122.848705844192,47.0469875308118],[-122.849932843605,47.0469025306221],[-122.850270844284,47.0468785305565],[-122.851011843539,47.0468275307129],[-122.851857843536,47.0467685303784],[-122.851879843317,47.0436465307771],[-122.851883843927,47.0428745302354],[-122.851885843287,47.0427095307878],[-122.851893842502,47.0416015300919],[-122.851892842475,47.041533530737],[-122.85189584234,47.041432530252],[-122.852044842392,47.041435529982],[-122.852241842362,47.041461530097],[-122.852500843183,47.0414955304957],[-122.8528098426,47.0415635305912],[-122.853264843024,47.0416645299463],[-122.853794842827,47.0418145298473],[-122.855548843317,47.0423115299031],[-122.856440844436,47.0425345301435],[-122.856943843566,47.0426295300544],[-122.857635844083,47.0427605296769],[-122.859055843843,47.0430365299167],[-122.859969844044,47.0432075298293],[-122.860680845244,47.043332529485],[-122.860763844195,47.0433475296797],[-122.86100284503,47.0433895297438],[-122.861904844542,47.043560529791],[-122.861997845443,47.0435845291211],[-122.862338844762,47.0436725291179],[-122.862709844771,47.0438025295215],[-122.86304684476,47.0439685289432],[-122.863095844832,47.0439925296953],[-122.863495845625,47.0441995291249],[-122.863842845988,47.0443395294087],[-122.864084845216,47.0444295296222],[-122.864213845878,47.0444775293787],[-122.864327845253,47.0445055288254],[-122.864617845311,47.0445755288297],[-122.865106845904,47.0446885288739],[-122.866506846647,47.0450085287714],[-122.867026845913,47.0451395285191],[-122.867301846203,47.0452085292394],[-122.867949846629,47.0453725284931],[-122.869052846906,47.0456385289128],[-122.870345847117,47.0459495290247],[-122.870719846476,47.0460345281961],[-122.87076384659,47.0460445288105],[-122.870824847521,47.046043528948],[-122.871654847479,47.0460335283235],[-122.872975846967,47.0460445282259],[-122.873456847846,47.0460485283465],[-122.873962848106,47.0460535284483],[-122.875639847312,47.0460555279232],[-122.8756268477,47.0451995282233],[-122.877628847625,47.0451995278693],[-122.879120847682,47.0452005273542],[-122.880491848401,47.0452005270586],[-122.881860848949,47.0452045269291],[-122.884979848983,47.0452095270647],[-122.888428849928,47.0449725261206],[-122.889859850278,47.0448695267601],[-122.891309849631,47.0447995262109],[-122.892727850424,47.0447005260271],[-122.892846850786,47.0454895257118],[-122.893419849843,47.0454545264819],[-122.894309850664,47.0453995257934],[-122.895512851223,47.0453265262164],[-122.896735850851,47.0452495256245],[-122.897967850889,47.0451665254748],[-122.898455851441,47.0451335253549],[-122.899211851391,47.0450725258185],[-122.900472851596,47.0449805249407],[-122.901262851486,47.0449325253619],[-122.901676851835,47.0448975249035],[-122.902935851463,47.0448065249561],[-122.904151851537,47.0447135247314],[-122.904196852286,47.0447095251357],[-122.905522852194,47.0446035251244],[-122.906739852377,47.0445155245442],[-122.907560852744,47.044455524785],[-122.908039852458,47.0444145242354],[-122.9086618523,47.0443715240337],[-122.909324852864,47.044325523968],[-122.909359853634,47.0512135245988],[-122.909373855416,47.0537815248708],[-122.909396855613,47.0579705251254],[-122.909539855843,47.0594615251099],[-122.909594856031,47.0600385254871],[-122.909955857041,47.0613515254259],[-122.912037858552,47.0689105250563],[-122.912157859093,47.0693465251974],[-122.91505786117,47.0775635253975],[-122.91586686168,47.0801645255345],[-122.916309862805,47.0818735254661],[-122.916507863305,47.0831025250951],[-122.916660862496,47.0842845257402],[-122.916751863265,47.0852685258778],[-122.91672186283,47.0860085252205],[-122.916614863081,47.0864895253881],[-122.916199868345,47.1067755268312],[-122.916086869274,47.1123155269483],[-122.915836872137,47.1245605276417],[-122.915164871672,47.1251325278319],[-122.915607872962,47.1289475277061],[-122.9157298736,47.1316705282939],[-122.91572987465,47.1339065279228],[-122.915576874306,47.1354165280459],[-122.915347874489,47.1369655283615],[-122.915058874695,47.1382855285179],[-122.914539875203,47.1398345285876],[-122.913867876556,47.1420545285254],[-122.913814876256,47.1422135290135],[-122.913135876248,47.1442665293627],[-122.910175876884,47.149912529261],[-122.908664877987,47.1520945302494],[-122.907001877246,47.1541315300684],[-122.905673877813,47.1556195305014],[-122.903919877526,47.1551465305175],[-122.902545876922,47.1549025303702],[-122.901325877103,47.1549255306127],[-122.900314877337,47.1550845313384],[-122.89944887641,47.1552225308244],[-122.898166876807,47.1554745314232],[-122.895816876132,47.156336531645],[-122.893587875865,47.15735153215],[-122.892977876261,47.1575495318291],[-122.892229876834,47.1576565322068],[-122.891711876107,47.1577095320886],[-122.891070876209,47.1576795320428],[-122.887438875777,47.1569855322315],[-122.88475387436,47.1564895327755],[-122.884509874211,47.1564695325855],[-122.882693874588,47.1563215332544],[-122.881731874278,47.1562905329037],[-122.881060873826,47.1564585333265],[-122.880541873555,47.1566035337106],[-122.880038874559,47.1568475333122],[-122.879519874111,47.1571685333868],[-122.879312874475,47.1573435338286],[-122.879176873967,47.1574575331124],[-122.878769874537,47.1578015332342],[-122.878634873875,47.1579165335644],[-122.878557873768,47.1579805336012],[-122.878329874589,47.1581735335502],[-122.87825487459,47.1582385334378],[-122.876436874197,47.1597775337357],[-122.87626487422,47.1598185342859],[-122.875367874019,47.1600295336483],[-122.874539874601,47.1602895344764],[-122.872392873314,47.1609675339342],[-122.870515873556,47.1618065350219],[-122.868867874341,47.1627305351247],[-122.867692873622,47.1637065354641],[-122.866594873515,47.1645455355421],[-122.865297873817,47.165285535062],[-122.86421387427,47.1659035356035],[-122.863071873168,47.1662565355886],[-122.862809873445,47.1663385356821],[-122.86132987387,47.166827535864],[-122.86052187411,47.1670025362145],[-122.859665873793,47.1674905362497],[-122.859040873465,47.1678115364763],[-122.85790287294,47.1683945364501],[-122.857285872751,47.1687115361534],[-122.854981873256,47.1701995367102],[-122.854661872731,47.1704385371595],[-122.853639873835,47.1712055370174],[-122.852783873114,47.171847537261],[-122.850984872884,47.1730895372031],[-122.850983874045,47.1730905375212],[-122.848877874009,47.1749445378967],[-122.846741873432,47.1769355380637],[-122.844757873517,47.1789505386451],[-122.84396387399,47.1798675385836],[-122.843353873808,47.1805755385139],[-122.842331874475,47.182093538785],[-122.842063873947,47.1825055384001],[-122.841736874097,47.1830085385354],[-122.841217873866,47.1836345391941],[-122.841079874265,47.1838025391735],[-122.840377874338,47.1846265392468],[-122.839034874842,47.185808539661],[-122.838117875152,47.1864995392946],[-122.836990874125,47.1873505393555],[-122.836906875081,47.187406539656],[-122.836654874157,47.187575540039],[-122.836571874898,47.1876325394774],[-122.836593874301,47.1873505397108],[-122.836637869696,47.1669555386448],[-122.836652867728,47.160219537997]]]},"properties":{"OBJECTID":1,"NewDirecto":1,"Shape__Area":646321376.8841553,"Shape__Length":145593.0938207399}},{"type":"Feature","id":2,"geometry":{"type":"Polygon","coordinates":[[[-122.867949846629,47.0453725284931],[-122.867301846203,47.0452085292394],[-122.867026845913,47.0451395285191],[-122.866506846647,47.0450085287714],[-122.865106845904,47.0446885288739],[-122.864617845311,47.0445755288297],[-122.864327845253,47.0445055288254],[-122.864213845878,47.0444775293787],[-122.864084845216,47.0444295296222],[-122.863842845988,47.0443395294087],[-122.863495845625,47.0441995291249],[-122.863095844832,47.0439925296953],[-122.86304684476,47.0439685289432],[-122.862709844771,47.0438025295215],[-122.862338844762,47.0436725291179],[-122.861997845443,47.0435845291211],[-122.861904844542,47.043560529791],[-122.86100284503,47.0433895297438],[-122.860763844195,47.0433475296797],[-122.860680845244,47.043332529485],[-122.859969844044,47.0432075298293],[-122.859055843843,47.0430365299167],[-122.857635844083,47.0427605296769],[-122.856943843566,47.0426295300544],[-122.856440844436,47.0425345301435],[-122.855548843317,47.0423115299031],[-122.853794842827,47.0418145298473],[-122.853264843024,47.0416645299463],[-122.8528098426,47.0415635305912],[-122.852500843183,47.0414955304957],[-122.852241842362,47.041461530097],[-122.852044842392,47.041435529982],[-122.85189584234,47.041432530252],[-122.85139884268,47.0414205308427],[-122.850858842659,47.0414085300032],[-122.850612843256,47.0414275304097],[-122.849665842544,47.041501530298],[-122.849366842818,47.0415385304249],[-122.848161841989,47.0416875307073],[-122.847886842641,47.0417115307834],[-122.846977842524,47.0417405308798],[-122.847029842449,47.0410245310929],[-122.847019842276,47.0402695303732],[-122.847016842519,47.0400135311459],[-122.846990841008,47.0379175304336],[-122.846966841031,47.0363605301679],[-122.846944841332,47.03572853045],[-122.846899840151,47.0345175307028],[-122.846896840936,47.0344125305705],[-122.846913840347,47.0340675302009],[-122.846923840774,47.0336385305633],[-122.846929840205,47.0333565305722],[-122.846934840519,47.0331165303713],[-122.846915839603,47.0324695305962],[-122.849567840932,47.0324955298226],[-122.84951183953,47.030510530361],[-122.84950783952,47.0303625296392],[-122.849485839665,47.0295875303007],[-122.849538839389,47.029588530342],[-122.849513838904,47.02734452943],[-122.849504839773,47.0265055301259],[-122.849496838908,47.0257345293893],[-122.849494838947,47.0255525294422],[-122.849491838192,47.0252085297156],[-122.853581838917,47.0252565295317],[-122.857352840478,47.0253005286476],[-122.863352840559,47.0253605286471],[-122.863352841257,47.025408528357],[-122.865140840817,47.0254255276506],[-122.865136841317,47.0262275281494],[-122.865129840981,47.0267005278941],[-122.865130841434,47.0276095278625],[-122.865131842577,47.0281145281005],[-122.865127842583,47.0290045284395],[-122.865548842807,47.0290105278143],[-122.866208842832,47.0290115284657],[-122.867171843067,47.0290195276107],[-122.868335842147,47.0290275282096],[-122.869766842984,47.0290415278391],[-122.870548842395,47.0290485274321],[-122.870689843262,47.029068527748],[-122.870838843338,47.0290895280026],[-122.871459842761,47.0292225275101],[-122.871570843192,47.0292455276954],[-122.871809842656,47.0292835275153],[-122.872017843131,47.0293215272744],[-122.87236984307,47.0293535270747],[-122.873052843071,47.0293905272504],[-122.873117844023,47.029383527076],[-122.873160843074,47.0293695269868],[-122.873744844168,47.0293825277644],[-122.874657844161,47.0294035272318],[-122.875238843397,47.0294155275087],[-122.875701843852,47.0294265268601],[-122.876679844007,47.0294485274304],[-122.876915844431,47.0294535271624],[-122.87686784434,47.0288205270046],[-122.876884844173,47.0279855268785],[-122.876909843718,47.0273215270888],[-122.87689684313,47.027026527215],[-122.876782843859,47.0268815264443],[-122.876763842865,47.0268575270564],[-122.876483843296,47.026629526651],[-122.876349842654,47.0264485266463],[-122.876270843368,47.0262785265269],[-122.876261842967,47.026081526567],[-122.876377843587,47.0258585271432],[-122.876444843784,47.0258095271388],[-122.876603843818,47.0256935271326],[-122.876762842624,47.0256295272527],[-122.876865842571,47.0255165269054],[-122.876911842932,47.0253435267149],[-122.876896842718,47.0250005265112],[-122.876794842908,47.0247075264912],[-122.876768842609,47.0245355270585],[-122.876765843395,47.0244585270127],[-122.87676084323,47.0243645263458],[-122.876841843181,47.024165526301],[-122.876834842575,47.0239945265824],[-122.876808842492,47.0238225271208],[-122.876709842507,47.0236035265202],[-122.87670384217,47.0234685266293],[-122.87671584266,47.0232495267234],[-122.876972842755,47.0232485266244],[-122.878536843124,47.0232485265072],[-122.880790843831,47.0232465265854],[-122.881945842983,47.0232475263631],[-122.883105843217,47.023237526032],[-122.884580843975,47.023227526012],[-122.886104844143,47.0232215258417],[-122.886325843827,47.0232205253701],[-122.887300844599,47.0232365253327],[-122.888482844428,47.0232345256035],[-122.888474843667,47.021810524986],[-122.888391844074,47.0218105252701],[-122.888388843486,47.0214825253422],[-122.888386844044,47.0214195252104],[-122.88837884402,47.0208795250311],[-122.888556843703,47.0208795250633],[-122.88889184398,47.0208755251828],[-122.888890844338,47.020856524885],[-122.88888884437,47.020461525104],[-122.888957844373,47.0204925252871],[-122.888936843859,47.0184785253553],[-122.888935843397,47.0183575252183],[-122.888933842781,47.0181535255753],[-122.888933843353,47.0181165247879],[-122.888931843873,47.0179515247346],[-122.8889298431,47.0177895252254],[-122.888928843814,47.0177045250444],[-122.888925843752,47.0174605249617],[-122.888921842989,47.0169835251441],[-122.888770843445,47.0169765253977],[-122.888774842732,47.0165955251198],[-122.888826843405,47.016595524989],[-122.888916843518,47.0165955249711],[-122.889863842901,47.0165975247744],[-122.890049843313,47.01659852454],[-122.890617843382,47.0166005245329],[-122.890736843548,47.0166005247661],[-122.890941843152,47.0166015251182],[-122.891325843083,47.016602525019],[-122.891757843477,47.0166035250725],[-122.891948843191,47.0166045242649],[-122.892010843559,47.0166045249359],[-122.89247084398,47.0166055245884],[-122.892693844068,47.0166065244911],[-122.893559844003,47.0166095242074],[-122.894651843958,47.0166125242595],[-122.895849843759,47.0166195238877],[-122.896614844714,47.0166235239323],[-122.896649844207,47.0179205240725],[-122.897262844108,47.0179225246067],[-122.89726984491,47.0181915244916],[-122.897304845083,47.0193845242471],[-122.897019845322,47.0193875246059],[-122.897019844368,47.0194445239565],[-122.896515844383,47.0194555244295],[-122.896508845007,47.0192805239424],[-122.896501844383,47.0190665246444],[-122.896090845135,47.0190725240525],[-122.895347843938,47.0190695243404],[-122.895356844281,47.0192875247767],[-122.895460844826,47.0193355244843],[-122.896093844761,47.0201475242304],[-122.89609384434,47.0201785240308],[-122.89629984559,47.0204525246965],[-122.895503844299,47.0204945244464],[-122.895489845293,47.020537524694],[-122.895501845591,47.0208375246017],[-122.895497845591,47.0209295243617],[-122.896657845196,47.0209295240262],[-122.896844845843,47.0209295239764],[-122.896743844912,47.0214345247295],[-122.896753845611,47.0220825241858],[-122.896799846044,47.0225315242572],[-122.89681284553,47.0234015246469],[-122.897906845625,47.0229665243713],[-122.900220845597,47.0220555241102],[-122.901235846353,47.0216495235939],[-122.901017846567,47.0218705238872],[-122.900204846692,47.0227005237911],[-122.900474845594,47.0227765242862],[-122.902098846051,47.0235815242866],[-122.902348846678,47.0236085236808],[-122.902559846308,47.0236655242319],[-122.9025758463,47.0236845242456],[-122.902662846504,47.0237875241473],[-122.902820847352,47.0239765235335],[-122.90291284707,47.0240865235258],[-122.903562846608,47.0240225236912],[-122.904161847116,47.0243205236061],[-122.904564847562,47.0248235241016],[-122.90478584757,47.0252605235829],[-122.909366848728,47.0252915233994],[-122.910775847819,47.0253025229346],[-122.912503848281,47.0253005228949],[-122.913386848566,47.025299522759],[-122.913625848901,47.0253045228982],[-122.914038848403,47.0253045228873],[-122.915610849792,47.0253025227382],[-122.917949849658,47.0252565221846],[-122.919682850405,47.0253155222764],[-122.920034849943,47.0253195221413],[-122.920248849749,47.0253015220026],[-122.920418850442,47.0252885219531],[-122.923053850994,47.0252545217966],[-122.923053850733,47.0253435215565],[-122.923054850168,47.0254085219441],[-122.92305484977,47.025663521665],[-122.923058850311,47.0259175220085],[-122.92307184999,47.0263685222192],[-122.923096850202,47.02666452194],[-122.923220850609,47.0269385219068],[-122.923265850425,47.026998521607],[-122.923339850962,47.0270985219677],[-122.923556850374,47.0272745215002],[-122.92412685056,47.0276075219912],[-122.924171851345,47.0276395218381],[-122.924751851015,47.0279625217977],[-122.924872850788,47.0280215213565],[-122.925418852031,47.0283335214585],[-122.925481851106,47.0283725212679],[-122.925836851167,47.0285925214399],[-122.925302851923,47.0287045221339],[-122.924617850963,47.0288655216596],[-122.923667851459,47.0291255215358],[-122.923304851926,47.0293605216735],[-122.923306851841,47.0314845223526],[-122.923438851777,47.0314845223684],[-122.923445851266,47.0315555218603],[-122.92343785203,47.0341915222534],[-122.923429852195,47.0344375221573],[-122.923401852091,47.0352575224154],[-122.923371853187,47.0361735225816],[-122.923340852795,47.0370895227982],[-122.923312853306,47.0379605225743],[-122.923309852998,47.0380275228161],[-122.923296853036,47.0384205228042],[-122.923296854089,47.0389345223936],[-122.92329685375,47.0398615225393],[-122.922701853497,47.0398545224556],[-122.922667854308,47.0409175225446],[-122.921966853618,47.0409015228609],[-122.920923853412,47.040879522556],[-122.920898854195,47.0417505225779],[-122.920867854113,47.0426355232983],[-122.920837854148,47.0435065233406],[-122.920807853832,47.0443905233521],[-122.92025485424,47.0443655231513],[-122.919606854087,47.0443665236167],[-122.919098853522,47.0443465228821],[-122.917957854172,47.0443275232969],[-122.917200853367,47.0443225232685],[-122.916816853274,47.0443055236453],[-122.915999853122,47.0442975239882],[-122.915685853493,47.04428652342],[-122.914791852948,47.0442755233991],[-122.914516852856,47.0442685235345],[-122.913340853218,47.0442495242764],[-122.912370852944,47.0442335238532],[-122.912051853086,47.0442275237688],[-122.911816853229,47.0442235239791],[-122.911463852858,47.0442055236565],[-122.911032853353,47.0442065239275],[-122.910632853257,47.0442345238939],[-122.909986853172,47.0442795238664],[-122.909324852864,47.044325523968],[-122.9086618523,47.0443715240337],[-122.908039852458,47.0444145242354],[-122.907560852744,47.044455524785],[-122.906739852377,47.0445155245442],[-122.905522852194,47.0446035251244],[-122.904196852286,47.0447095251357],[-122.904151851537,47.0447135247314],[-122.902935851463,47.0448065249561],[-122.901676851835,47.0448975249035],[-122.901262851486,47.0449325253619],[-122.900472851596,47.0449805249407],[-122.899211851391,47.0450725258185],[-122.898455851441,47.0451335253549],[-122.897967850889,47.0451665254748],[-122.896735850851,47.0452495256245],[-122.895512851223,47.0453265262164],[-122.894309850664,47.0453995257934],[-122.893419849843,47.0454545264819],[-122.892846850786,47.0454895257118],[-122.892727850424,47.0447005260271],[-122.891309849631,47.0447995262109],[-122.889859850278,47.0448695267601],[-122.888428849928,47.0449725261206],[-122.884979848983,47.0452095270647],[-122.881860848949,47.0452045269291],[-122.880491848401,47.0452005270586],[-122.879120847682,47.0452005273542],[-122.877628847625,47.0451995278693],[-122.8756268477,47.0451995282233],[-122.875639847312,47.0460555279232],[-122.873962848106,47.0460535284483],[-122.873456847846,47.0460485283465],[-122.872975846967,47.0460445282259],[-122.871654847479,47.0460335283235],[-122.870824847521,47.046043528948],[-122.87076384659,47.0460445288105],[-122.870719846476,47.0460345281961],[-122.870345847117,47.0459495290247],[-122.869052846906,47.0456385289128],[-122.867949846629,47.0453725284931]]]},"properties":{"OBJECTID":2,"NewDirecto":2,"Shape__Area":136163607.89770508,"Shape__Length":64333.379915687205}},{"type":"Feature","id":3,"geometry":{"type":"Polygon","coordinates":[[[-122.846915839603,47.0324695305962],[-122.846575839492,47.0324665304633],[-122.846195840159,47.0324745305833],[-122.844704840082,47.0324635310662],[-122.84461384034,47.0324775305177],[-122.844281839498,47.0324725304893],[-122.844208838359,47.028040530072],[-122.844170838676,47.0258535300867],[-122.844112838034,47.0257045300869],[-122.843912837404,47.0253985304398],[-122.843794837404,47.0251465299458],[-122.843598837961,47.0249315307184],[-122.843445837302,47.0244785304489],[-122.842914837435,47.0242765302739],[-122.842406837692,47.024241530452],[-122.842057837859,47.0244525304058],[-122.841561837025,47.0246815301537],[-122.840898837853,47.0247675305123],[-122.840106836994,47.0249295303077],[-122.83970583778,47.0249255303492],[-122.839492837393,47.024923530575],[-122.838980836579,47.0247575312998],[-122.838962836847,47.0219245303473],[-122.839017836931,47.0214735303545],[-122.839025835406,47.0179625305268],[-122.839051835301,47.0143415301659],[-122.840218834276,47.0143435302015],[-122.84434583522,47.0143475296929],[-122.849629836848,47.0143865295055],[-122.849704835519,47.0107235287411],[-122.849596835051,47.0107215289148],[-122.848289835585,47.010727528728],[-122.844292834363,47.0107485291342],[-122.844292834067,47.0106835292206],[-122.844298834567,47.009622529129],[-122.844301834023,47.0090035291366],[-122.844305833949,47.0079915290758],[-122.844293833693,47.0075245292415],[-122.844282833672,47.0070605292861],[-122.844294833227,47.0065235297239],[-122.844317833932,47.0055275290525],[-122.844321832866,47.0053425290666],[-122.844334833673,47.0047955291194],[-122.844337832611,47.0044375291666],[-122.844339833283,47.0041145293593],[-122.844349832524,47.0027615290733],[-122.844363832426,47.0011385287852],[-122.844330831753,46.9988645292581],[-122.844324832426,46.9984705284838],[-122.844317832106,46.9979585289538],[-122.844321831363,46.9974745286055],[-122.844327831513,46.9971105288194],[-122.844338831425,46.9966895286087],[-122.844339831186,46.9962305290018],[-122.844408830937,46.9962255291846],[-122.844570831929,46.9962615290289],[-122.851932832883,46.9962775280878],[-122.851920832405,46.9948075281525],[-122.851856831892,46.9947265282507],[-122.851904831373,46.9933515281834],[-122.851893831491,46.9922615278099],[-122.854991831705,46.9923235272446],[-122.855859832581,46.9919945270443],[-122.856210832937,46.992348527551],[-122.8564098318,46.992585527403],[-122.859313833404,46.9926555266105],[-122.863274833009,46.9927065261085],[-122.865762833478,46.9926975262279],[-122.870966834768,46.992680525533],[-122.871825834863,46.992677525606],[-122.871818834856,46.9926895259907],[-122.873731834839,46.992673525626],[-122.875753835621,46.9926705254397],[-122.875718836527,46.9950785249581],[-122.875727835431,46.9953685251589],[-122.875701836223,46.996116525226],[-122.875700836148,46.996214525651],[-122.875717836142,46.996352525387],[-122.87837383645,46.9963645250396],[-122.880849837646,46.9963605246947],[-122.881004836668,46.9963665249365],[-122.89074283886,46.9963355240763],[-122.890988838601,46.9963185239485],[-122.894901838817,46.9962765232435],[-122.895063838972,46.996287523245],[-122.895192839397,46.9962945235152],[-122.895400839061,46.9962995235329],[-122.895630838753,46.9963055229568],[-122.895843838947,46.9963005228897],[-122.896068839756,46.9962995235689],[-122.896304840084,46.9962855234041],[-122.896479839658,46.9962485230724],[-122.896622839182,46.9962545232621],[-122.896894839885,46.9962525233574],[-122.896885840285,47.0017495232427],[-122.896181840511,47.0017575234007],[-122.895618840124,47.0017565238128],[-122.894491839893,47.0017585240827],[-122.894352840787,47.0016615232873],[-122.893896840177,47.0014925236365],[-122.893351839966,47.0012905238338],[-122.891546839677,47.0008755240636],[-122.891549839801,47.0011435235859],[-122.891558839895,47.0018355236617],[-122.891396840149,47.0020255241766],[-122.891253839476,47.0021375238687],[-122.89126783981,47.0021995239201],[-122.891182840117,47.0023345243308],[-122.891181840294,47.0023345243729],[-122.891568839939,47.0025545239301],[-122.891570839611,47.0026545236158],[-122.891592841006,47.0035365243224],[-122.89159384046,47.0037245243126],[-122.891597841308,47.0047395240902],[-122.891600840466,47.0054255244624],[-122.89052284099,47.0054275242564],[-122.88887684089,47.0054255243855],[-122.888687840523,47.005414524803],[-122.888690839938,47.006293524303],[-122.888692841557,47.0077705245017],[-122.888700841079,47.0080025248457],[-122.888703840896,47.0092755249665],[-122.888712841889,47.0093635247834],[-122.887659840772,47.0093695248767],[-122.887242841198,47.0093725244315],[-122.887191840908,47.009372524876],[-122.887123841489,47.0093695248826],[-122.887129842044,47.0108335253363],[-122.88721384178,47.0108335246997],[-122.887207841335,47.0111725252035],[-122.887227841947,47.0129995247789],[-122.887163842298,47.0147235250383],[-122.887156842952,47.0148015252459],[-122.886723842336,47.0148025251148],[-122.88621084185,47.0147945252308],[-122.886225842863,47.0158475248495],[-122.886223842922,47.0162285256736],[-122.884537842148,47.0162335253717],[-122.884536842386,47.0165815255528],[-122.886161842417,47.0165865255682],[-122.886708842122,47.0165885249437],[-122.887291842563,47.0165905250828],[-122.887785842342,47.016591525206],[-122.887832843417,47.0165925254437],[-122.888669843067,47.0165945254195],[-122.888774842732,47.0165955251198],[-122.888770843445,47.0169765253977],[-122.888921842989,47.0169835251441],[-122.888925843752,47.0174605249617],[-122.888928843814,47.0177045250444],[-122.8889298431,47.0177895252254],[-122.888931843873,47.0179515247346],[-122.888933843353,47.0181165247879],[-122.888933842781,47.0181535255753],[-122.888935843397,47.0183575252183],[-122.888936843859,47.0184785253553],[-122.888957844373,47.0204925252871],[-122.88888884437,47.020461525104],[-122.888890844338,47.020856524885],[-122.88889184398,47.0208755251828],[-122.888556843703,47.0208795250633],[-122.88837884402,47.0208795250311],[-122.888386844044,47.0214195252104],[-122.888388843486,47.0214825253422],[-122.888391844074,47.0218105252701],[-122.888474843667,47.021810524986],[-122.888482844428,47.0232345256035],[-122.887300844599,47.0232365253327],[-122.886325843827,47.0232205253701],[-122.886104844143,47.0232215258417],[-122.884580843975,47.023227526012],[-122.883105843217,47.023237526032],[-122.881945842983,47.0232475263631],[-122.880790843831,47.0232465265854],[-122.878536843124,47.0232485265072],[-122.876972842755,47.0232485266244],[-122.87671584266,47.0232495267234],[-122.87670384217,47.0234685266293],[-122.876709842507,47.0236035265202],[-122.876808842492,47.0238225271208],[-122.876834842575,47.0239945265824],[-122.876841843181,47.024165526301],[-122.87676084323,47.0243645263458],[-122.876765843395,47.0244585270127],[-122.876768842609,47.0245355270585],[-122.876794842908,47.0247075264912],[-122.876896842718,47.0250005265112],[-122.876911842932,47.0253435267149],[-122.876865842571,47.0255165269054],[-122.876762842624,47.0256295272527],[-122.876603843818,47.0256935271326],[-122.876444843784,47.0258095271388],[-122.876377843587,47.0258585271432],[-122.876261842967,47.026081526567],[-122.876270843368,47.0262785265269],[-122.876349842654,47.0264485266463],[-122.876483843296,47.026629526651],[-122.876763842865,47.0268575270564],[-122.876782843859,47.0268815264443],[-122.87689684313,47.027026527215],[-122.876909843718,47.0273215270888],[-122.876884844173,47.0279855268785],[-122.87686784434,47.0288205270046],[-122.876915844431,47.0294535271624],[-122.876679844007,47.0294485274304],[-122.875701843852,47.0294265268601],[-122.875238843397,47.0294155275087],[-122.874657844161,47.0294035272318],[-122.873744844168,47.0293825277644],[-122.873160843074,47.0293695269868],[-122.873117844023,47.029383527076],[-122.873052843071,47.0293905272504],[-122.87236984307,47.0293535270747],[-122.872017843131,47.0293215272744],[-122.871809842656,47.0292835275153],[-122.871570843192,47.0292455276954],[-122.871459842761,47.0292225275101],[-122.870838843338,47.0290895280026],[-122.870689843262,47.029068527748],[-122.870548842395,47.0290485274321],[-122.869766842984,47.0290415278391],[-122.868335842147,47.0290275282096],[-122.867171843067,47.0290195276107],[-122.866208842832,47.0290115284657],[-122.865548842807,47.0290105278143],[-122.865127842583,47.0290045284395],[-122.865131842577,47.0281145281005],[-122.865130841434,47.0276095278625],[-122.865129840981,47.0267005278941],[-122.865136841317,47.0262275281494],[-122.865140840817,47.0254255276506],[-122.863352841257,47.025408528357],[-122.863352840559,47.0253605286471],[-122.857352840478,47.0253005286476],[-122.853581838917,47.0252565295317],[-122.849491838192,47.0252085297156],[-122.849494838947,47.0255525294422],[-122.849496838908,47.0257345293893],[-122.849504839773,47.0265055301259],[-122.849513838904,47.02734452943],[-122.849538839389,47.029588530342],[-122.849485839665,47.0295875303007],[-122.84950783952,47.0303625296392],[-122.84951183953,47.030510530361],[-122.849567840932,47.0324955298226],[-122.846915839603,47.0324695305962]]]},"properties":{"OBJECTID":3,"NewDirecto":3,"Shape__Area":137366720.2868042,"Shape__Length":66886.3914448491}},{"type":"Feature","id":4,"geometry":{"type":"Polygon","coordinates":[[[-122.916199868345,47.1067755268312],[-122.916614863081,47.0864895253881],[-122.91672186283,47.0860085252205],[-122.916751863265,47.0852685258778],[-122.916660862496,47.0842845257402],[-122.916507863305,47.0831025250951],[-122.916309862805,47.0818735254661],[-122.91586686168,47.0801645255345],[-122.91505786117,47.0775635253975],[-122.912157859093,47.0693465251974],[-122.912037858552,47.0689105250563],[-122.909955857041,47.0613515254259],[-122.909594856031,47.0600385254871],[-122.909539855843,47.0594615251099],[-122.909396855613,47.0579705251254],[-122.909373855416,47.0537815248708],[-122.909359853634,47.0512135245988],[-122.909324852864,47.044325523968],[-122.909986853172,47.0442795238664],[-122.910632853257,47.0442345238939],[-122.911032853353,47.0442065239275],[-122.911463852858,47.0442055236565],[-122.911816853229,47.0442235239791],[-122.912051853086,47.0442275237688],[-122.912370852944,47.0442335238532],[-122.913340853218,47.0442495242764],[-122.914516852856,47.0442685235345],[-122.914791852948,47.0442755233991],[-122.915685853493,47.04428652342],[-122.915999853122,47.0442975239882],[-122.916816853274,47.0443055236453],[-122.917200853367,47.0443225232685],[-122.917957854172,47.0443275232969],[-122.919098853522,47.0443465228821],[-122.919606854087,47.0443665236167],[-122.92025485424,47.0443655231513],[-122.920807853832,47.0443905233521],[-122.920837854148,47.0435065233406],[-122.920867854113,47.0426355232983],[-122.920898854195,47.0417505225779],[-122.920923853412,47.040879522556],[-122.921966853618,47.0409015228609],[-122.922667854308,47.0409175225446],[-122.923802853927,47.040934522108],[-122.923776853863,47.0426835230589],[-122.924931854031,47.0426925222787],[-122.924893854523,47.0434765223575],[-122.924847854896,47.044440522215],[-122.925401855277,47.0444495227265],[-122.925947854912,47.0444585223443],[-122.925920855,47.0451835224089],[-122.925889855713,47.046060522549],[-122.925846856189,47.0473225225694],[-122.925815855392,47.0480995223844],[-122.925798855625,47.0485755229709],[-122.925783856411,47.0489125224389],[-122.925750855811,47.049846522421],[-122.925727857035,47.0503715232301],[-122.925709856701,47.0507665227652],[-122.92568985617,47.0512065228495],[-122.925675857162,47.0515745233048],[-122.927360857571,47.0515815230221],[-122.93200485816,47.0515995221956],[-122.933339858597,47.051594521905],[-122.933684858171,47.0515935221565],[-122.933787858301,47.051593521918],[-122.934212857813,47.051592522189],[-122.93524485827,47.0515825221289],[-122.938046858125,47.0515515214119],[-122.93925185857,47.051537521636],[-122.941168859709,47.0515165213855],[-122.941225860013,47.0527895211524],[-122.941221859186,47.0536935210498],[-122.941217860326,47.0544065212111],[-122.941212859784,47.0552655218245],[-122.941202860542,47.0572505216815],[-122.94120586103,47.0574065218494],[-122.941539861244,47.0574075212939],[-122.942191860644,47.0574085212871],[-122.942973860643,47.05741352137],[-122.944558860505,47.0574105212317],[-122.946864861771,47.057411520763],[-122.94815686192,47.0574125208146],[-122.952396862216,47.0574405206786],[-122.953785862166,47.0574465203145],[-122.959833864185,47.0574715195559],[-122.960327863142,47.0574475194104],[-122.960333863402,47.0589655192139],[-122.960337863507,47.0597815195877],[-122.960345863643,47.0600705196368],[-122.96034086415,47.060146519755],[-122.960344864594,47.0602175193204],[-122.960323863759,47.0603925193934],[-122.960165864383,47.0610925194947],[-122.959875864644,47.062274519328],[-122.95976486485,47.0626485201151],[-122.959687864599,47.0628735200058],[-122.959567865177,47.0631275196048],[-122.9594348651,47.06330851988],[-122.959279864876,47.06348652028],[-122.958642864269,47.0641565200979],[-122.95828386555,47.0645595199534],[-122.95819686524,47.0646865202923],[-122.958159864925,47.0647555204033],[-122.958093864664,47.0649505201339],[-122.958053865572,47.065219520109],[-122.95804586493,47.0652865200659],[-122.957937864671,47.0661695201524],[-122.957822865982,47.0672945198763],[-122.957817865323,47.0673915199567],[-122.957766866049,47.0676465205248],[-122.957717865256,47.0678535199429],[-122.957629865693,47.0681205204063],[-122.957588866174,47.0682215207107],[-122.957559865478,47.0682915201116],[-122.957475865539,47.068462519974],[-122.957380865374,47.0686275206753],[-122.95727486584,47.0687925205836],[-122.957094865938,47.0690205200294],[-122.957057865923,47.069061520097],[-122.956847865362,47.069295520839],[-122.956280865525,47.0698845209515],[-122.95589886579,47.0702805203034],[-122.955885865465,47.0702965206059],[-122.955860866399,47.0703275207076],[-122.955830865303,47.0703745209974],[-122.955811865289,47.070417520744],[-122.955795865803,47.0704735208366],[-122.955789866526,47.070550520805],[-122.955797866194,47.0706495209449],[-122.95584186591,47.0707855202504],[-122.955907866048,47.0708875206001],[-122.956002866404,47.0709915209395],[-122.956107866001,47.0710965206895],[-122.956227866431,47.0712055210307],[-122.956266866176,47.0712715203825],[-122.956363866814,47.0715245209526],[-122.95639586594,47.0716935205546],[-122.956403865916,47.0718955204239],[-122.956413866386,47.072041520183],[-122.956532867151,47.0730255202409],[-122.956612866642,47.0733155208172],[-122.956726866618,47.0735755210822],[-122.956991867491,47.0739975207866],[-122.957253867049,47.0743325210166],[-122.957468867785,47.0745515205661],[-122.957730867285,47.0747595210199],[-122.958075867569,47.074949520245],[-122.958541867615,47.0751495202523],[-122.95913386753,47.0753415204587],[-122.959558867019,47.0754315207614],[-122.960000868366,47.0755045200198],[-122.960549868217,47.0755395207066],[-122.961765868231,47.075571520101],[-122.963312868872,47.0756205203483],[-122.964278868547,47.0756395201268],[-122.967714868404,47.0756435199163],[-122.967861869558,47.0756425197946],[-122.968430869571,47.0756385197798],[-122.968754869329,47.0756395190653],[-122.969020869261,47.0756665195615],[-122.969269869436,47.0757145189933],[-122.970574869701,47.076113519342],[-122.970568869648,47.0764865188854],[-122.970560869192,47.0769905195663],[-122.970528869443,47.0779525190607],[-122.970524870219,47.0780895191055],[-122.970509870545,47.0785515192285],[-122.970439870191,47.0796515194513],[-122.970433870478,47.0797255198231],[-122.970425870313,47.0806305196473],[-122.970419871342,47.0813225193863],[-122.970425870518,47.0822615194661],[-122.970419870724,47.0831795201397],[-122.97041487135,47.0839145199984],[-122.970487871113,47.0848445201722],[-122.970519870961,47.0849345198585],[-122.970548871288,47.0849685199321],[-122.970582872055,47.0849915195397],[-122.970632872232,47.085016519392],[-122.970745872246,47.0850345198613],[-122.970924871796,47.0850475193281],[-122.971267871362,47.0850625193917],[-122.971521871823,47.0850685196363],[-122.972142871524,47.0850655195475],[-122.972267872484,47.0850555194227],[-122.972340872115,47.0850395193526],[-122.972474871417,47.0850025192531],[-122.972620872533,47.0849475195686],[-122.972796872078,47.0848575191773],[-122.972857871496,47.0848365198899],[-122.972924871659,47.0848265194753],[-122.972990871681,47.0848235198536],[-122.973032872324,47.0848285195238],[-122.973031871745,47.0849235193939],[-122.973353872557,47.0849245191915],[-122.973735872357,47.0849265192854],[-122.9741938722,47.0849305198217],[-122.974193872195,47.0852785192224],[-122.974195872294,47.0859975192336],[-122.974263873013,47.0859175198498],[-122.974439872531,47.0858155192497],[-122.974427871842,47.0859195190178],[-122.974383872089,47.0860915192576],[-122.974393872202,47.0863535191521],[-122.974369872058,47.0865445196276],[-122.974393872263,47.0866785192242],[-122.974475872208,47.086782519233],[-122.974594872163,47.0869045196388],[-122.974706872807,47.0869425192897],[-122.974893872963,47.0868915194955],[-122.975060873009,47.0867765189264],[-122.975169872154,47.0867235189729],[-122.976831874443,47.0905735194685],[-122.973611873553,47.0922205201576],[-122.969244873952,47.0944545206272],[-122.963445872759,47.0976515209206],[-122.95967687275,47.0998865215213],[-122.956655872961,47.1017405218742],[-122.956390872922,47.1019375221302],[-122.954824872895,47.1031065223164],[-122.95334487342,47.1042205225684],[-122.952154873385,47.1054405230798],[-122.951223873439,47.1066765230537],[-122.950811874121,47.1073945233873],[-122.95053687353,47.1077985231572],[-122.950277873616,47.1085765227886],[-122.950246873849,47.1091485236624],[-122.950277874635,47.1097665233152],[-122.950429874392,47.1104305236631],[-122.950933874581,47.1115905234531],[-122.952016875146,47.1132615232174],[-122.953268875928,47.1152375235037],[-122.953832876684,47.116274523606],[-122.954244876797,47.1169535236279],[-122.954488877113,47.1175865234903],[-122.954595876937,47.1181895230103],[-122.954778876897,47.1188385230167],[-122.954793877393,47.1193645236333],[-122.95474887671,47.120447523134],[-122.954473878495,47.1245225236673],[-122.95355787884,47.1252315238548],[-122.953023878538,47.1265365241239],[-122.951848879294,47.1285355243801],[-122.950475879279,47.1303895242689],[-122.948720878955,47.13258652472],[-122.948634879288,47.1326975246905],[-122.947393880024,47.1342955244627],[-122.946111879689,47.1357295247903],[-122.944799879743,47.1369355251504],[-122.943960879325,47.1376825253307],[-122.943258879975,47.1383845256198],[-122.93802488054,47.1425965259356],[-122.934825880207,47.1449625269921],[-122.92545688014,47.1518915280409],[-122.921788879572,47.1546045283103],[-122.910790880955,47.1642315304397],[-122.909854881029,47.1650495301899],[-122.909915880829,47.1649035301977],[-122.91010088115,47.1644685300334],[-122.910162881125,47.1643235304377],[-122.910220880858,47.1641875308074],[-122.910556879922,47.1632105307367],[-122.910846880793,47.1622575304306],[-122.910853880248,47.1620795306522],[-122.910907879837,47.1608685297827],[-122.911014879673,47.1596475297538],[-122.910938880101,47.1591675298645],[-122.910694879431,47.1587625302308],[-122.909229878856,47.1573895300537],[-122.908252879133,47.1566645302231],[-122.907858878747,47.1564605301407],[-122.906833878035,47.1559325307414],[-122.905673877813,47.1556195305014],[-122.907001877246,47.1541315300684],[-122.908664877987,47.1520945302494],[-122.910175876884,47.149912529261],[-122.913135876248,47.1442665293627],[-122.913814876256,47.1422135290135],[-122.913867876556,47.1420545285254],[-122.914539875203,47.1398345285876],[-122.915058874695,47.1382855285179],[-122.915347874489,47.1369655283615],[-122.915576874306,47.1354165280459],[-122.91572987465,47.1339065279228],[-122.9157298736,47.1316705282939],[-122.915607872962,47.1289475277061],[-122.915164871672,47.1251325278319],[-122.915836872137,47.1245605276417],[-122.916086869274,47.1123155269483],[-122.916199868345,47.1067755268312]]]},"properties":{"OBJECTID":4,"NewDirecto":4,"Shape__Area":389272389.9187012,"Shape__Length":116284.7061886991}},{"type":"Feature","id":5,"geometry":{"type":"Polygon","coordinates":[[[-122.976831874443,47.0905735194685],[-122.975169872154,47.0867235189729],[-122.975060873009,47.0867765189264],[-122.974893872963,47.0868915194955],[-122.974706872807,47.0869425192897],[-122.974594872163,47.0869045196388],[-122.974475872208,47.086782519233],[-122.974393872263,47.0866785192242],[-122.974369872058,47.0865445196276],[-122.974393872202,47.0863535191521],[-122.974383872089,47.0860915192576],[-122.974427871842,47.0859195190178],[-122.974439872531,47.0858155192497],[-122.974263873013,47.0859175198498],[-122.974195872294,47.0859975192336],[-122.974193872195,47.0852785192224],[-122.9741938722,47.0849305198217],[-122.973735872357,47.0849265192854],[-122.973353872557,47.0849245191915],[-122.973031871745,47.0849235193939],[-122.973032872324,47.0848285195238],[-122.972990871681,47.0848235198536],[-122.972924871659,47.0848265194753],[-122.972857871496,47.0848365198899],[-122.972796872078,47.0848575191773],[-122.972620872533,47.0849475195686],[-122.972474871417,47.0850025192531],[-122.972340872115,47.0850395193526],[-122.972267872484,47.0850555194227],[-122.972142871524,47.0850655195475],[-122.971521871823,47.0850685196363],[-122.971267871362,47.0850625193917],[-122.970924871796,47.0850475193281],[-122.970745872246,47.0850345198613],[-122.970632872232,47.085016519392],[-122.970582872055,47.0849915195397],[-122.970548871288,47.0849685199321],[-122.970519870961,47.0849345198585],[-122.970487871113,47.0848445201722],[-122.97041487135,47.0839145199984],[-122.970419870724,47.0831795201397],[-122.970425870518,47.0822615194661],[-122.970419871342,47.0813225193863],[-122.970425870313,47.0806305196473],[-122.970433870478,47.0797255198231],[-122.970439870191,47.0796515194513],[-122.970509870545,47.0785515192285],[-122.970524870219,47.0780895191055],[-122.970528869443,47.0779525190607],[-122.970560869192,47.0769905195663],[-122.970568869648,47.0764865188854],[-122.970574869701,47.076113519342],[-122.969269869436,47.0757145189933],[-122.969020869261,47.0756665195615],[-122.968754869329,47.0756395190653],[-122.968430869571,47.0756385197798],[-122.967861869558,47.0756425197946],[-122.967714868404,47.0756435199163],[-122.964278868547,47.0756395201268],[-122.963312868872,47.0756205203483],[-122.961765868231,47.075571520101],[-122.960549868217,47.0755395207066],[-122.960000868366,47.0755045200198],[-122.959558867019,47.0754315207614],[-122.95913386753,47.0753415204587],[-122.958541867615,47.0751495202523],[-122.958075867569,47.074949520245],[-122.957730867285,47.0747595210199],[-122.957468867785,47.0745515205661],[-122.957253867049,47.0743325210166],[-122.956991867491,47.0739975207866],[-122.956726866618,47.0735755210822],[-122.956612866642,47.0733155208172],[-122.956532867151,47.0730255202409],[-122.956413866386,47.072041520183],[-122.956403865916,47.0718955204239],[-122.95639586594,47.0716935205546],[-122.956363866814,47.0715245209526],[-122.956266866176,47.0712715203825],[-122.956227866431,47.0712055210307],[-122.956107866001,47.0710965206895],[-122.956002866404,47.0709915209395],[-122.955907866048,47.0708875206001],[-122.95584186591,47.0707855202504],[-122.955797866194,47.0706495209449],[-122.955789866526,47.070550520805],[-122.955795865803,47.0704735208366],[-122.955811865289,47.070417520744],[-122.955830865303,47.0703745209974],[-122.955860866399,47.0703275207076],[-122.955885865465,47.0702965206059],[-122.95589886579,47.0702805203034],[-122.956280865525,47.0698845209515],[-122.956847865362,47.069295520839],[-122.957057865923,47.069061520097],[-122.957094865938,47.0690205200294],[-122.95727486584,47.0687925205836],[-122.957380865374,47.0686275206753],[-122.957475865539,47.068462519974],[-122.957559865478,47.0682915201116],[-122.957588866174,47.0682215207107],[-122.957629865693,47.0681205204063],[-122.957717865256,47.0678535199429],[-122.957766866049,47.0676465205248],[-122.957817865323,47.0673915199567],[-122.957822865982,47.0672945198763],[-122.957937864671,47.0661695201524],[-122.95804586493,47.0652865200659],[-122.958053865572,47.065219520109],[-122.958093864664,47.0649505201339],[-122.958159864925,47.0647555204033],[-122.95819686524,47.0646865202923],[-122.95828386555,47.0645595199534],[-122.958642864269,47.0641565200979],[-122.959279864876,47.06348652028],[-122.9594348651,47.06330851988],[-122.959567865177,47.0631275196048],[-122.959687864599,47.0628735200058],[-122.95976486485,47.0626485201151],[-122.959875864644,47.062274519328],[-122.960165864383,47.0610925194947],[-122.960323863759,47.0603925193934],[-122.960344864594,47.0602175193204],[-122.96034086415,47.060146519755],[-122.960345863643,47.0600705196368],[-122.960337863507,47.0597815195877],[-122.960333863402,47.0589655192139],[-122.960327863142,47.0574475194104],[-122.959833864185,47.0574715195559],[-122.953785862166,47.0574465203145],[-122.952396862216,47.0574405206786],[-122.94815686192,47.0574125208146],[-122.946864861771,47.057411520763],[-122.944558860505,47.0574105212317],[-122.942973860643,47.05741352137],[-122.942191860644,47.0574085212871],[-122.941539861244,47.0574075212939],[-122.94120586103,47.0574065218494],[-122.941202860542,47.0572505216815],[-122.941212859784,47.0552655218245],[-122.941217860326,47.0544065212111],[-122.941221859186,47.0536935210498],[-122.941225860013,47.0527895211524],[-122.941168859709,47.0515165213855],[-122.93925185857,47.051537521636],[-122.938046858125,47.0515515214119],[-122.93524485827,47.0515825221289],[-122.934212857813,47.051592522189],[-122.933787858301,47.051593521918],[-122.933684858171,47.0515935221565],[-122.933339858597,47.051594521905],[-122.93200485816,47.0515995221956],[-122.927360857571,47.0515815230221],[-122.925675857162,47.0515745233048],[-122.92568985617,47.0512065228495],[-122.925709856701,47.0507665227652],[-122.925727857035,47.0503715232301],[-122.925750855811,47.049846522421],[-122.925783856411,47.0489125224389],[-122.925798855625,47.0485755229709],[-122.925815855392,47.0480995223844],[-122.925846856189,47.0473225225694],[-122.925889855713,47.046060522549],[-122.925920855,47.0451835224089],[-122.925947854912,47.0444585223443],[-122.925401855277,47.0444495227265],[-122.924847854896,47.044440522215],[-122.924893854523,47.0434765223575],[-122.924931854031,47.0426925222787],[-122.923776853863,47.0426835230589],[-122.923802853927,47.040934522108],[-122.922667854308,47.0409175225446],[-122.922701853497,47.0398545224556],[-122.92329685375,47.0398615225393],[-122.923296854089,47.0389345223936],[-122.923296853036,47.0384205228042],[-122.923309852998,47.0380275228161],[-122.923312853306,47.0379605225743],[-122.923340852795,47.0370895227982],[-122.923371853187,47.0361735225816],[-122.923401852091,47.0352575224154],[-122.923429852195,47.0344375221573],[-122.92343785203,47.0341915222534],[-122.923445851266,47.0315555218603],[-122.923438851777,47.0314845223684],[-122.923306851841,47.0314845223526],[-122.923304851926,47.0293605216735],[-122.923667851459,47.0291255215358],[-122.924617850963,47.0288655216596],[-122.925302851923,47.0287045221339],[-122.925836851167,47.0285925214399],[-122.925481851106,47.0283725212679],[-122.925418852031,47.0283335214585],[-122.924872850788,47.0280215213565],[-122.924751851015,47.0279625217977],[-122.924171851345,47.0276395218381],[-122.92412685056,47.0276075219912],[-122.923556850374,47.0272745215002],[-122.923339850962,47.0270985219677],[-122.923265850425,47.026998521607],[-122.923220850609,47.0269385219068],[-122.923096850202,47.02666452194],[-122.92307184999,47.0263685222192],[-122.923058850311,47.0259175220085],[-122.92305484977,47.025663521665],[-122.923054850168,47.0254085219441],[-122.923053850733,47.0253435215565],[-122.92312984998,47.0253445219336],[-122.924882850248,47.025347521554],[-122.926254850468,47.0253445213278],[-122.926468850292,47.0253635216385],[-122.92864985165,47.0253875211635],[-122.928792851567,47.0253825212194],[-122.932752851998,47.0253665209432],[-122.934334852569,47.0253605204224],[-122.936028851959,47.025353520014],[-122.936460852233,47.0253525199333],[-122.937448852658,47.0253485202974],[-122.9392238529,47.0253415202303],[-122.941072853693,47.0253335194249],[-122.941556853704,47.0253315200465],[-122.942857853738,47.0253255200328],[-122.9441648537,47.0253205193581],[-122.945101853869,47.0253165190465],[-122.945257853698,47.0253155195779],[-122.946794853448,47.0253095193705],[-122.95030585507,47.0252885188041],[-122.95295585536,47.0253245181741],[-122.960446856407,47.0253315179107],[-122.960592855924,47.0253355179808],[-122.961827856161,47.0253285171878],[-122.970512857623,47.0253005170339],[-122.971155858042,47.0252985165979],[-122.971124856008,47.0195975165099],[-122.97112085584,47.0187015165357],[-122.971118855737,47.0180695164476],[-122.976409856894,47.0180235156183],[-122.981534857447,47.0179785147438],[-122.981698857194,47.0179785146467],[-122.98700585844,47.0179295147989],[-122.99122285941,47.0178945144808],[-122.991747859188,47.0178915143074],[-122.991742857898,47.0142535140283],[-122.987285858411,47.0143035143525],[-122.986990857244,47.0143075142124],[-122.986984857126,47.0106855143666],[-122.99129885791,47.0106105138237],[-122.99173185766,47.0106085139501],[-122.99174285673,47.0085355137452],[-122.991750856762,47.0070205137539],[-122.99533085745,47.0070115130163],[-123.002453858824,47.007114512049],[-123.002453858358,47.0084135126123],[-123.002453859351,47.0090265128056],[-123.002453858576,47.0093675124579],[-123.004315859017,47.0094135125188],[-123.007794859335,47.0095025122245],[-123.007814860779,47.0108645121358],[-123.008842860778,47.0108865115733],[-123.013177861706,47.0109825114092],[-123.016992861145,47.0109675106749],[-123.023444862617,47.0109445100371],[-123.034439864138,47.0105435092644],[-123.044434865803,47.0100765080611],[-123.054900866991,47.0096135064381],[-123.066470869042,47.0100645057577],[-123.073121869764,47.0103445046147],[-123.076676870682,47.0104575044444],[-123.082273871989,47.0102755036914],[-123.096516873674,47.0097995023445],[-123.103358874497,47.0095725010598],[-123.116371876142,47.0091415002216],[-123.116421876067,47.0091614997051],[-123.119109876513,47.0092264995116],[-123.12350587819,47.0093324995998],[-123.136955880429,47.0096564978792],[-123.137009880179,47.0082814979448],[-123.137097879526,47.0060154979994],[-123.137133879631,47.0050944973302],[-123.137178878255,47.0039674971924],[-123.137217878237,47.0029534974923],[-123.137477877153,46.9963144972123],[-123.137485876449,46.9954834972359],[-123.138352876429,46.9954884969155],[-123.14736687847,46.9956504962505],[-123.153250879348,46.9957414951841],[-123.15388087914,46.9957564951411],[-123.155984879837,46.995811494632],[-123.158451880067,46.9958734946315],[-123.158453880424,46.9962424947027],[-123.159747880372,46.9963504944576],[-123.162153881054,46.9965634940744],[-123.166155881087,46.9969164944074],[-123.167731881918,46.997061493569],[-123.169899882247,46.9970624937663],[-123.187708885402,46.9970284915917],[-123.189537884993,46.9970184916534],[-123.201260887069,46.996943490295],[-123.201257886894,46.9973364904293],[-123.201241887397,46.9998234903112],[-123.201222887389,47.0009314901939],[-123.201073889768,47.0104694910443],[-123.201072889666,47.0104694910765],[-123.200768889836,47.0117614914636],[-123.200055890989,47.0147974908631],[-123.200068891825,47.0156434915006],[-123.200115892212,47.0172804916435],[-123.199601893157,47.025159491943],[-123.200701895752,47.0346114919639],[-123.200720895998,47.0347784921263],[-123.201220897379,47.0391514921424],[-123.201202896558,47.0398604924686],[-123.200949898769,47.0498594934132],[-123.200922900077,47.0509244930081],[-123.200904899936,47.0516054933707],[-123.200902900162,47.0517004926441],[-123.20086389987,47.0533954927969],[-123.200906900811,47.0547254935612],[-123.200911900682,47.0553334935181],[-123.200971900767,47.0566274937156],[-123.200987900425,47.056983492929],[-123.20102090053,47.0578004937968],[-123.201029901284,47.0580154934038],[-123.201147901417,47.0609024934774],[-123.201346903644,47.0661424938637],[-123.201422904156,47.0681074937849],[-123.195673902341,47.068045494315],[-123.190528901941,47.0679874948319],[-123.185357900863,47.0680394956526],[-123.18018790087,47.0680924960627],[-123.175294899813,47.0682454969033],[-123.168072898787,47.0684504973851],[-123.158949897608,47.0687154985282],[-123.138245893276,47.0683815008951],[-123.137832893505,47.0683695009859],[-123.137797893082,47.067727500553],[-123.137614892643,47.0644585007424],[-123.137470892011,47.0617345008098],[-123.137404892191,47.0605475002299],[-123.137317892045,47.059275500008],[-123.137188891773,47.0574015005675],[-123.137127891377,47.0565225006802],[-123.136904889784,47.0533004997285],[-123.126649889328,47.0543775013602],[-123.121614888558,47.0555145017547],[-123.121592888052,47.0554345019804],[-123.121358887714,47.0554945015284],[-123.121190888612,47.0555405020897],[-123.121009887628,47.0555905023845],[-123.120021887911,47.0558645020874],[-123.119900888597,47.0558985022672],[-123.119689887988,47.0559505020341],[-123.119476887561,47.0560045017191],[-123.119262887378,47.0560785021135],[-123.119135887694,47.0561275020193],[-123.119000888422,47.0561865020184],[-123.118665888338,47.0563465025387],[-123.118398888494,47.0564865023823],[-123.118220887875,47.0565795019454],[-123.117922888267,47.0567405020206],[-123.117773888249,47.0568225021388],[-123.11728188745,47.0570995027479],[-123.116529887317,47.0564455025142],[-123.094823883126,47.053277504666],[-123.094800883109,47.0532755045549],[-123.094759883107,47.0531805047367],[-123.09362288308,47.053039504472],[-123.093433883841,47.053065504572],[-123.09337388361,47.0531215047545],[-123.093340883143,47.0531655052589],[-123.09321188367,47.0534475050352],[-123.093175883996,47.0535115052072],[-123.093130883708,47.0535745052155],[-123.09307788283,47.0536335052361],[-123.092894884042,47.0538145050955],[-123.092768883855,47.0539365049594],[-123.091982882998,47.0533745051986],[-123.09126388233,47.0528625048095],[-123.090860883194,47.0531175054008],[-123.090424883162,47.0536625048685],[-123.089657882247,47.0533745052224],[-123.089739883132,47.0532275051931],[-123.089775882784,47.0531535049304],[-123.08981688254,47.0530185055995],[-123.084626881558,47.0531325058838],[-123.082968881979,47.0531575060385],[-123.075646880363,47.0532495069299],[-123.075103880456,47.0532595069136],[-123.074680881085,47.0532645069683],[-123.074582880662,47.0532625070359],[-123.07459188062,47.0531055067124],[-123.074763879499,47.0499605069607],[-123.074958878744,47.0462795061256],[-123.074970879439,47.0461775062223],[-123.074993879103,47.0459395064793],[-123.075065879312,47.0452405067055],[-123.075095878991,47.0449605060734],[-123.075531877673,47.0407025062166],[-123.075557877846,47.0404565059049],[-123.075592877099,47.040119506037],[-123.075345877024,47.0400485064187],[-123.075174877312,47.0400065061699],[-123.075002877645,47.0399725059364],[-123.074738877797,47.0399325065704],[-123.074558877264,47.0399185058279],[-123.074286877688,47.0399125065337],[-123.074097877755,47.0399145061001],[-123.073803876636,47.0399335065154],[-123.073444877326,47.0399675064896],[-123.071246877417,47.0401815063028],[-123.070832876616,47.0402425066378],[-123.070580876522,47.0402865070561],[-123.070390877305,47.040333506609],[-123.069653877022,47.0405845066257],[-123.069535876123,47.0406165063422],[-123.069407876618,47.0406375070205],[-123.069342876675,47.0406425065151],[-123.069140876796,47.0406385070351],[-123.068710876704,47.0406185071592],[-123.068653876349,47.0406235072171],[-123.068555876984,47.0406525070798],[-123.068518876178,47.0406755070263],[-123.06849487661,47.0407035069514],[-123.068481876053,47.0407325066897],[-123.068458876855,47.0408065067478],[-123.068438876066,47.0409245066693],[-123.067228876317,47.0408745068529],[-123.060862875383,47.0405855076318],[-123.060489875817,47.040572508135],[-123.060118875604,47.0405655076773],[-123.059748874929,47.0405735080872],[-123.059383875657,47.0405945079994],[-123.059022874625,47.0406325078536],[-123.058668874421,47.0406845078681],[-123.058321874789,47.0407505081066],[-123.057982874691,47.0408295081373],[-123.057654874626,47.0409255078332],[-123.057336874899,47.0410345081057],[-123.057032875133,47.0411565085682],[-123.056740875149,47.0412895078931],[-123.056462874893,47.0414335086433],[-123.056196874267,47.0415885084407],[-123.05594187523,47.0417535079463],[-123.055791874843,47.0418645086962],[-123.055701875069,47.0419305085336],[-123.055473874409,47.0421175084752],[-123.055036875306,47.0425075088006],[-123.054872875271,47.0426575088369],[-123.054870874675,47.0432065084005],[-123.054757875209,47.0464655090661],[-123.054134876941,47.0535775087206],[-123.053809877651,47.053577509375],[-123.048397877036,47.0536465096213],[-123.043636875799,47.0537015104345],[-123.033554874383,47.0534815109112],[-123.031279873558,47.0535345113959],[-123.031063873261,47.0535345117234],[-123.030288873094,47.0535415113527],[-123.029674873437,47.0535575120633],[-123.028271873581,47.0535775119987],[-123.025380872862,47.053621511905],[-123.022987871865,47.0536565128441],[-123.021663872702,47.0537135124259],[-123.021142872245,47.0537325128176],[-123.019723871473,47.0537635125914],[-123.017730872059,47.0538645126751],[-123.012478871045,47.0540705135707],[-123.01248887111,47.0532705133358],[-123.01249986992,47.0514405131145],[-123.012544869368,47.048742513732],[-123.012547869085,47.0484835129188],[-123.012568868943,47.046899513161],[-123.012000869654,47.0469005133742],[-123.006138868552,47.0469095135299],[-123.004875868588,47.0469155142523],[-123.003673868382,47.0469225145712],[-123.002179867688,47.0469135143822],[-123.002198868374,47.0497755146224],[-123.002207868091,47.0508505146395],[-123.002111868646,47.0511355143776],[-123.002210868446,47.0511765144905],[-123.002216869108,47.0517085142092],[-123.002216868515,47.0518725146043],[-123.001937868221,47.0520515146285],[-123.001659868422,47.0521755143557],[-123.001482869419,47.0522855144813],[-123.001344868955,47.0523705143826],[-123.001217869048,47.052496514862],[-122.999716868843,47.053368514769],[-122.998974869053,47.0543285148244],[-122.999030869118,47.0558325151586],[-123.001114869499,47.0578715146221],[-123.0012698701,47.0580325154771],[-123.001269870148,47.0582155154909],[-123.002675870298,47.0586225151296],[-123.004753871468,47.0591505144288],[-123.006994871288,47.060030514304],[-123.009012872771,47.0614495145375],[-123.010327872271,47.0631895141305],[-123.011337872968,47.0655335140494],[-123.011290873998,47.0683115140567],[-123.010529874031,47.0710105151614],[-123.009755874591,47.0733565147136],[-123.008922874768,47.0747305152548],[-123.007761874702,47.0761775154435],[-123.006247875818,47.0772565153521],[-123.004170875854,47.0781985153419],[-123.002609874733,47.0787705163153],[-123.001629874844,47.0793665160919],[-123.001270874468,47.0783415163708],[-122.996789875141,47.0805215167031],[-122.995455874348,47.0811695167917],[-122.990546874414,47.0835595171707],[-122.985206874643,47.0862905181363],[-122.976831874443,47.0905735194685]]]},"properties":{"OBJECTID":5,"NewDirecto":5,"Shape__Area":1285253778.6032715,"Shape__Length":240298.30859661754}}]}