{"type":"FeatureCollection","name":"tl_2025_44_scsd","crs":{"type":"name","properties":{"name":"urn:ogc:def:crs:OGC:1.3:CRS84"}},"features":[{"type":"Feature","properties":{"STATEFP":"44","SCSDLEA":"00420","GEOID":"4400420","GEOIDFQ":"9600000US4400420","NAME":"Foster-Glocester Regional School District","LSAD":"00","LOGRADE":"06","HIGRADE":"12","MTFCC":"G5410","SDTYP":"","FUNCSTAT":"E","ALAND":271909707,"AWATER":9749832,"INTPTLAT":"+41.8448142","INTPTLON":"-071.7138377"},"geometry":{"type":"Polygon","coordinates":[[[-71.797778,41.928645],[-71.797676,41.928646],[-71.797234,41.928655],[-71.796301,41.928677],[-71.791074,41.928789],[-71.788924,41.928812],[-71.787094,41.928875],[-71.785992,41.928899],[-71.784632,41.928924],[-71.781247,41.928994],[-71.770738,41.929215],[-71.770378,41.929222],[-71.768074,41.929264],[-71.76705,41.929279],[-71.766732,41.929296],[-71.766447,41.929295],[-71.765304,41.929327],[-71.765187,41.92933],[-71.762631,41.929382],[-71.758398,41.929469],[-71.754312,41.929552],[-71.750958,41.929613],[-71.742934,41.929745],[-71.741905,41.929752],[-71.736149,41.929893],[-71.728548,41.930079],[-71.728426,41.93008],[-71.725744,41.930181],[-71.722423,41.930304],[-71.721038,41.930356],[-71.717893,41.930472],[-71.717817,41.930605],[-71.714492,41.930699],[-71.709238,41.930725],[-71.707942,41.930734],[-71.707337,41.930749],[-71.700481,41.930923],[-71.698001,41.930986],[-71.691531,41.931096],[-71.689924,41.931147],[-71.685021,41.931306],[-71.681841,41.931407],[-71.681182,41.931428],[-71.678472,41.931516],[-71.677423,41.93155],[-71.67626,41.93159],[-71.675709,41.931609],[-71.67473,41.931634],[-71.672438,41.931674],[-71.669466,41.931722],[-71.66668,41.931771],[-71.662664,41.931858],[-71.655144,41.932033],[-71.653265,41.93208],[-71.652838,41.932092],[-71.651586,41.932123],[-71.65105,41.932136],[-71.650775,41.932143],[-71.64799,41.932213],[-71.640931,41.932398],[-71.63973,41.932429],[-71.639715,41.932429],[-71.637348,41.932421],[-71.633437,41.932407],[-71.632458,41.932404],[-71.631873,41.932402],[-71.629387,41.932381],[-71.627577,41.932439],[-71.626123,41.932486],[-71.624375,41.932543],[-71.624437,41.932647],[-71.623867,41.932868],[-71.621663,41.933023],[-71.621809,41.932626],[-71.621559,41.932635],[-71.616851,41.932784],[-71.613563,41.932897],[-71.608526,41.933067],[-71.603364,41.93324],[-71.60297,41.933251],[-71.60235,41.933272],[-71.601648,41.933295],[-71.592788,41.933585],[-71.590312,41.933665],[-71.589067,41.92798],[-71.588347,41.924607],[-71.588303,41.924382],[-71.587812,41.922053],[-71.587696,41.92149],[-71.587561,41.920839],[-71.58726,41.919379],[-71.587105,41.918629],[-71.586729,41.916773],[-71.586327,41.914811],[-71.586244,41.914405],[-71.585821,41.912326],[-71.58519,41.909189],[-71.584837,41.907475],[-71.584366,41.905237],[-71.584229,41.904634],[-71.584027,41.903753],[-71.583905,41.90322],[-71.583633,41.902032],[-71.5832,41.89996],[-71.583101,41.899482],[-71.582895,41.898745],[-71.582724,41.898128],[-71.582593,41.897664],[-71.582479,41.897186],[-71.581891,41.894665],[-71.581842,41.894372],[-71.581731,41.893702],[-71.58169,41.89346],[-71.581087,41.889837],[-71.580355,41.886845],[-71.580299,41.886618],[-71.580286,41.886554],[-71.579908,41.88472],[-71.579389,41.881812],[-71.579348,41.881617],[-71.579254,41.881155],[-71.578828,41.879032],[-71.578229,41.876007],[-71.57809,41.875294],[-71.57805,41.875088],[-71.578037,41.875021],[-71.577934,41.874494],[-71.577707,41.873321],[-71.577469,41.872104],[-71.577418,41.871876],[-71.577255,41.871106],[-71.577121,41.870476],[-71.576523,41.867768],[-71.576154,41.865987],[-71.576058,41.865523],[-71.575752,41.864055],[-71.575653,41.863573],[-71.575625,41.863442],[-71.575523,41.862957],[-71.575077,41.860829],[-71.574642,41.858748],[-71.575144,41.858734],[-71.577772,41.858653],[-71.578454,41.858635],[-71.57906,41.85862],[-71.58341,41.858503],[-71.584632,41.858465],[-71.590012,41.858307],[-71.591853,41.858253],[-71.597599,41.858143],[-71.60194,41.858059],[-71.604491,41.858007],[-71.604992,41.857999],[-71.605259,41.857991],[-71.609414,41.857871],[-71.61075,41.857832],[-71.611174,41.85782],[-71.613133,41.857766],[-71.61416,41.857737],[-71.621412,41.857537],[-71.623147,41.857519],[-71.623186,41.857518],[-71.623563,41.857515],[-71.623613,41.857514],[-71.62466,41.857503],[-71.625777,41.857491],[-71.625955,41.85749],[-71.628334,41.857458],[-71.631734,41.857413],[-71.638753,41.857293],[-71.640467,41.857264],[-71.64596,41.857136],[-71.648798,41.857077],[-71.649029,41.857069],[-71.649831,41.857052],[-71.649973,41.85705],[-71.650725,41.857038],[-71.658733,41.856873],[-71.65938,41.856871],[-71.664332,41.856876],[-71.67003,41.856802],[-71.670326,41.856796],[-71.671927,41.856761],[-71.673427,41.856727],[-71.674644,41.8567],[-71.676808,41.85665],[-71.678781,41.856624],[-71.680817,41.856595],[-71.688073,41.856496],[-71.689252,41.856479],[-71.689758,41.856471],[-71.69101,41.856457],[-71.690992,41.856309],[-71.690336,41.852278],[-71.690294,41.852025],[-71.690017,41.850318],[-71.689875,41.849546],[-71.689797,41.849061],[-71.689708,41.848501],[-71.689621,41.847961],[-71.689573,41.84769],[-71.689076,41.844879],[-71.688924,41.844309],[-71.688705,41.843365],[-71.688183,41.84032],[-71.686527,41.830716],[-71.686452,41.83029],[-71.686315,41.829417],[-71.686268,41.829142],[-71.685942,41.827745],[-71.685806,41.826982],[-71.68563,41.82616],[-71.685578,41.825658],[-71.6855,41.82538],[-71.685479,41.825304],[-71.685311,41.823617],[-71.68482,41.820906],[-71.683376,41.812924],[-71.682663,41.808949],[-71.68111,41.80064],[-71.681002,41.799989],[-71.680138,41.795155],[-71.680137,41.795062],[-71.679978,41.793858],[-71.679969,41.793837],[-71.679916,41.793566],[-71.679749,41.792596],[-71.679542,41.791391],[-71.679504,41.791203],[-71.678209,41.783565],[-71.678029,41.782552],[-71.677531,41.779903],[-71.677397,41.779146],[-71.677296,41.778405],[-71.677106,41.777581],[-71.677002,41.777009],[-71.676912,41.776385],[-71.676866,41.776176],[-71.676788,41.775816],[-71.676725,41.775407],[-71.67668,41.775114],[-71.676499,41.774033],[-71.676197,41.77221],[-71.675898,41.770386],[-71.675894,41.770362],[-71.67363,41.757648],[-71.673698,41.757542],[-71.673752,41.757412],[-71.673782,41.757267],[-71.673767,41.757019],[-71.673729,41.75676],[-71.67347,41.755795],[-71.673456,41.755673],[-71.673424,41.755394],[-71.673355,41.754955],[-71.673347,41.754897],[-71.673225,41.753967],[-71.673065,41.7528],[-71.672951,41.752022],[-71.672562,41.749969],[-71.672523,41.749805],[-71.672302,41.748741],[-71.672218,41.748302],[-71.672211,41.748177],[-71.672195,41.74791],[-71.672195,41.747761],[-71.670663,41.73987],[-71.670544,41.739252],[-71.670135,41.73698],[-71.669574,41.73386],[-71.668434,41.72747],[-71.669494,41.727374],[-71.6717,41.727331],[-71.671956,41.727326],[-71.672553,41.727315],[-71.673904,41.727291],[-71.6782,41.727198],[-71.679701,41.727164],[-71.68138,41.72713],[-71.684064,41.727068],[-71.684517,41.727057],[-71.686674,41.727008],[-71.696528,41.726781],[-71.698209,41.726742],[-71.700584,41.726694],[-71.700933,41.726687],[-71.703594,41.726634],[-71.704842,41.726608],[-71.712749,41.726466],[-71.713105,41.726459],[-71.715887,41.726409],[-71.719007,41.726348],[-71.719499,41.726338],[-71.71959,41.726337],[-71.720034,41.726328],[-71.720111,41.726326],[-71.720257,41.726323],[-71.720368,41.726321],[-71.735023,41.726033],[-71.739508,41.72597],[-71.74076,41.725941],[-71.745964,41.725863],[-71.752389,41.725773],[-71.752846,41.725766],[-71.752988,41.725764],[-71.753098,41.725765],[-71.753127,41.725762],[-71.754402,41.725744],[-71.754572,41.725741],[-71.754649,41.72574],[-71.754698,41.72574],[-71.757764,41.725697],[-71.757864,41.725696],[-71.759306,41.725674],[-71.760908,41.725652],[-71.761192,41.725648],[-71.768377,41.725549],[-71.76844,41.725545],[-71.77447,41.725449],[-71.774906,41.725443],[-71.785969,41.72526],[-71.789562,41.7252],[-71.789669,41.725199],[-71.789704,41.725198],[-71.789709,41.726692],[-71.789711,41.727254],[-71.789729,41.727463],[-71.789768,41.731556],[-71.789861,41.734428],[-71.789871,41.734739],[-71.789902,41.735714],[-71.790016,41.738876],[-71.790055,41.739784],[-71.790071,41.74016],[-71.790094,41.740632],[-71.79009,41.740934],[-71.790089,41.740991],[-71.790103,41.742935],[-71.790195,41.744409],[-71.790314,41.747552],[-71.790323,41.747792],[-71.790327,41.747883],[-71.790554,41.750117],[-71.790633,41.75333],[-71.790647,41.753866],[-71.791066,41.77018],[-71.791066,41.770202],[-71.791254,41.774497],[-71.79137,41.777296],[-71.791372,41.777328],[-71.791477,41.779397],[-71.791573,41.781284],[-71.791921,41.789136],[-71.791927,41.78931],[-71.79194,41.789614],[-71.791936,41.789768],[-71.791911,41.790484],[-71.791919,41.790715],[-71.792006,41.793239],[-71.792058,41.794592],[-71.79207,41.794904],[-71.792076,41.79506],[-71.792079,41.795076],[-71.792124,41.795398],[-71.792135,41.795624],[-71.79236,41.799988],[-71.792364,41.800053],[-71.792593,41.804016],[-71.792804,41.809208],[-71.7928,41.809293],[-71.792855,41.81065],[-71.792867,41.810982],[-71.792894,41.812521],[-71.793127,41.814603],[-71.793114,41.814658],[-71.793097,41.814729],[-71.793101,41.814882],[-71.793143,41.816349],[-71.793144,41.816382],[-71.79316,41.817157],[-71.793161,41.817169],[-71.793265,41.82064],[-71.793284,41.821257],[-71.793296,41.821381],[-71.793302,41.821567],[-71.793315,41.821771],[-71.79331,41.8218],[-71.793343,41.822942],[-71.79344,41.825637],[-71.793478,41.82647],[-71.793532,41.827586],[-71.793615,41.829196],[-71.793689,41.830686],[-71.79379,41.832702],[-71.793796,41.832834],[-71.794077,41.83935],[-71.794117,41.839895],[-71.794134,41.840008],[-71.794121,41.840635],[-71.794115,41.840966],[-71.794121,41.841103],[-71.794173,41.841416],[-71.794177,41.841566],[-71.794179,41.841639],[-71.794229,41.842826],[-71.794237,41.843033],[-71.794463,41.848882],[-71.794471,41.849088],[-71.794474,41.849159],[-71.794477,41.849231],[-71.79448,41.849298],[-71.794524,41.850428],[-71.79468,41.854409],[-71.794906,41.858805],[-71.794911,41.85891],[-71.794914,41.858966],[-71.794933,41.859334],[-71.794941,41.859475],[-71.794966,41.859972],[-71.795286,41.865713],[-71.795287,41.865748],[-71.795289,41.865771],[-71.795316,41.86632],[-71.795323,41.866465],[-71.795353,41.867074],[-71.795356,41.867126],[-71.795404,41.868109],[-71.795408,41.868192],[-71.795428,41.868618],[-71.795744,41.875097],[-71.795863,41.877688],[-71.795956,41.880622],[-71.796191,41.886142],[-71.796434,41.89172],[-71.79652,41.895252],[-71.796522,41.895288],[-71.796563,41.896967],[-71.796555,41.897066],[-71.796566,41.89714],[-71.796573,41.897195],[-71.796683,41.899377],[-71.796695,41.899822],[-71.796698,41.899921],[-71.796711,41.900416],[-71.796756,41.901955],[-71.796828,41.904446],[-71.7969,41.906897],[-71.797024,41.910127],[-71.797105,41.912206],[-71.797105,41.912231],[-71.797112,41.912418],[-71.797261,41.916232],[-71.797262,41.916247],[-71.797265,41.91633],[-71.797268,41.916404],[-71.797299,41.916891],[-71.7973,41.916915],[-71.797355,41.917445],[-71.797462,41.920742],[-71.797547,41.923378],[-71.797725,41.927414],[-71.797726,41.927446],[-71.797732,41.927592],[-71.797774,41.928553],[-71.797778,41.928645]]]}}]}