{"type":"FeatureCollection","name":"tl_2025_44_elsd","crs":{"type":"name","properties":{"name":"urn:ogc:def:crs:OGC:1.3:CRS84"}},"features":[{"type":"Feature","properties":{"STATEFP":"44","ELSDLEA":"00360","GEOID":"4400360","GEOIDFQ":"9500000US4400360","NAME":"Exeter-West Greenwich Regional School District","LSAD":"00","LOGRADE":"PK","HIGRADE":"12","MTFCC":"G5400","SDTYP":"","FUNCSTAT":"E","ALAND":279073862,"AWATER":5009716,"INTPTLAT":"+41.5951584","INTPTLON":"-071.6528374"},"geometry":{"type":"Polygon","coordinates":[[[-71.791391,41.546376],[-71.79139,41.546392],[-71.791318,41.548232],[-71.791294,41.548851],[-71.791276,41.549322],[-71.791221,41.550737],[-71.791204,41.551209],[-71.791199,41.551331],[-71.791192,41.551537],[-71.791186,41.551699],[-71.791182,41.551822],[-71.791173,41.552061],[-71.791146,41.552781],[-71.791138,41.553021],[-71.791129,41.55326],[-71.791118,41.553574],[-71.791104,41.553979],[-71.791096,41.554219],[-71.791083,41.55461],[-71.791045,41.555785],[-71.791033,41.556177],[-71.79102,41.557231],[-71.790983,41.560396],[-71.790972,41.561451],[-71.790978,41.561551],[-71.790956,41.561843],[-71.790936,41.562],[-71.790884,41.562416],[-71.790813,41.563371],[-71.790798,41.563649],[-71.790777,41.564073],[-71.790783,41.5642],[-71.79076,41.564571],[-71.790693,41.565686],[-71.790672,41.566058],[-71.790677,41.566104],[-71.790682,41.566149],[-71.790691,41.566242],[-71.790696,41.566289],[-71.790656,41.567004],[-71.790537,41.569151],[-71.790498,41.569867],[-71.790495,41.569918],[-71.79049,41.570067],[-71.790472,41.57067],[-71.790467,41.570872],[-71.79046,41.571069],[-71.790452,41.571352],[-71.790442,41.57166],[-71.790437,41.571832],[-71.790436,41.571858],[-71.790434,41.571883],[-71.790432,41.57196],[-71.790432,41.571986],[-71.790431,41.572002],[-71.79043,41.572052],[-71.79043,41.572069],[-71.790428,41.572105],[-71.790396,41.572861],[-71.790391,41.572976],[-71.790364,41.573616],[-71.7903,41.575112],[-71.790274,41.5757],[-71.790235,41.576608],[-71.790227,41.576788],[-71.790219,41.576969],[-71.790187,41.5777],[-71.790121,41.579227],[-71.790043,41.580978],[-71.79,41.581952],[-71.789995,41.582071],[-71.789992,41.582122],[-71.789986,41.582279],[-71.789984,41.582331],[-71.789975,41.582507],[-71.789952,41.583036],[-71.789944,41.583213],[-71.789937,41.583366],[-71.789919,41.583771],[-71.789905,41.584093],[-71.789879,41.584685],[-71.789867,41.584965],[-71.789845,41.585445],[-71.789821,41.586004],[-71.789788,41.586748],[-71.789708,41.588557],[-71.789706,41.588594],[-71.789688,41.588982],[-71.789656,41.589727],[-71.789635,41.590203],[-71.789602,41.590996],[-71.789575,41.591634],[-71.789555,41.592111],[-71.789536,41.592554],[-71.789501,41.593403],[-71.78948,41.593884],[-71.789462,41.594328],[-71.789424,41.594832],[-71.789417,41.594926],[-71.789291,41.596343],[-71.789247,41.596847],[-71.789206,41.598181],[-71.789084,41.602186],[-71.789044,41.603521],[-71.788994,41.604832],[-71.788902,41.607316],[-71.788856,41.60766],[-71.788853,41.607713],[-71.788803,41.608763],[-71.788776,41.609352],[-71.788761,41.609665],[-71.788742,41.610075],[-71.788723,41.610471],[-71.788669,41.61162],[-71.788666,41.61166],[-71.788647,41.612057],[-71.788554,41.613848],[-71.788376,41.617283],[-71.788291,41.619224],[-71.788216,41.620976],[-71.788213,41.621017],[-71.788195,41.621651],[-71.788144,41.623554],[-71.788127,41.624189],[-71.788108,41.62486],[-71.788036,41.627497],[-71.788002,41.628719],[-71.787997,41.628915],[-71.787993,41.629059],[-71.78799,41.629135],[-71.787988,41.629212],[-71.787986,41.629279],[-71.787984,41.629347],[-71.787956,41.630367],[-71.787922,41.631616],[-71.787873,41.633429],[-71.787864,41.633775],[-71.787846,41.63445],[-71.787843,41.63458],[-71.787834,41.634819],[-71.787798,41.63583],[-71.787795,41.635926],[-71.787783,41.636296],[-71.787777,41.636456],[-71.78776,41.636937],[-71.787755,41.637098],[-71.787748,41.637267],[-71.787731,41.637776],[-71.787726,41.637946],[-71.787712,41.63834],[-71.787671,41.639523],[-71.787658,41.639918],[-71.787656,41.639989],[-71.787651,41.640202],[-71.787651,41.640219],[-71.787649,41.640274],[-71.787642,41.640548],[-71.787638,41.64071],[-71.787621,41.64137],[-71.787614,41.641644],[-71.787601,41.642158],[-71.787561,41.643701],[-71.787549,41.644216],[-71.787541,41.644518],[-71.787488,41.646585],[-71.787307,41.653695],[-71.787247,41.656065],[-71.787239,41.656111],[-71.78051,41.65629],[-71.775787,41.656419],[-71.769653,41.656567],[-71.765305,41.656663],[-71.758949,41.65687],[-71.746543,41.657143],[-71.745858,41.657194],[-71.744158,41.657252],[-71.740357,41.657369],[-71.740124,41.657397],[-71.739624,41.657352],[-71.735619,41.657437],[-71.735324,41.657469],[-71.728788,41.65764],[-71.727881,41.657676],[-71.726768,41.657688],[-71.725854,41.657707],[-71.725468,41.657693],[-71.725359,41.657718],[-71.724984,41.657728],[-71.724407,41.657734],[-71.721074,41.657842],[-71.720295,41.657856],[-71.720105,41.657864],[-71.71986,41.657872],[-71.710821,41.658141],[-71.707097,41.658224],[-71.70365,41.658301],[-71.703539,41.658304],[-71.70283,41.65832],[-71.702144,41.658335],[-71.701641,41.658346],[-71.694939,41.658424],[-71.691019,41.658514],[-71.684921,41.658556],[-71.67881,41.65864],[-71.67379,41.658613],[-71.673515,41.658638],[-71.673279,41.65863],[-71.673012,41.658672],[-71.667094,41.658707],[-71.666069,41.658738],[-71.666039,41.658721],[-71.666008,41.658708],[-71.66597,41.6587],[-71.665939,41.658692],[-71.665909,41.658693],[-71.665871,41.658689],[-71.665428,41.658708],[-71.664795,41.658723],[-71.662941,41.658793],[-71.662453,41.658809],[-71.662255,41.658817],[-71.661959,41.658828],[-71.661614,41.658842],[-71.661035,41.65885],[-71.66008,41.658864],[-71.659386,41.658884],[-71.658195,41.658898],[-71.657677,41.658901],[-71.657081,41.658911],[-71.656502,41.658942],[-71.655937,41.658969],[-71.6549,41.658993],[-71.653869,41.659012],[-71.653412,41.659018],[-71.653221,41.659018],[-71.652847,41.659022],[-71.65229,41.659044],[-71.651619,41.659059],[-71.651573,41.659056],[-71.650933,41.659066],[-71.649605,41.659115],[-71.649539,41.659118],[-71.649097,41.659138],[-71.648216,41.659178],[-71.648151,41.659181],[-71.64708,41.659223],[-71.646498,41.659223],[-71.646286,41.659223],[-71.645676,41.65925],[-71.645202,41.65927],[-71.64463,41.659292],[-71.64309,41.659328],[-71.642921,41.659332],[-71.642258,41.65937],[-71.642052,41.659379],[-71.641781,41.659387],[-71.64148,41.659396],[-71.640838,41.65942],[-71.640343,41.659436],[-71.639984,41.659449],[-71.63974,41.659445],[-71.639481,41.65946],[-71.639436,41.659461],[-71.639008,41.659471],[-71.638542,41.659486],[-71.637512,41.659497],[-71.637032,41.659503],[-71.636316,41.65952],[-71.635933,41.659528],[-71.635536,41.659533],[-71.634926,41.659551],[-71.633141,41.659592],[-71.632324,41.659607],[-71.631653,41.659622],[-71.631104,41.659639],[-71.630486,41.659649],[-71.629914,41.659666],[-71.629509,41.659667],[-71.629478,41.659667],[-71.62912,41.659684],[-71.62884,41.659685],[-71.628673,41.659657],[-71.628475,41.659621],[-71.62831,41.659593],[-71.62823,41.659579],[-71.622871,41.659683],[-71.622371,41.659688],[-71.621918,41.659695],[-71.617456,41.659778],[-71.610888,41.659976],[-71.606857,41.660081],[-71.602958,41.660191],[-71.597647,41.66032],[-71.592955,41.660434],[-71.589768,41.660515],[-71.589488,41.660524],[-71.587679,41.66061],[-71.585579,41.660713],[-71.583326,41.660822],[-71.582756,41.66083],[-71.582443,41.660834],[-71.582372,41.660835],[-71.582166,41.660838],[-71.580672,41.660862],[-71.577828,41.661054],[-71.577319,41.661088],[-71.5773,41.66109],[-71.576019,41.661146],[-71.573852,41.661215],[-71.573771,41.66124],[-71.573646,41.661244],[-71.573267,41.661256],[-71.572951,41.661266],[-71.572671,41.661275],[-71.572563,41.661278],[-71.571794,41.661302],[-71.571535,41.661307],[-71.571505,41.661226],[-71.567596,41.661301],[-71.567594,41.661405],[-71.566002,41.661462],[-71.560783,41.661549],[-71.558914,41.661589],[-71.558845,41.661591],[-71.558438,41.661599],[-71.557907,41.661616],[-71.556978,41.661634],[-71.556243,41.66164],[-71.556038,41.66164],[-71.555465,41.661645],[-71.554876,41.661663],[-71.554496,41.661675],[-71.55392,41.661694],[-71.553731,41.661699],[-71.551348,41.661751],[-71.551109,41.661757],[-71.549829,41.661787],[-71.54974,41.661787],[-71.54945,41.661804],[-71.549389,41.661804],[-71.547113,41.661851],[-71.547102,41.661493],[-71.547052,41.660545],[-71.547045,41.660396],[-71.547051,41.660189],[-71.547048,41.659967],[-71.547041,41.659386],[-71.547039,41.659243],[-71.547033,41.658738],[-71.547027,41.658449],[-71.547015,41.657431],[-71.546961,41.655751],[-71.546895,41.654537],[-71.546809,41.653007],[-71.54678,41.65239],[-71.546764,41.651909],[-71.546678,41.649676],[-71.546648,41.648868],[-71.546578,41.646453],[-71.546625,41.646283],[-71.546654,41.646177],[-71.546638,41.646006],[-71.546661,41.645686],[-71.546669,41.645407],[-71.546662,41.645128],[-71.546646,41.644831],[-71.546639,41.644475],[-71.546623,41.644102],[-71.5466,41.643738],[-71.54658,41.643544],[-71.546442,41.642326],[-71.546417,41.642085],[-71.546409,41.641842],[-71.546395,41.641739],[-71.546371,41.641446],[-71.546363,41.641279],[-71.546364,41.641136],[-71.546374,41.640993],[-71.546385,41.640835],[-71.54641,41.640702],[-71.546433,41.640477],[-71.54641,41.639977],[-71.54641,41.639685],[-71.546379,41.639311],[-71.546356,41.639154],[-71.546344,41.639063],[-71.546347,41.638656],[-71.546349,41.638343],[-71.546351,41.638135],[-71.546348,41.637671],[-71.546288,41.637132],[-71.546309,41.636854],[-71.546324,41.636644],[-71.546339,41.636446],[-71.546306,41.635854],[-71.54628,41.635396],[-71.54627,41.635214],[-71.546262,41.634264],[-71.54626,41.633845],[-71.546257,41.633334],[-71.546258,41.633218],[-71.546259,41.632973],[-71.546259,41.632804],[-71.546257,41.632119],[-71.546233,41.631632],[-71.546187,41.630524],[-71.546199,41.629595],[-71.546195,41.62932],[-71.546164,41.627975],[-71.546144,41.627262],[-71.546127,41.626661],[-71.546122,41.626548],[-71.546092,41.625761],[-71.546053,41.625168],[-71.546019,41.624844],[-71.545979,41.624476],[-71.545965,41.624349],[-71.545957,41.624239],[-71.545931,41.62404],[-71.545927,41.623974],[-71.545883,41.623212],[-71.545813,41.622],[-71.545802,41.621766],[-71.545785,41.621466],[-71.545567,41.617446],[-71.545447,41.614921],[-71.545432,41.614559],[-71.545403,41.613939],[-71.54537,41.613245],[-71.545368,41.61318],[-71.54532,41.612169],[-71.545201,41.609467],[-71.544807,41.601993],[-71.543884,41.602016],[-71.543793,41.602018],[-71.533326,41.602276],[-71.53328,41.602277],[-71.53138,41.602323],[-71.529266,41.602376],[-71.528305,41.602406],[-71.52793,41.602418],[-71.52277,41.60255],[-71.522429,41.602566],[-71.521988,41.601118],[-71.521977,41.601083],[-71.521904,41.600842],[-71.521796,41.600616],[-71.521602,41.600247],[-71.521355,41.599733],[-71.521232,41.59951],[-71.521216,41.599479],[-71.520366,41.597839],[-71.520048,41.597253],[-71.519909,41.59698],[-71.519572,41.59632],[-71.519294,41.595792],[-71.519032,41.595257],[-71.518568,41.594346],[-71.518433,41.59404],[-71.51812,41.592208],[-71.518122,41.588066],[-71.518122,41.586506],[-71.518015,41.581416],[-71.518013,41.581333],[-71.517995,41.580507],[-71.517972,41.579425],[-71.517966,41.579135],[-71.517926,41.577265],[-71.518059,41.575981],[-71.518183,41.575589],[-71.518298,41.573911],[-71.518548,41.570238],[-71.518602,41.569445],[-71.51886,41.564684],[-71.519134,41.559644],[-71.519161,41.558415],[-71.519159,41.557914],[-71.51918,41.556332],[-71.519493,41.544415],[-71.519527,41.538687],[-71.519529,41.537139],[-71.519537,41.535674],[-71.519548,41.533492],[-71.519565,41.530318],[-71.519566,41.529925],[-71.519337,41.529498],[-71.519029,41.528925],[-71.51882,41.528525],[-71.518721,41.528299],[-71.518439,41.527656],[-71.518425,41.527626],[-71.518298,41.527348],[-71.518268,41.527281],[-71.518135,41.526989],[-71.518127,41.526955],[-71.518028,41.526699],[-71.517838,41.526291],[-71.517555,41.525715],[-71.517036,41.524574],[-71.51683,41.52417],[-71.516319,41.523233],[-71.515895,41.522421],[-71.515806,41.522266],[-71.515707,41.521974],[-71.515596,41.521647],[-71.515497,41.521332],[-71.515462,41.521192],[-71.515439,41.521116],[-71.515398,41.521028],[-71.515293,41.520876],[-71.515097,41.520664],[-71.514665,41.52025],[-71.514457,41.519816],[-71.514364,41.519539],[-71.514265,41.519288],[-71.513892,41.518542],[-71.513817,41.518383],[-71.513782,41.518275],[-71.513483,41.517674],[-71.512551,41.515797],[-71.512407,41.515507],[-71.512225,41.515315],[-71.511932,41.514488],[-71.511748,41.513766],[-71.511549,41.51324],[-71.510593,41.510264],[-71.510565,41.510183],[-71.510519,41.510119],[-71.510475,41.510017],[-71.510422,41.509869],[-71.51033,41.509567],[-71.510277,41.509361],[-71.510155,41.508984],[-71.510048,41.508572],[-71.509933,41.508087],[-71.509911,41.508018],[-71.509666,41.507053],[-71.509491,41.506393],[-71.509186,41.505283],[-71.509056,41.504772],[-71.508911,41.504169],[-71.508797,41.503761],[-71.508774,41.5037],[-71.508523,41.502673],[-71.507886,41.50006],[-71.510114,41.500444],[-71.51213,41.500812],[-71.512328,41.500849],[-71.512801,41.500941],[-71.513495,41.501063],[-71.514335,41.501227],[-71.514896,41.501341],[-71.51535,41.501463],[-71.5158,41.501551],[-71.515975,41.501578],[-71.516309,41.501633],[-71.516897,41.50174],[-71.517408,41.501801],[-71.517797,41.501831],[-71.518011,41.501858],[-71.518582,41.501945],[-71.518812,41.50198],[-71.519506,41.502121],[-71.520238,41.502243],[-71.521337,41.502407],[-71.522061,41.502494],[-71.522506,41.502547],[-71.523254,41.502643],[-71.524093,41.502757],[-71.525413,41.502967],[-71.525955,41.50307],[-71.526413,41.503119],[-71.526848,41.503135],[-71.527137,41.50318],[-71.527214,41.503201],[-71.527679,41.503307],[-71.527789,41.503359],[-71.528171,41.503432],[-71.529442,41.503674],[-71.529634,41.503676],[-71.529793,41.503688],[-71.530086,41.503721],[-71.53033,41.503738],[-71.530461,41.503747],[-71.530528,41.503752],[-71.533654,41.504537],[-71.535954,41.505147],[-71.545034,41.507481],[-71.55702,41.510562],[-71.557099,41.510582],[-71.557964,41.510809],[-71.558243,41.510885],[-71.558922,41.511066],[-71.560058,41.511359],[-71.569122,41.513738],[-71.569939,41.513952],[-71.571309,41.514298],[-71.576385,41.515565],[-71.576748,41.515654],[-71.578657,41.516132],[-71.579988,41.516464],[-71.586982,41.518213],[-71.59051,41.519288],[-71.592394,41.519892],[-71.594252,41.520352],[-71.597275,41.52113],[-71.597723,41.521305],[-71.598276,41.521432],[-71.603376,41.522706],[-71.604211,41.52292],[-71.605076,41.523108],[-71.605082,41.523116],[-71.605139,41.523121],[-71.610926,41.524503],[-71.611305,41.524579],[-71.611927,41.5247],[-71.612629,41.524837],[-71.613042,41.525121],[-71.613049,41.525154],[-71.613076,41.525288],[-71.613198,41.525893],[-71.613434,41.52698],[-71.613628,41.52806],[-71.613843,41.529169],[-71.614036,41.530199],[-71.614193,41.530998],[-71.614404,41.532019],[-71.614776,41.533926],[-71.614876,41.534426],[-71.615131,41.535491],[-71.615423,41.536885],[-71.615623,41.538115],[-71.615662,41.538351],[-71.615929,41.539805],[-71.616006,41.540119],[-71.61612,41.540427],[-71.616152,41.540546],[-71.616173,41.540668],[-71.616194,41.540902],[-71.616204,41.541073],[-71.616201,41.541325],[-71.616208,41.541488],[-71.616227,41.541617],[-71.616253,41.541702],[-71.616327,41.541867],[-71.61637,41.541949],[-71.616388,41.541993],[-71.616397,41.542043],[-71.616413,41.542274],[-71.616423,41.542332],[-71.61647,41.542474],[-71.616714,41.543682],[-71.616761,41.543865],[-71.616938,41.544695],[-71.617152,41.54585],[-71.617166,41.545922],[-71.617307,41.546674],[-71.617373,41.547188],[-71.617401,41.547307],[-71.617424,41.547404],[-71.618068,41.550475],[-71.618477,41.552423],[-71.618595,41.552964],[-71.618804,41.554739],[-71.618982,41.555625],[-71.620543,41.563361],[-71.620715,41.564234],[-71.62074,41.564341],[-71.62868,41.563588],[-71.633695,41.562975],[-71.637098,41.562582],[-71.642474,41.561972],[-71.643974,41.56176],[-71.644898,41.56168],[-71.646448,41.561485],[-71.64699,41.561427],[-71.647063,41.56142],[-71.650297,41.5611],[-71.650406,41.561079],[-71.652246,41.560851],[-71.652672,41.560798],[-71.65398,41.560632],[-71.656311,41.560386],[-71.657419,41.560275],[-71.660508,41.559954],[-71.66143,41.559854],[-71.663254,41.559685],[-71.663399,41.559669],[-71.663616,41.559646],[-71.666156,41.559375],[-71.666842,41.559289],[-71.667046,41.559269],[-71.667289,41.559239],[-71.667763,41.559189],[-71.667839,41.55917],[-71.668234,41.559127],[-71.66868,41.55908],[-71.670995,41.558814],[-71.6785,41.557968],[-71.682997,41.55752],[-71.684288,41.557373],[-71.685739,41.557181],[-71.687506,41.556993],[-71.691675,41.55659],[-71.692395,41.556523],[-71.694362,41.556341],[-71.695056,41.556278],[-71.696609,41.556131],[-71.697271,41.556068],[-71.697706,41.556025],[-71.698626,41.555935],[-71.700376,41.555777],[-71.701134,41.5557],[-71.705862,41.555247],[-71.710683,41.554696],[-71.715018,41.554203],[-71.717705,41.553903],[-71.718136,41.553856],[-71.718263,41.553841],[-71.719357,41.55372],[-71.719982,41.553652],[-71.725601,41.553045],[-71.72864,41.552718],[-71.729799,41.552616],[-71.729985,41.552597],[-71.732046,41.552394],[-71.735354,41.552056],[-71.736303,41.551957],[-71.738385,41.551757],[-71.744267,41.551144],[-71.74782,41.551136],[-71.75111,41.551128],[-71.751208,41.551122],[-71.758416,41.550133],[-71.764161,41.549298],[-71.771333,41.548392],[-71.77807,41.547492],[-71.7782,41.547472],[-71.782154,41.546883],[-71.784539,41.546698],[-71.784895,41.54667],[-71.790744,41.546151],[-71.791402,41.546092],[-71.791391,41.546376]]]}},{"type":"Feature","properties":{"STATEFP":"44","ELSDLEA":"00390","GEOID":"4400390","GEOIDFQ":"9500000US4400390","NAME":"Foster Elementary School District","LSAD":"00","LOGRADE":"PK","HIGRADE":"05","MTFCC":"G5400","SDTYP":"","FUNCSTAT":"E","ALAND":131446006,"AWATER":2835602,"INTPTLAT":"+41.7887835","INTPTLON":"-071.7349343"},"geometry":{"type":"Polygon","coordinates":[[[-71.79468,41.854409],[-71.794496,41.854411],[-71.787391,41.854513],[-71.771376,41.854783],[-71.769958,41.854806],[-71.768763,41.854827],[-71.765988,41.854874],[-71.764137,41.854918],[-71.761118,41.85499],[-71.758215,41.855093],[-71.751348,41.85526],[-71.749488,41.855244],[-71.747668,41.855279],[-71.747483,41.855236],[-71.7472,41.855255],[-71.74659,41.855274],[-71.745811,41.85532],[-71.745458,41.855338],[-71.744484,41.855389],[-71.744026,41.855404],[-71.741852,41.855503],[-71.741066,41.855549],[-71.740379,41.855579],[-71.739138,41.85564],[-71.739059,41.855644],[-71.738701,41.855671],[-71.738327,41.855682],[-71.737663,41.855721],[-71.736755,41.855759],[-71.736053,41.855797],[-71.734276,41.855885],[-71.733284,41.855904],[-71.732079,41.855949],[-71.731957,41.855951],[-71.731778,41.855953],[-71.730888,41.855965],[-71.729805,41.855972],[-71.728706,41.855972],[-71.728048,41.855946],[-71.727859,41.855938],[-71.727097,41.85598],[-71.726859,41.855985],[-71.726242,41.855999],[-71.726209,41.855999],[-71.725227,41.855999],[-71.724907,41.855984],[-71.724602,41.855949],[-71.724457,41.855923],[-71.72435,41.855892],[-71.720155,41.855949],[-71.719948,41.855951],[-71.717467,41.855985],[-71.716949,41.855993],[-71.714587,41.856024],[-71.709682,41.85614],[-71.704486,41.856258],[-71.703254,41.856291],[-71.702133,41.856331],[-71.699826,41.856357],[-71.69723,41.856386],[-71.692219,41.856441],[-71.69101,41.856457],[-71.690992,41.856309],[-71.690336,41.852278],[-71.690294,41.852025],[-71.690017,41.850318],[-71.689875,41.849546],[-71.689797,41.849061],[-71.689708,41.848501],[-71.689621,41.847961],[-71.689573,41.84769],[-71.689076,41.844879],[-71.688924,41.844309],[-71.688705,41.843365],[-71.688183,41.84032],[-71.686527,41.830716],[-71.686452,41.83029],[-71.686315,41.829417],[-71.686268,41.829142],[-71.685942,41.827745],[-71.685806,41.826982],[-71.68563,41.82616],[-71.685578,41.825658],[-71.6855,41.82538],[-71.685479,41.825304],[-71.685311,41.823617],[-71.68482,41.820906],[-71.683376,41.812924],[-71.682663,41.808949],[-71.68111,41.80064],[-71.681002,41.799989],[-71.680138,41.795155],[-71.680137,41.795062],[-71.679978,41.793858],[-71.679969,41.793837],[-71.679916,41.793566],[-71.679749,41.792596],[-71.679542,41.791391],[-71.679504,41.791203],[-71.678209,41.783565],[-71.678029,41.782552],[-71.677531,41.779903],[-71.677397,41.779146],[-71.677296,41.778405],[-71.677106,41.777581],[-71.677002,41.777009],[-71.676912,41.776385],[-71.676866,41.776176],[-71.676788,41.775816],[-71.676725,41.775407],[-71.67668,41.775114],[-71.676499,41.774033],[-71.676197,41.77221],[-71.675898,41.770386],[-71.675894,41.770362],[-71.67363,41.757648],[-71.673698,41.757542],[-71.673752,41.757412],[-71.673782,41.757267],[-71.673767,41.757019],[-71.673729,41.75676],[-71.67347,41.755795],[-71.673456,41.755673],[-71.673424,41.755394],[-71.673355,41.754955],[-71.673347,41.754897],[-71.673225,41.753967],[-71.673065,41.7528],[-71.672951,41.752022],[-71.672562,41.749969],[-71.672523,41.749805],[-71.672302,41.748741],[-71.672218,41.748302],[-71.672211,41.748177],[-71.672195,41.74791],[-71.672195,41.747761],[-71.670663,41.73987],[-71.670544,41.739252],[-71.670135,41.73698],[-71.669574,41.73386],[-71.668434,41.72747],[-71.669494,41.727374],[-71.6717,41.727331],[-71.671956,41.727326],[-71.672553,41.727315],[-71.673904,41.727291],[-71.6782,41.727198],[-71.679701,41.727164],[-71.68138,41.72713],[-71.684064,41.727068],[-71.684517,41.727057],[-71.686674,41.727008],[-71.696528,41.726781],[-71.698209,41.726742],[-71.700584,41.726694],[-71.700933,41.726687],[-71.703594,41.726634],[-71.704842,41.726608],[-71.712749,41.726466],[-71.713105,41.726459],[-71.715887,41.726409],[-71.719007,41.726348],[-71.719499,41.726338],[-71.71959,41.726337],[-71.720034,41.726328],[-71.720111,41.726326],[-71.720257,41.726323],[-71.720368,41.726321],[-71.735023,41.726033],[-71.739508,41.72597],[-71.74076,41.725941],[-71.745964,41.725863],[-71.752389,41.725773],[-71.752846,41.725766],[-71.752988,41.725764],[-71.753098,41.725765],[-71.753127,41.725762],[-71.754402,41.725744],[-71.754572,41.725741],[-71.754649,41.72574],[-71.754698,41.72574],[-71.757764,41.725697],[-71.757864,41.725696],[-71.759306,41.725674],[-71.760908,41.725652],[-71.761192,41.725648],[-71.768377,41.725549],[-71.76844,41.725545],[-71.77447,41.725449],[-71.774906,41.725443],[-71.785969,41.72526],[-71.789562,41.7252],[-71.789669,41.725199],[-71.789704,41.725198],[-71.789709,41.726692],[-71.789711,41.727254],[-71.789729,41.727463],[-71.789768,41.731556],[-71.789861,41.734428],[-71.789871,41.734739],[-71.789902,41.735714],[-71.790016,41.738876],[-71.790055,41.739784],[-71.790071,41.74016],[-71.790094,41.740632],[-71.79009,41.740934],[-71.790089,41.740991],[-71.790103,41.742935],[-71.790195,41.744409],[-71.790314,41.747552],[-71.790323,41.747792],[-71.790327,41.747883],[-71.790554,41.750117],[-71.790633,41.75333],[-71.790647,41.753866],[-71.791066,41.77018],[-71.791066,41.770202],[-71.791254,41.774497],[-71.79137,41.777296],[-71.791372,41.777328],[-71.791477,41.779397],[-71.791573,41.781284],[-71.791921,41.789136],[-71.791927,41.78931],[-71.79194,41.789614],[-71.791936,41.789768],[-71.791911,41.790484],[-71.791919,41.790715],[-71.792006,41.793239],[-71.792058,41.794592],[-71.79207,41.794904],[-71.792076,41.79506],[-71.792079,41.795076],[-71.792124,41.795398],[-71.792135,41.795624],[-71.79236,41.799988],[-71.792364,41.800053],[-71.792593,41.804016],[-71.792804,41.809208],[-71.7928,41.809293],[-71.792855,41.81065],[-71.792867,41.810982],[-71.792894,41.812521],[-71.793127,41.814603],[-71.793114,41.814658],[-71.793097,41.814729],[-71.793101,41.814882],[-71.793143,41.816349],[-71.793144,41.816382],[-71.79316,41.817157],[-71.793161,41.817169],[-71.793265,41.82064],[-71.793284,41.821257],[-71.793296,41.821381],[-71.793302,41.821567],[-71.793315,41.821771],[-71.79331,41.8218],[-71.793343,41.822942],[-71.79344,41.825637],[-71.793478,41.82647],[-71.793532,41.827586],[-71.793615,41.829196],[-71.793689,41.830686],[-71.79379,41.832702],[-71.793796,41.832834],[-71.794077,41.83935],[-71.794117,41.839895],[-71.794134,41.840008],[-71.794121,41.840635],[-71.794115,41.840966],[-71.794121,41.841103],[-71.794173,41.841416],[-71.794177,41.841566],[-71.794179,41.841639],[-71.794229,41.842826],[-71.794237,41.843033],[-71.794463,41.848882],[-71.794471,41.849088],[-71.794474,41.849159],[-71.794477,41.849231],[-71.79448,41.849298],[-71.794524,41.850428],[-71.79468,41.854409]]]}},{"type":"Feature","properties":{"STATEFP":"44","ELSDLEA":"00450","GEOID":"4400450","GEOIDFQ":"9500000US4400450","NAME":"Glocester Elementary School District","LSAD":"00","LOGRADE":"PK","HIGRADE":"05","MTFCC":"G5400","SDTYP":"","FUNCSTAT":"E","ALAND":140463701,"AWATER":6914230,"INTPTLAT":"+41.8943240","INTPTLON":"-071.6869046"},"geometry":{"type":"Polygon","coordinates":[[[-71.797778,41.928645],[-71.797676,41.928646],[-71.797234,41.928655],[-71.796301,41.928677],[-71.791074,41.928789],[-71.788924,41.928812],[-71.787094,41.928875],[-71.785992,41.928899],[-71.784632,41.928924],[-71.781247,41.928994],[-71.770738,41.929215],[-71.770378,41.929222],[-71.768074,41.929264],[-71.76705,41.929279],[-71.766732,41.929296],[-71.766447,41.929295],[-71.765304,41.929327],[-71.765187,41.92933],[-71.762631,41.929382],[-71.758398,41.929469],[-71.754312,41.929552],[-71.750958,41.929613],[-71.742934,41.929745],[-71.741905,41.929752],[-71.736149,41.929893],[-71.728548,41.930079],[-71.728426,41.93008],[-71.725744,41.930181],[-71.722423,41.930304],[-71.721038,41.930356],[-71.717893,41.930472],[-71.717817,41.930605],[-71.714492,41.930699],[-71.709238,41.930725],[-71.707942,41.930734],[-71.707337,41.930749],[-71.700481,41.930923],[-71.698001,41.930986],[-71.691531,41.931096],[-71.689924,41.931147],[-71.685021,41.931306],[-71.681841,41.931407],[-71.681182,41.931428],[-71.678472,41.931516],[-71.677423,41.93155],[-71.67626,41.93159],[-71.675709,41.931609],[-71.67473,41.931634],[-71.672438,41.931674],[-71.669466,41.931722],[-71.66668,41.931771],[-71.662664,41.931858],[-71.655144,41.932033],[-71.653265,41.93208],[-71.652838,41.932092],[-71.651586,41.932123],[-71.65105,41.932136],[-71.650775,41.932143],[-71.64799,41.932213],[-71.640931,41.932398],[-71.63973,41.932429],[-71.639715,41.932429],[-71.637348,41.932421],[-71.633437,41.932407],[-71.632458,41.932404],[-71.631873,41.932402],[-71.629387,41.932381],[-71.627577,41.932439],[-71.626123,41.932486],[-71.624375,41.932543],[-71.624437,41.932647],[-71.623867,41.932868],[-71.621663,41.933023],[-71.621809,41.932626],[-71.621559,41.932635],[-71.616851,41.932784],[-71.613563,41.932897],[-71.608526,41.933067],[-71.603364,41.93324],[-71.60297,41.933251],[-71.60235,41.933272],[-71.601648,41.933295],[-71.592788,41.933585],[-71.590312,41.933665],[-71.589067,41.92798],[-71.588347,41.924607],[-71.588303,41.924382],[-71.587812,41.922053],[-71.587696,41.92149],[-71.587561,41.920839],[-71.58726,41.919379],[-71.587105,41.918629],[-71.586729,41.916773],[-71.586327,41.914811],[-71.586244,41.914405],[-71.585821,41.912326],[-71.58519,41.909189],[-71.584837,41.907475],[-71.584366,41.905237],[-71.584229,41.904634],[-71.584027,41.903753],[-71.583905,41.90322],[-71.583633,41.902032],[-71.5832,41.89996],[-71.583101,41.899482],[-71.582895,41.898745],[-71.582724,41.898128],[-71.582593,41.897664],[-71.582479,41.897186],[-71.581891,41.894665],[-71.581842,41.894372],[-71.581731,41.893702],[-71.58169,41.89346],[-71.581087,41.889837],[-71.580355,41.886845],[-71.580299,41.886618],[-71.580286,41.886554],[-71.579908,41.88472],[-71.579389,41.881812],[-71.579348,41.881617],[-71.579254,41.881155],[-71.578828,41.879032],[-71.578229,41.876007],[-71.57809,41.875294],[-71.57805,41.875088],[-71.578037,41.875021],[-71.577934,41.874494],[-71.577707,41.873321],[-71.577469,41.872104],[-71.577418,41.871876],[-71.577255,41.871106],[-71.577121,41.870476],[-71.576523,41.867768],[-71.576154,41.865987],[-71.576058,41.865523],[-71.575752,41.864055],[-71.575653,41.863573],[-71.575625,41.863442],[-71.575523,41.862957],[-71.575077,41.860829],[-71.574642,41.858748],[-71.575144,41.858734],[-71.577772,41.858653],[-71.578454,41.858635],[-71.57906,41.85862],[-71.58341,41.858503],[-71.584632,41.858465],[-71.590012,41.858307],[-71.591853,41.858253],[-71.597599,41.858143],[-71.60194,41.858059],[-71.604491,41.858007],[-71.604992,41.857999],[-71.605259,41.857991],[-71.609414,41.857871],[-71.61075,41.857832],[-71.611174,41.85782],[-71.613133,41.857766],[-71.61416,41.857737],[-71.621412,41.857537],[-71.623147,41.857519],[-71.623186,41.857518],[-71.623563,41.857515],[-71.623613,41.857514],[-71.62466,41.857503],[-71.625777,41.857491],[-71.625955,41.85749],[-71.628334,41.857458],[-71.631734,41.857413],[-71.638753,41.857293],[-71.640467,41.857264],[-71.64596,41.857136],[-71.648798,41.857077],[-71.649029,41.857069],[-71.649831,41.857052],[-71.649973,41.85705],[-71.650725,41.857038],[-71.658733,41.856873],[-71.65938,41.856871],[-71.664332,41.856876],[-71.67003,41.856802],[-71.670326,41.856796],[-71.671927,41.856761],[-71.673427,41.856727],[-71.674644,41.8567],[-71.676808,41.85665],[-71.678781,41.856624],[-71.680817,41.856595],[-71.688073,41.856496],[-71.689252,41.856479],[-71.689758,41.856471],[-71.69101,41.856457],[-71.692219,41.856441],[-71.69723,41.856386],[-71.699826,41.856357],[-71.702133,41.856331],[-71.703254,41.856291],[-71.704486,41.856258],[-71.709682,41.85614],[-71.714587,41.856024],[-71.716949,41.855993],[-71.717467,41.855985],[-71.719948,41.855951],[-71.720155,41.855949],[-71.72435,41.855892],[-71.724457,41.855923],[-71.724602,41.855949],[-71.724907,41.855984],[-71.725227,41.855999],[-71.726209,41.855999],[-71.726242,41.855999],[-71.726859,41.855985],[-71.727097,41.85598],[-71.727859,41.855938],[-71.728048,41.855946],[-71.728706,41.855972],[-71.729805,41.855972],[-71.730888,41.855965],[-71.731778,41.855953],[-71.731957,41.855951],[-71.732079,41.855949],[-71.733284,41.855904],[-71.734276,41.855885],[-71.736053,41.855797],[-71.736755,41.855759],[-71.737663,41.855721],[-71.738327,41.855682],[-71.738701,41.855671],[-71.739059,41.855644],[-71.739138,41.85564],[-71.740379,41.855579],[-71.741066,41.855549],[-71.741852,41.855503],[-71.744026,41.855404],[-71.744484,41.855389],[-71.745458,41.855338],[-71.745811,41.85532],[-71.74659,41.855274],[-71.7472,41.855255],[-71.747483,41.855236],[-71.747668,41.855279],[-71.749488,41.855244],[-71.751348,41.85526],[-71.758215,41.855093],[-71.761118,41.85499],[-71.764137,41.854918],[-71.765988,41.854874],[-71.768763,41.854827],[-71.769958,41.854806],[-71.771376,41.854783],[-71.787391,41.854513],[-71.794496,41.854411],[-71.79468,41.854409],[-71.794906,41.858805],[-71.794911,41.85891],[-71.794914,41.858966],[-71.794933,41.859334],[-71.794941,41.859475],[-71.794966,41.859972],[-71.795286,41.865713],[-71.795287,41.865748],[-71.795289,41.865771],[-71.795316,41.86632],[-71.795323,41.866465],[-71.795353,41.867074],[-71.795356,41.867126],[-71.795404,41.868109],[-71.795408,41.868192],[-71.795428,41.868618],[-71.795744,41.875097],[-71.795863,41.877688],[-71.795956,41.880622],[-71.796191,41.886142],[-71.796434,41.89172],[-71.79652,41.895252],[-71.796522,41.895288],[-71.796563,41.896967],[-71.796555,41.897066],[-71.796566,41.89714],[-71.796573,41.897195],[-71.796683,41.899377],[-71.796695,41.899822],[-71.796698,41.899921],[-71.796711,41.900416],[-71.796756,41.901955],[-71.796828,41.904446],[-71.7969,41.906897],[-71.797024,41.910127],[-71.797105,41.912206],[-71.797105,41.912231],[-71.797112,41.912418],[-71.797261,41.916232],[-71.797262,41.916247],[-71.797265,41.91633],[-71.797268,41.916404],[-71.797299,41.916891],[-71.7973,41.916915],[-71.797355,41.917445],[-71.797462,41.920742],[-71.797547,41.923378],[-71.797725,41.927414],[-71.797726,41.927446],[-71.797732,41.927592],[-71.797774,41.928553],[-71.797778,41.928645]]]}},{"type":"Feature","properties":{"STATEFP":"44","ELSDLEA":"00510","GEOID":"4400510","GEOIDFQ":"9500000US4400510","NAME":"Jamestown School District","LSAD":"00","LOGRADE":"PK","HIGRADE":"12","MTFCC":"G5400","SDTYP":"","FUNCSTAT":"E","ALAND":24469391,"AWATER":66991102,"INTPTLAT":"+41.5197301","INTPTLON":"-071.3710759"},"geometry":{"type":"Polygon","coordinates":[[[-71.421899,41.449002],[-71.417269,41.455947],[-71.412784,41.462674],[-71.409099,41.468202],[-71.409045,41.468341],[-71.408779,41.470124],[-71.408465,41.472224],[-71.408433,41.472488],[-71.407748,41.478213],[-71.407824,41.480716],[-71.408251,41.483042],[-71.408399,41.484501],[-71.40885,41.486192],[-71.410144,41.491044],[-71.410388,41.49196],[-71.410555,41.492425],[-71.410968,41.493578],[-71.411959,41.495844],[-71.412646,41.497553],[-71.413027,41.49869],[-71.411599,41.504501],[-71.409991,41.506693],[-71.408312,41.508661],[-71.406409,41.510241],[-71.406024,41.510561],[-71.404483,41.51201],[-71.403659,41.512796],[-71.402514,41.514086],[-71.401477,41.516115],[-71.401095,41.51774],[-71.401156,41.51893],[-71.401399,41.527501],[-71.401385,41.527651],[-71.401339,41.52815],[-71.401331,41.528232],[-71.400576,41.536432],[-71.399506,41.54804],[-71.398699,41.556801],[-71.397418,41.562578],[-71.395754,41.568582],[-71.394296,41.573437],[-71.393603,41.575746],[-71.390998,41.583201],[-71.390871,41.583597],[-71.390672,41.584009],[-71.39055,41.584322],[-71.390321,41.5851],[-71.390031,41.585756],[-71.389635,41.586809],[-71.389314,41.587854],[-71.388765,41.58922],[-71.388353,41.590181],[-71.388017,41.590967],[-71.387788,41.59144],[-71.38759,41.591829],[-71.387575,41.592028],[-71.387514,41.592287],[-71.387437,41.592691],[-71.387437,41.593088],[-71.387376,41.593447],[-71.387392,41.593813],[-71.387468,41.594179],[-71.387514,41.594721],[-71.387468,41.595194],[-71.38759,41.595697],[-71.38756,41.596277],[-71.387636,41.596758],[-71.387682,41.597025],[-71.387727,41.597521],[-71.387819,41.597979],[-71.387819,41.598078],[-71.387788,41.598734],[-71.387849,41.599268],[-71.387849,41.59955],[-71.387865,41.600313],[-71.387834,41.600954],[-71.387865,41.60145],[-71.387758,41.602129],[-71.387621,41.602648],[-71.387442,41.603673],[-71.385652,41.602726],[-71.377554,41.598971],[-71.376519,41.598484],[-71.374498,41.597528],[-71.37077,41.595777],[-71.369661,41.595256],[-71.360407,41.590926],[-71.355869,41.588832],[-71.350622,41.586369],[-71.344278,41.583268],[-71.339153,41.580987],[-71.335249,41.579345],[-71.332198,41.577885],[-71.330753,41.57715],[-71.329148,41.576334],[-71.320973,41.572411],[-71.313605,41.568644],[-71.313862,41.567738],[-71.318041,41.553645],[-71.322379,41.538739],[-71.323275,41.535661],[-71.325118,41.532169],[-71.318384,41.525444],[-71.317507,41.524569],[-71.313114,41.522022],[-71.31264,41.52139],[-71.312677,41.521363],[-71.312737,41.521314],[-71.312798,41.521267],[-71.312855,41.521221],[-71.313026,41.521069],[-71.313091,41.521019],[-71.313155,41.520973],[-71.313217,41.520926],[-71.313426,41.520797],[-71.313499,41.520756],[-71.313635,41.520677],[-71.3137,41.520634],[-71.313829,41.520541],[-71.313891,41.520493],[-71.313958,41.520445],[-71.314032,41.520395],[-71.314098,41.520349],[-71.314243,41.520256],[-71.314312,41.520221],[-71.314387,41.520187],[-71.314521,41.52012],[-71.314586,41.520084],[-71.314648,41.520046],[-71.314723,41.520006],[-71.314789,41.519968],[-71.31486,41.519931],[-71.314931,41.519904],[-71.31502,41.519879],[-71.315096,41.519864],[-71.315184,41.519844],[-71.315274,41.519831],[-71.315355,41.519833],[-71.315427,41.519839],[-71.31551,41.519849],[-71.315597,41.519852],[-71.315672,41.519853],[-71.315754,41.519852],[-71.31583,41.519858],[-71.315918,41.519875],[-71.315983,41.519901],[-71.316056,41.519936],[-71.316126,41.519961],[-71.316197,41.519975],[-71.316283,41.519972],[-71.316368,41.519958],[-71.316458,41.519936],[-71.316543,41.519912],[-71.316719,41.519881],[-71.31681,41.519888],[-71.316896,41.519883],[-71.316991,41.519865],[-71.317079,41.519844],[-71.317239,41.519812],[-71.317331,41.5198],[-71.317417,41.519793],[-71.317506,41.519792],[-71.317587,41.519813],[-71.31767,41.519823],[-71.317828,41.519812],[-71.317907,41.519799],[-71.317983,41.519779],[-71.318051,41.519759],[-71.318209,41.51972],[-71.318279,41.519697],[-71.318351,41.519678],[-71.318421,41.519665],[-71.318572,41.519615],[-71.318645,41.519595],[-71.318726,41.519575],[-71.31881,41.519553],[-71.318882,41.51954],[-71.318942,41.519527],[-71.319037,41.519514],[-71.319116,41.519501],[-71.319191,41.519487],[-71.319274,41.519473],[-71.31935,41.519465],[-71.319434,41.519474],[-71.319599,41.519512],[-71.319769,41.519535],[-71.319855,41.519554],[-71.319936,41.519577],[-71.320021,41.519591],[-71.320185,41.519623],[-71.320261,41.519635],[-71.320351,41.519651],[-71.320429,41.519677],[-71.320495,41.519703],[-71.320571,41.519729],[-71.320655,41.519752],[-71.320823,41.519809],[-71.320895,41.519838],[-71.320966,41.519859],[-71.32121,41.519926],[-71.321276,41.519954],[-71.321336,41.519989],[-71.321392,41.520039],[-71.321422,41.520088],[-71.321457,41.520137],[-71.321498,41.520185],[-71.321547,41.520228],[-71.321653,41.520332],[-71.321707,41.52037],[-71.321767,41.520406],[-71.321829,41.52045],[-71.321889,41.520482],[-71.321944,41.520521],[-71.322005,41.520556],[-71.32207,41.520596],[-71.322134,41.520632],[-71.322208,41.520672],[-71.322277,41.520711],[-71.322343,41.520751],[-71.322402,41.520795],[-71.322453,41.52084],[-71.322493,41.520892],[-71.322512,41.520945],[-71.322539,41.521001],[-71.322613,41.521112],[-71.322651,41.521174],[-71.322688,41.52123],[-71.32274,41.521287],[-71.322788,41.521344],[-71.322831,41.521402],[-71.322867,41.521463],[-71.322889,41.521519],[-71.3229,41.521579],[-71.322918,41.521632],[-71.322944,41.521693],[-71.322961,41.521749],[-71.322967,41.521805],[-71.323004,41.521855],[-71.323063,41.521888],[-71.323108,41.521936],[-71.323137,41.521994],[-71.323186,41.522173],[-71.323195,41.522239],[-71.323204,41.522295],[-71.323214,41.522365],[-71.323221,41.522425],[-71.323218,41.522493],[-71.323209,41.522556],[-71.323173,41.522616],[-71.323156,41.522679],[-71.323142,41.522738],[-71.323132,41.522802],[-71.323148,41.522853],[-71.323214,41.522886],[-71.323271,41.522924],[-71.323329,41.522966],[-71.323391,41.523006],[-71.32344,41.523047],[-71.323448,41.523105],[-71.323449,41.523135],[-71.323449,41.523168],[-71.323468,41.523208],[-71.323548,41.523206],[-71.323626,41.523185],[-71.323697,41.523171],[-71.32378,41.523162],[-71.323869,41.523151],[-71.323939,41.523132],[-71.32401,41.523107],[-71.324082,41.523077],[-71.324147,41.523038],[-71.324345,41.522915],[-71.324419,41.522878],[-71.324486,41.522842],[-71.324538,41.522804],[-71.324596,41.522755],[-71.324651,41.522718],[-71.324705,41.522676],[-71.324756,41.522632],[-71.324812,41.522579],[-71.324869,41.522529],[-71.32494,41.522494],[-71.325008,41.522472],[-71.325087,41.522449],[-71.32517,41.522419],[-71.325249,41.522386],[-71.325323,41.522366],[-71.325411,41.522339],[-71.325557,41.522298],[-71.325627,41.52228],[-71.325702,41.522266],[-71.325869,41.522231],[-71.325957,41.522209],[-71.326119,41.522167],[-71.326195,41.522153],[-71.32628,41.522127],[-71.326343,41.522099],[-71.326479,41.522014],[-71.326554,41.521984],[-71.326628,41.521952],[-71.326691,41.521914],[-71.326786,41.521815],[-71.32685,41.521761],[-71.326905,41.521719],[-71.326966,41.521668],[-71.327065,41.521573],[-71.327126,41.521524],[-71.327187,41.521478],[-71.327249,41.521445],[-71.327305,41.521409],[-71.327302,41.521351],[-71.327315,41.521287],[-71.327329,41.521234],[-71.327362,41.521125],[-71.327383,41.521062],[-71.327406,41.521],[-71.327431,41.520937],[-71.327457,41.52088],[-71.327479,41.520829],[-71.32751,41.520773],[-71.327535,41.52072],[-71.327576,41.520596],[-71.327586,41.520536],[-71.327582,41.520417],[-71.327592,41.520322],[-71.3276,41.520293],[-71.327608,41.520233],[-71.327627,41.520169],[-71.327642,41.520107],[-71.327658,41.52005],[-71.327693,41.519919],[-71.327711,41.519866],[-71.327736,41.519811],[-71.327767,41.519748],[-71.3278,41.519687],[-71.327819,41.51963],[-71.327846,41.519506],[-71.327862,41.519453],[-71.327871,41.519383],[-71.327861,41.519313],[-71.327843,41.51925],[-71.327826,41.519186],[-71.327845,41.51913],[-71.327896,41.519073],[-71.327959,41.519025],[-71.32808,41.518957],[-71.328136,41.518921],[-71.328251,41.518851],[-71.328309,41.518811],[-71.328371,41.518772],[-71.328439,41.518735],[-71.328565,41.518651],[-71.328703,41.518576],[-71.328857,41.51851],[-71.32893,41.518484],[-71.329003,41.518456],[-71.329067,41.518425],[-71.329261,41.518336],[-71.329334,41.518307],[-71.329418,41.518279],[-71.329488,41.518252],[-71.329629,41.518209],[-71.329704,41.518188],[-71.329793,41.518161],[-71.329883,41.518142],[-71.329958,41.518135],[-71.330039,41.51815],[-71.330104,41.518182],[-71.330155,41.51822],[-71.330172,41.518273],[-71.330182,41.518336],[-71.330244,41.51835],[-71.330317,41.518321],[-71.330391,41.518311],[-71.330458,41.518276],[-71.330515,41.518227],[-71.330565,41.518187],[-71.330629,41.518152],[-71.330684,41.518117],[-71.330759,41.518085],[-71.330785,41.518031],[-71.330782,41.517976],[-71.330795,41.517915],[-71.330806,41.517856],[-71.330806,41.517799],[-71.330788,41.517747],[-71.330786,41.517738],[-71.330773,41.51772],[-71.330935,41.517588],[-71.331257,41.517133],[-71.331561,41.516692],[-71.33193,41.516202],[-71.332072,41.51599],[-71.332426,41.515498],[-71.333975,41.51334],[-71.340899,41.503698],[-71.341084,41.503424],[-71.341175,41.503295],[-71.342739,41.501052],[-71.343392,41.500097],[-71.344107,41.498967],[-71.345242,41.497176],[-71.346633,41.494983],[-71.346864,41.494634],[-71.346872,41.494623],[-71.339799,41.483797],[-71.338633,41.482011],[-71.338225,41.481386],[-71.338186,41.481317],[-71.337747,41.48112],[-71.337774,41.481085],[-71.337901,41.481039],[-71.338018,41.480988],[-71.33811,41.480937],[-71.33818,41.48089],[-71.338255,41.480832],[-71.338315,41.480775],[-71.338367,41.480715],[-71.338418,41.480637],[-71.338454,41.480571],[-71.338495,41.480486],[-71.338581,41.480291],[-71.338666,41.480051],[-71.338727,41.479839],[-71.338769,41.479736],[-71.338819,41.479589],[-71.338856,41.479483],[-71.33891,41.479359],[-71.338967,41.479257],[-71.339028,41.479158],[-71.339115,41.479046],[-71.339281,41.47884],[-71.339387,41.47873],[-71.339522,41.478607],[-71.339611,41.478518],[-71.339699,41.478417],[-71.339803,41.478336],[-71.339939,41.478295],[-71.340035,41.478192],[-71.340142,41.478081],[-71.340361,41.477873],[-71.340453,41.477772],[-71.340557,41.477653],[-71.340666,41.477554],[-71.340774,41.477459],[-71.340906,41.477368],[-71.341008,41.477288],[-71.341117,41.477228],[-71.341196,41.477153],[-71.341239,41.477059],[-71.34122,41.476874],[-71.341221,41.476771],[-71.341285,41.476641],[-71.341344,41.476551],[-71.341403,41.47647],[-71.341548,41.476323],[-71.341652,41.476224],[-71.341777,41.476208],[-71.341822,41.47617],[-71.341858,41.476138],[-71.341867,41.476077],[-71.341863,41.47601],[-71.341982,41.475949],[-71.342046,41.475899],[-71.342085,41.475837],[-71.342077,41.475756],[-71.342076,41.475724],[-71.342074,41.475678],[-71.342199,41.475528],[-71.342268,41.475451],[-71.342351,41.475382],[-71.342446,41.475315],[-71.342539,41.475255],[-71.342648,41.475203],[-71.342741,41.47516],[-71.342829,41.47517],[-71.342888,41.475197],[-71.342946,41.475148],[-71.343007,41.475086],[-71.343076,41.475021],[-71.343152,41.474931],[-71.343214,41.474852],[-71.343278,41.474742],[-71.34332,41.474638],[-71.343415,41.474543],[-71.343499,41.47447],[-71.343593,41.474408],[-71.343693,41.474355],[-71.343813,41.474316],[-71.343886,41.474289],[-71.34396,41.474228],[-71.344039,41.47416],[-71.344115,41.474085],[-71.344196,41.474012],[-71.344272,41.473933],[-71.34434,41.47385],[-71.344397,41.473763],[-71.344471,41.473679],[-71.344538,41.473596],[-71.344619,41.473515],[-71.344702,41.473425],[-71.344796,41.473348],[-71.344898,41.473291],[-71.345069,41.473248],[-71.345173,41.473229],[-71.34529,41.473199],[-71.345408,41.47315],[-71.345546,41.473071],[-71.345674,41.473],[-71.345864,41.472807],[-71.345995,41.472723],[-71.346095,41.472646],[-71.346202,41.472589],[-71.346308,41.47253],[-71.346396,41.472456],[-71.346476,41.472364],[-71.346529,41.472293],[-71.346548,41.472217],[-71.346562,41.472181],[-71.34658,41.472132],[-71.346648,41.472014],[-71.346715,41.471913],[-71.346786,41.471815],[-71.34688,41.471718],[-71.346977,41.471631],[-71.347108,41.471521],[-71.347224,41.471433],[-71.347339,41.471351],[-71.347476,41.471272],[-71.347594,41.471194],[-71.347671,41.471071],[-71.347809,41.470911],[-71.347886,41.470826],[-71.347951,41.470731],[-71.348059,41.470634],[-71.3482,41.470575],[-71.348328,41.470528],[-71.348502,41.47047],[-71.348657,41.470413],[-71.3488,41.470358],[-71.348951,41.470332],[-71.349125,41.470335],[-71.34926,41.47036],[-71.349377,41.470405],[-71.349481,41.4704],[-71.349614,41.470347],[-71.34976,41.470296],[-71.349887,41.470285],[-71.350035,41.470301],[-71.350117,41.470298],[-71.350235,41.470256],[-71.350332,41.470237],[-71.350444,41.470213],[-71.350571,41.470181],[-71.350798,41.470136],[-71.35089,41.470123],[-71.350938,41.470162],[-71.350965,41.470199],[-71.351043,41.470155],[-71.351128,41.470098],[-71.3512,41.470039],[-71.351251,41.469965],[-71.3513,41.469916],[-71.351335,41.469948],[-71.351397,41.469923],[-71.35145,41.469854],[-71.351531,41.469793],[-71.351618,41.469822],[-71.351663,41.469881],[-71.351767,41.469847],[-71.35184,41.469807],[-71.351907,41.469772],[-71.351977,41.469798],[-71.351993,41.469716],[-71.352068,41.469636],[-71.352197,41.469612],[-71.352305,41.4696],[-71.352421,41.469597],[-71.352494,41.469623],[-71.352583,41.469619],[-71.352691,41.46964],[-71.352874,41.469608],[-71.352968,41.469608],[-71.353056,41.469573],[-71.353139,41.46953],[-71.353223,41.469459],[-71.353347,41.469313],[-71.353366,41.469243],[-71.353331,41.469156],[-71.353359,41.469108],[-71.353401,41.469062],[-71.353443,41.46901],[-71.353496,41.468935],[-71.353543,41.468861],[-71.353586,41.468807],[-71.353685,41.468738],[-71.353741,41.468696],[-71.353795,41.468632],[-71.353848,41.468563],[-71.353903,41.468501],[-71.35396,41.46843],[-71.354035,41.468364],[-71.354105,41.468339],[-71.354304,41.468229],[-71.354377,41.468184],[-71.354506,41.468111],[-71.354657,41.46802],[-71.354703,41.467991],[-71.354763,41.467946],[-71.354825,41.467897],[-71.354963,41.467797],[-71.355061,41.467723],[-71.355089,41.467686],[-71.355142,41.46762],[-71.355183,41.467584],[-71.355249,41.467577],[-71.355301,41.467568],[-71.355371,41.467533],[-71.355447,41.467499],[-71.355492,41.46748],[-71.355579,41.467441],[-71.355643,41.467402],[-71.355717,41.467346],[-71.355769,41.467297],[-71.355815,41.46725],[-71.355866,41.467186],[-71.35591,41.467135],[-71.355974,41.467074],[-71.356022,41.467017],[-71.35613,41.466899],[-71.356181,41.466848],[-71.356222,41.466799],[-71.356291,41.466679],[-71.356272,41.466632],[-71.356221,41.466547],[-71.356234,41.46648],[-71.356255,41.466443],[-71.356322,41.466392],[-71.356413,41.46636],[-71.356526,41.466343],[-71.356636,41.466304],[-71.356733,41.466293],[-71.356838,41.466299],[-71.356933,41.466347],[-71.357032,41.46638],[-71.357125,41.466397],[-71.357216,41.466376],[-71.357411,41.466251],[-71.357488,41.466179],[-71.357538,41.466119],[-71.357582,41.466056],[-71.357658,41.466004],[-71.357733,41.46593],[-71.357791,41.465848],[-71.35792,41.465612],[-71.357981,41.465518],[-71.358041,41.465418],[-71.358072,41.465337],[-71.358117,41.465275],[-71.358239,41.465182],[-71.358253,41.465123],[-71.358262,41.465059],[-71.35831,41.464984],[-71.358346,41.464913],[-71.358364,41.464841],[-71.358376,41.464766],[-71.358377,41.464698],[-71.358393,41.464607],[-71.358419,41.464537],[-71.35846,41.464478],[-71.358523,41.464432],[-71.358571,41.464377],[-71.358595,41.464323],[-71.358629,41.464253],[-71.358652,41.464189],[-71.35868,41.464116],[-71.358717,41.46401],[-71.358736,41.463958],[-71.358788,41.463869],[-71.358836,41.463799],[-71.358931,41.463629],[-71.358965,41.463552],[-71.359018,41.463455],[-71.359067,41.463381],[-71.359112,41.463319],[-71.359157,41.463251],[-71.359191,41.463175],[-71.359267,41.463051],[-71.35931,41.463008],[-71.359336,41.462962],[-71.359355,41.462917],[-71.359378,41.462871],[-71.35941,41.462843],[-71.359565,41.462859],[-71.359616,41.462857],[-71.359665,41.462473],[-71.359684,41.462328],[-71.359746,41.462335],[-71.359784,41.462358],[-71.35982,41.462355],[-71.359858,41.462356],[-71.360088,41.462397],[-71.359993,41.462736],[-71.35996,41.462812],[-71.359923,41.462883],[-71.359874,41.462969],[-71.359824,41.463046],[-71.359756,41.463146],[-71.359699,41.463226],[-71.359657,41.463297],[-71.359626,41.463367],[-71.359625,41.463423],[-71.359621,41.463446],[-71.3596,41.463475],[-71.359534,41.463625],[-71.359493,41.4637],[-71.359455,41.463759],[-71.359426,41.463836],[-71.359378,41.463918],[-71.359353,41.463986],[-71.359344,41.464065],[-71.359331,41.464147],[-71.359285,41.46423],[-71.359262,41.464285],[-71.359229,41.464347],[-71.359195,41.464408],[-71.359192,41.464463],[-71.359185,41.464525],[-71.359184,41.464597],[-71.359178,41.464642],[-71.359198,41.464699],[-71.359215,41.46476],[-71.359206,41.464901],[-71.359248,41.464922],[-71.359267,41.46498],[-71.35929,41.46502],[-71.359353,41.465049],[-71.359418,41.465075],[-71.359481,41.465072],[-71.359573,41.464986],[-71.359638,41.464986],[-71.359701,41.46498],[-71.359763,41.464935],[-71.359817,41.464884],[-71.359861,41.464839],[-71.359872,41.464778],[-71.359878,41.464735],[-71.359962,41.464663],[-71.360031,41.464659],[-71.360074,41.464675],[-71.360239,41.464684],[-71.360289,41.464696],[-71.360309,41.46474],[-71.360297,41.464798],[-71.36029,41.464847],[-71.360299,41.464885],[-71.360347,41.464891],[-71.360405,41.464891],[-71.360481,41.464871],[-71.360542,41.464871],[-71.360557,41.464915],[-71.360541,41.464952],[-71.360567,41.464983],[-71.360635,41.464984],[-71.360707,41.464977],[-71.360818,41.464956],[-71.360855,41.46496],[-71.360871,41.465091],[-71.36093,41.465142],[-71.360997,41.465121],[-71.361159,41.465039],[-71.361223,41.465011],[-71.361309,41.464977],[-71.361382,41.464941],[-71.361409,41.464913],[-71.36145,41.464879],[-71.361519,41.46483],[-71.361545,41.464777],[-71.361575,41.46473],[-71.361441,41.465142],[-71.36189,41.46496],[-71.36322,41.464015],[-71.367085,41.461362],[-71.367624,41.460999],[-71.374138,41.456618],[-71.374597,41.456291],[-71.384658,41.44897],[-71.394435,41.442014],[-71.397357,41.44162],[-71.40046,41.441496],[-71.40338,41.441615],[-71.406249,41.442253],[-71.412437,41.44433],[-71.417677,41.446482],[-71.420384,41.448047],[-71.421899,41.449002]]]}},{"type":"Feature","properties":{"STATEFP":"44","ELSDLEA":"00600","GEOID":"4400600","GEOIDFQ":"9500000US4400600","NAME":"Little Compton School District","LSAD":"00","LOGRADE":"PK","HIGRADE":"12","MTFCC":"G5400","SDTYP":"","FUNCSTAT":"E","ALAND":53215173,"AWATER":21426417,"INTPTLAT":"+41.5028606","INTPTLON":"-071.1658085"},"geometry":{"type":"Polygon","coordinates":[[[-71.221068,41.543304],[-71.214618,41.544861],[-71.211991,41.545403],[-71.211743,41.545445],[-71.211499,41.545486],[-71.211174,41.545563],[-71.210942,41.54562],[-71.208953,41.546056],[-71.206215,41.546622],[-71.205932,41.546695],[-71.205238,41.546866],[-71.204582,41.546996],[-71.204498,41.547006],[-71.204386,41.54703],[-71.204326,41.547051],[-71.20417,41.547107],[-71.201872,41.547584],[-71.201369,41.547677],[-71.199958,41.547967],[-71.199331,41.548127],[-71.197948,41.548417],[-71.196739,41.548677],[-71.195144,41.549019],[-71.192054,41.549667],[-71.186904,41.550788],[-71.186204,41.550957],[-71.180465,41.552171],[-71.180381,41.552168],[-71.180168,41.552154],[-71.18013,41.55215],[-71.180076,41.552151],[-71.179901,41.552195],[-71.179694,41.552244],[-71.178909,41.552421],[-71.178161,41.552575],[-71.177785,41.552656],[-71.177291,41.552762],[-71.176467,41.552949],[-71.175582,41.553173],[-71.174568,41.553409],[-71.173038,41.553709],[-71.167544,41.554789],[-71.165676,41.555155],[-71.159843,41.556302],[-71.158856,41.556521],[-71.158186,41.55668],[-71.157361,41.556903],[-71.15646,41.557109],[-71.156212,41.55718],[-71.15612,41.557246],[-71.153096,41.557865],[-71.152458,41.557996],[-71.149179,41.558667],[-71.143855,41.559742],[-71.141391,41.56025],[-71.140106,41.560472],[-71.139221,41.560666],[-71.135147,41.561576],[-71.133203,41.56201],[-71.132672,41.562124],[-71.132579,41.56215],[-71.131048,41.56249],[-71.12947,41.56284],[-71.128982,41.562966],[-71.127837,41.563203],[-71.127824,41.563092],[-71.127814,41.563005],[-71.127794,41.562847],[-71.127505,41.560515],[-71.127484,41.560343],[-71.12748,41.560312],[-71.12743,41.559911],[-71.127275,41.558654],[-71.12725,41.558473],[-71.127188,41.557955],[-71.127123,41.557429],[-71.127111,41.557331],[-71.127106,41.557297],[-71.127096,41.557208],[-71.126928,41.555855],[-71.126923,41.555811],[-71.126917,41.555768],[-71.126879,41.55546],[-71.12687,41.555383],[-71.12684,41.555142],[-71.126829,41.555055],[-71.126819,41.554975],[-71.126809,41.554902],[-71.126647,41.553865],[-71.12632,41.551772],[-71.126281,41.55151],[-71.126268,41.55142],[-71.126229,41.551117],[-71.12621,41.550971],[-71.126186,41.550793],[-71.126067,41.54987],[-71.125822,41.547995],[-71.125249,41.543607],[-71.124573,41.538432],[-71.124232,41.535829],[-71.123683,41.53162],[-71.122499,41.522554],[-71.122437,41.522075],[-71.122247,41.519594],[-71.122228,41.519389],[-71.122182,41.51876],[-71.121776,41.51351],[-71.121698,41.512543],[-71.121687,41.512406],[-71.121661,41.511366],[-71.121661,41.511354],[-71.121473,41.508928],[-71.121463,41.508803],[-71.121469,41.508783],[-71.121452,41.508647],[-71.12145,41.508632],[-71.121363,41.508095],[-71.121346,41.50789],[-71.121336,41.507777],[-71.121334,41.507722],[-71.121333,41.507707],[-71.121372,41.507616],[-71.121288,41.507092],[-71.121303,41.506722],[-71.121253,41.5063],[-71.12119,41.505777],[-71.121203,41.505447],[-71.121203,41.505435],[-71.120753,41.49961],[-71.120617,41.497901],[-71.120589,41.497737],[-71.120574,41.497651],[-71.120553,41.497531],[-71.120547,41.497493],[-71.12057,41.497448],[-71.120559,41.497421],[-71.120552,41.497401],[-71.120539,41.497368],[-71.120525,41.49733],[-71.120519,41.497301],[-71.120504,41.497233],[-71.120484,41.497136],[-71.120474,41.497086],[-71.120472,41.497077],[-71.120351,41.496557],[-71.120266,41.496271],[-71.120228,41.496143],[-71.120181,41.495837],[-71.120059,41.495484],[-71.119936,41.495079],[-71.119874,41.494604],[-71.121061,41.492867],[-71.121116,41.492787],[-71.118103,41.487527],[-71.117461,41.486471],[-71.116404,41.484568],[-71.120032,41.484272],[-71.164713,41.460809],[-71.169319,41.458391],[-71.195162,41.451909],[-71.19816,41.452852],[-71.199314,41.453214],[-71.199452,41.453258],[-71.201492,41.453899],[-71.21974,41.459632],[-71.218752,41.46029],[-71.218234,41.460819],[-71.217474,41.461484],[-71.216912,41.461997],[-71.216836,41.462065],[-71.216074,41.462874],[-71.215311,41.46366],[-71.214671,41.464316],[-71.213787,41.46533],[-71.213024,41.46613],[-71.212263,41.467152],[-71.211333,41.46828],[-71.21051,41.469332],[-71.209929,41.470011],[-71.209579,41.470567],[-71.209397,41.470842],[-71.208466,41.471902],[-71.207765,41.472832],[-71.207232,41.473617],[-71.206592,41.474654],[-71.20618,41.475248],[-71.205724,41.476011],[-71.205312,41.476843],[-71.205023,41.477498],[-71.204612,41.478392],[-71.204261,41.47939],[-71.203912,41.480366],[-71.203439,41.481487],[-71.203028,41.482669],[-71.202922,41.483546],[-71.202526,41.484186],[-71.202587,41.485292],[-71.202588,41.486672],[-71.202757,41.487344],[-71.202818,41.487915],[-71.202926,41.488464],[-71.20317,41.489036],[-71.203231,41.489661],[-71.203338,41.49005],[-71.203583,41.490683],[-71.203934,41.491308],[-71.20424,41.491934],[-71.204515,41.492467],[-71.205065,41.493039],[-71.205476,41.493527],[-71.205935,41.494015],[-71.206347,41.494511],[-71.206645,41.494814],[-71.206821,41.494991],[-71.207234,41.495433],[-71.207693,41.495883],[-71.208228,41.496332],[-71.208763,41.496819],[-71.209283,41.497131],[-71.20994,41.497352],[-71.210522,41.497572],[-71.210996,41.497708],[-71.211409,41.497929],[-71.211012,41.500177],[-71.208155,41.51455],[-71.212368,41.524272],[-71.21282,41.525393],[-71.215176,41.531236],[-71.219914,41.541089],[-71.221068,41.543304]]]}}]}