{"type":"FeatureCollection","crs":{"type":"name","properties":{"name":"urn:ogc:def:crs:OGC:1.3:CRS84"}},"features":[{"type":"Feature","id":1,"geometry":{"type":"Polygon","coordinates":[[[-97.5124388899999,35.3919841700001],[-97.51242625,35.38802818],[-97.51241363,35.38292002],[-97.51239395,35.37721377],[-97.5123051099999,35.3722283700001],[-97.51227779,35.3711596100001],[-97.5122749,35.37060247],[-97.51209842,35.37060174],[-97.5119769899999,35.3633896200001],[-97.51198009,35.3576928200001],[-97.5119812199999,35.3561423100001],[-97.5165886,35.35611312],[-97.5210578099999,35.35608484],[-97.52104894,35.3488155100001],[-97.52100702,35.3415779200001],[-97.51227642,35.3415802100001],[-97.51223576,35.3343212],[-97.51222122,35.32909355],[-97.51219783,35.31962231],[-97.5209746199999,35.31962022],[-97.52098134,35.30525285],[-97.5120783099999,35.3052764],[-97.51204809,35.2916759],[-97.51713429,35.2916629000001],[-97.51713778,35.29075635],[-97.52088033,35.29074689],[-97.52971302,35.2907243400001],[-97.5472126,35.2907854000001],[-97.56814445,35.2908671600001],[-97.56868366,35.2927660300001],[-97.5690842499999,35.29434216],[-97.56948407,35.29612487],[-97.5702609899999,35.29801196],[-97.5711649199999,35.29971902],[-97.57254362,35.3008852300001],[-97.5744605899999,35.30166683],[-97.57703925,35.3022955500001],[-97.5802812899999,35.3025136700001],[-97.58522598,35.3025517],[-97.5933312,35.30250563],[-97.5989448399999,35.3034604600001],[-97.59868189,35.30543175],[-97.5980856799999,35.30988341],[-97.5972057,35.3162859600001],[-97.59678918,35.3194435],[-97.59655534,35.3209393500001],[-97.59637373,35.32205105],[-97.59615345,35.32305302],[-97.59589133,35.3240419200001],[-97.59564527,35.32497155],[-97.5954111199999,35.32573116],[-97.59514245,35.32655384],[-97.5948780099999,35.32726939],[-97.5945711099999,35.32802931],[-97.59350418,35.3307703400001],[-97.59288193,35.33222584],[-97.59216044,35.3340035200001],[-97.59088805,35.3371611100001],[-97.5873438899999,35.34598177],[-97.58635096,35.34852191],[-97.58553016,35.3505753000001],[-97.58503151,35.35186966],[-97.58290597,35.3571051700001],[-97.58133419,35.36099785],[-97.5805109899999,35.3630767500001],[-97.5793796999999,35.3657591900001],[-97.5760542999999,35.37415286],[-97.57586458,35.3746321100001],[-97.5748785499999,35.3771257600001],[-97.5747088799999,35.37761662],[-97.57457497,35.37806915],[-97.57445648,35.3785244800001],[-97.5744163099999,35.3786960300001],[-97.57440326,35.3787531300001],[-97.57436611,35.3789249700001],[-97.57433064,35.3790970900001],[-97.5742978499999,35.3792697700001],[-97.57426707,35.3794424500001],[-97.57422121,35.37973871],[-97.57419092,35.37994546],[-97.5741513899999,35.38031124],[-97.5741379899999,35.3804328900001],[-97.57411965,35.38060205],[-97.5741063,35.38077645],[-97.57409497,35.38095086],[-97.57408632,35.38112527],[-97.57407935,35.3812994200001],[-97.57407637,35.3814161600001],[-97.57407368,35.3831092300001],[-97.57407348,35.38477347],[-97.57407354,35.3860781000001],[-97.57407339,35.3872324700001],[-97.5740738699999,35.39165294],[-97.57437358,35.39394874],[-97.5746832,35.39483334],[-97.57548344,35.39607683],[-97.5760612299999,35.39688492],[-97.57659782,35.3976232100001],[-97.57699425,35.3983415100001],[-97.57717454,35.3986979100001],[-97.5773503399999,35.39920456],[-97.5774333799999,35.3997865000001],[-97.5774453399999,35.4003949800001],[-97.57719281,35.4024541900001],[-97.5770280899999,35.4037730700001],[-97.57699297,35.4046973700001],[-97.5770060199999,35.4053968500001],[-97.57706583,35.4061812100001],[-97.5771435199999,35.40674476],[-97.57719047,35.40698436],[-97.5758794499999,35.4067323200001],[-97.5751831699999,35.40660646],[-97.57499551,35.40656763],[-97.57431631,35.40639349],[-97.57384928,35.40630716],[-97.57354549,35.4062577400001],[-97.5732781899999,35.4061972],[-97.57217803,35.40618005],[-97.56947289,35.4061719100001],[-97.56554569,35.4061608800001],[-97.5567994899999,35.40618813],[-97.55102361,35.40620569],[-97.54791437,35.4062150300001],[-97.5434639599999,35.40622023],[-97.53904543,35.40622484],[-97.53698583,35.40622698],[-97.53470241,35.4062293100001],[-97.53242066,35.4062318700001],[-97.53016409,35.40623394],[-97.53012759,35.4042907200001],[-97.53011979,35.4004454500001],[-97.5300826599999,35.39133301],[-97.52125096,35.3914069100001],[-97.5200531,35.3914358600001],[-97.5170982499999,35.39174748],[-97.51600553,35.3918647200001],[-97.5139950499999,35.3919573200001],[-97.5124388899999,35.3919841700001]]]},"properties":{"FID":1,"Name":"5 -Matt Hinkle","FolderPath":"OKC Council Wards.kmz/OKC Council Wards","SymbolID":0,"AltMode":0,"Base":0,"Clamped":-1,"Extruded":0,"Snippet":" ","PopupInfo":"<html><head><meta http-equiv=\"Content-Type\" content=\"text/html\"><meta http-equiv=\"content-type\" content=\"text/html; charset=UTF-8\"></head><body><table><tr><td><p style=\"font-weight:600; white-space:\"no-wrap\"\">Object ID</p></td><td>413</td></tr><tr><td><p","Shape_Leng":0.419300838911,"Shape_Area":0.00772224251517,"Shape__Area":117318074.96875,"Shape__Length":52356.366455467476}},{"type":"Feature","id":2,"geometry":{"type":"Polygon","coordinates":[[[-97.61192572,35.55608017],[-97.61168852,35.5561200600001],[-97.61113141,35.5557207200001],[-97.61093562,35.55508475],[-97.6107910099999,35.5543771700001],[-97.61024591,35.5539580600001],[-97.6098076,35.5540758500001],[-97.6092860699999,35.5562800000001],[-97.6077537199999,35.55633457],[-97.60785814,35.55734842],[-97.6071626999999,35.55782306],[-97.6067948199999,35.55844783],[-97.60595418,35.5587729500001],[-97.6044198499999,35.55921498],[-97.60343492,35.5592117],[-97.60357347,35.5577253800001],[-97.60308266,35.5567065700001],[-97.60238908,35.5573852100001],[-97.6020878099999,35.55752898],[-97.6011545599999,35.5575953600001],[-97.60056015,35.5578010500001],[-97.59982353,35.55847328],[-97.59968331,35.55881263],[-97.59898451,35.5591967600001],[-97.5968486299999,35.5592642400001],[-97.59586608,35.5584425100001],[-97.59491875,35.55731129],[-97.5951510899999,35.55644836],[-97.59535943,35.55471313],[-97.59532752,35.5538187500001],[-97.59538479,35.55255889],[-97.5975661799999,35.55114355],[-97.59680293,35.5506044000001],[-97.59479666,35.55062739],[-97.59524729,35.5480951600001],[-97.59462066,35.5463632],[-97.59505171,35.54485251],[-97.59405708,35.5454679200001],[-97.59387075,35.54624231],[-97.59418879,35.5482406],[-97.59385747,35.5488356400001],[-97.59220725,35.5505589100001],[-97.58884369,35.5520675700001],[-97.58349652,35.55346876],[-97.58345272,35.55205264],[-97.58341935,35.5509160500001],[-97.58341526,35.55011153],[-97.58341383,35.5468874900001],[-97.5829921499999,35.54671603],[-97.58266961,35.54658543],[-97.58231398,35.54648381],[-97.58209534,35.54642133],[-97.58178193,35.5463537200001],[-97.57971491,35.5459846900001],[-97.5787885,35.5458206800001],[-97.57842736,35.54575142],[-97.57825045,35.54570821],[-97.5779947199999,35.54563175],[-97.57774948,35.5455418700001],[-97.57678264,35.5451203100001],[-97.5752625099999,35.5444541800001],[-97.57529054,35.54486884],[-97.57535365,35.5453240000001],[-97.57561385,35.54613535],[-97.5763793899999,35.5479333700001],[-97.57664278,35.5486551700001],[-97.57679166,35.5497957900001],[-97.57679035,35.5504191200001],[-97.5766166,35.5514182100001],[-97.5764051899999,35.55210535],[-97.57613975,35.5527728000001],[-97.57555741,35.5536707],[-97.57413653,35.5554653],[-97.5736458599999,35.55624979],[-97.5731147699999,35.55761076],[-97.57295025,35.55838351],[-97.5728978,35.5591956600001],[-97.57290477,35.5598989700001],[-97.57306525,35.5608781],[-97.57351804,35.56214234],[-97.5744633199999,35.56436024],[-97.57493353,35.5657706800001],[-97.57202754,35.56577399],[-97.57202717,35.5655926700001],[-97.56726321,35.56559794],[-97.56726402,35.56557295],[-97.56715307,35.5655725400001],[-97.56268815,35.56555372],[-97.5626961999999,35.5593354700001],[-97.56416667,35.5593447200001],[-97.56415795,35.5592183200001],[-97.56414584,35.5590979500001],[-97.5641326199999,35.55899406],[-97.56411672,35.5588904300001],[-97.56409748,35.5587815700001],[-97.5640775099999,35.55868424],[-97.56405782,35.5585976400001],[-97.5640338,35.55850085],[-97.56401799,35.5584417200001],[-97.56400447,35.5583936],[-97.55824759,35.5583819500001],[-97.55824985,35.5579767500001],[-97.5582439,35.55747563],[-97.55817129,35.55747482],[-97.55823505,35.5573146200001],[-97.55846473,35.55639681],[-97.55851564,35.55594646],[-97.55723326,35.5559199800001],[-97.55724259,35.55424752],[-97.55824119,35.5542784400001],[-97.55824258,35.55330566],[-97.55834838,35.55332171],[-97.55847311,35.5526554300001],[-97.55823793,35.5525699400001],[-97.55824405,35.55183372],[-97.55765945,35.5516546200001],[-97.55670245,35.5515845800001],[-97.55678468,35.5509464300001],[-97.5569885999999,35.5509689000001],[-97.55694231,35.55053027],[-97.5569364999999,35.55048657],[-97.55692176,35.5504161900001],[-97.55690263,35.5503521100001],[-97.55685583,35.5502434200001],[-97.55680922,35.55016412],[-97.55674683,35.5500795500001],[-97.5566693,35.5499965700001],[-97.5565712699999,35.5499135200001],[-97.55648152,35.5498527400001],[-97.55714328,35.5493348900001],[-97.5571482999999,35.5486755800001],[-97.55680813,35.54867404],[-97.55681162,35.54810868],[-97.5572947799999,35.5476670900001],[-97.55752642,35.5471773],[-97.55752881,35.54717099],[-97.55753257,35.5471594700001],[-97.55753397,35.54714958],[-97.5575340299999,35.54713997],[-97.5575327399999,35.54713007],[-97.5575301,35.54712017],[-97.55752612,35.54711109],[-97.5575218,35.5471014600001],[-97.5575158,35.5470932000001],[-97.5575094599999,35.54708466],[-97.5575014299999,35.54707721],[-97.5574923999999,35.54707058],[-97.55748067,35.5470633900001],[-97.5574685999999,35.54705786],[-97.55746021,35.5470548000001],[-97.5565935399999,35.5467705300001],[-97.5560671699999,35.54646582],[-97.55426727,35.54620277],[-97.5544974699999,35.5453129900001],[-97.55476143,35.5445184000001],[-97.55500985,35.54397648],[-97.5553092499999,35.54345206],[-97.55549816,35.5431525000001],[-97.5558346,35.5424955300001],[-97.5560108399999,35.54193522],[-97.55609707,35.5413611000001],[-97.5561024199999,35.54130617],[-97.5561120099999,35.5411531900001],[-97.55612085,35.5410161400001],[-97.55612947,35.54085711],[-97.5561372399999,35.5406703300001],[-97.55614216,35.5405110100001],[-97.5561455599999,35.54032421],[-97.5561468399999,35.5401552700001],[-97.5562577699999,35.54015293],[-97.55623163,35.5392981800001],[-97.5561861199999,35.53872055],[-97.55618787,35.53858869],[-97.5561789499999,35.5384405900001],[-97.5561648,35.53832598],[-97.55613901,35.5381901700001],[-97.55609884,35.5380397500001],[-97.55606513,35.53793907],[-97.55602834,35.53784498],[-97.55598453,35.53774702],[-97.55594065,35.53766059],[-97.5558780699999,35.5375512900001],[-97.5558037599999,35.53743673],[-97.55469255,35.5366075900001],[-97.55113597,35.5366626100001],[-97.55090341,35.53618399],[-97.55024628,35.53619497],[-97.55024675,35.5361122800001],[-97.55011297,35.5361145200001],[-97.5501125,35.5361972100001],[-97.5497104899999,35.5362039200001],[-97.5497225499999,35.53668445],[-97.54751384,35.5367189200001],[-97.54750476,35.53671888],[-97.54750727,35.53680955],[-97.54474178,35.5368193100001],[-97.54256549,35.53682661],[-97.54078412,35.53683292],[-97.53863673,35.5368408100001],[-97.5361851599999,35.53684912],[-97.5336337699999,35.5368578100001],[-97.52976685,35.5368711300001],[-97.5297591199999,35.53896941],[-97.52975345,35.54049436],[-97.5297467299999,35.5423083100001],[-97.52974029,35.54407638],[-97.52972475,35.5485130500001],[-97.52849581,35.54850824],[-97.52863737,35.5494216600001],[-97.52813829,35.5494224400001],[-97.5281335,35.54979809],[-97.5281255899999,35.54997583],[-97.5281180599999,35.55009783],[-97.5281094599999,35.55021198],[-97.52809829,35.55033727],[-97.52972096,35.5503343200001],[-97.5297146999999,35.5511157],[-97.53143283,35.5511145300001],[-97.54040668,35.5511100200001],[-97.5403913599999,35.55833784],[-97.54493384,35.5583630200001],[-97.5449265399999,35.55899127],[-97.54614552,35.5590019800001],[-97.54616892,35.55861252],[-97.54707042,35.5587014000001],[-97.5492492399999,35.5587110600001],[-97.54924594,35.5596464600001],[-97.54701026,35.55964126],[-97.54577478,35.5595739],[-97.54486912,35.55956522],[-97.54483054,35.5596680900001],[-97.54478187,35.5597706500001],[-97.54472042,35.5598745300001],[-97.5446492499999,35.55997398],[-97.54457208,35.5600640700001],[-97.54452642,35.5601114200001],[-97.54448281,35.5601530100001],[-97.5444466499999,35.56018584],[-97.54441794,35.56020908],[-97.54411999,35.5604568300001],[-97.5439161799999,35.56064423],[-97.5429469699999,35.5605767800001],[-97.5422224499999,35.56057673],[-97.5414433299999,35.56054406],[-97.5403775999999,35.5605399400001],[-97.54033129,35.56557236],[-97.53127197,35.5655397100001],[-97.5300682,35.56555638],[-97.52885844,35.5655606600001],[-97.5251861899999,35.5655658200001],[-97.52474922,35.5655643600001],[-97.51399936,35.56556849],[-97.51399457,35.56035167],[-97.5138511699999,35.55112739],[-97.5139368,35.5441196300001],[-97.5140135399999,35.53877856],[-97.51402331,35.53685447],[-97.51404744,35.53538344],[-97.5140399799999,35.5348999],[-97.51399206,35.5342192200001],[-97.51397245,35.53401805],[-97.51393805,35.53381764],[-97.51389009,35.5336372200001],[-97.51377042,35.53314773],[-97.51372609,35.53297695],[-97.51369334,35.53283671],[-97.5136726599999,35.53270146],[-97.51364991,35.53257582],[-97.5136308,35.53245816],[-97.51361769,35.53234877],[-97.51360464,35.5322294900001],[-97.5135976299999,35.53211215],[-97.5135942799999,35.53200088],[-97.51359712,35.53186738],[-97.5136098999999,35.53170012],[-97.5136226399999,35.53154084],[-97.51373298,35.5308665800001],[-97.5138795399999,35.53009302],[-97.51397901,35.5295445300001],[-97.5140852,35.5289977300001],[-97.51434686,35.5276474500001],[-97.51457478,35.5265371400001],[-97.51463072,35.5263464400001],[-97.51469389,35.5261832400001],[-97.5147525799999,35.52603815],[-97.51480811,35.52591475],[-97.51487009,35.52578012],[-97.51516944,35.5251879400001],[-97.5153563699999,35.5248428300001],[-97.5157897299999,35.5240407700001],[-97.51586723,35.5238971300001],[-97.51589918,35.5238376500001],[-97.5166196,35.5224680800001],[-97.5166958999999,35.52232701],[-97.51682263,35.52208613],[-97.5170772699999,35.5216021300001],[-97.51719711,35.5213583600001],[-97.51746401,35.52081229],[-97.5177059,35.52017607],[-97.51772246,35.51982709],[-97.5177205799999,35.51965894],[-97.5177108299999,35.51936529],[-97.51759738,35.5188344600001],[-97.51741924,35.5184002600001],[-97.51723843,35.51785283],[-97.51714902,35.51758105],[-97.51710185,35.51743718],[-97.51622888,35.5147889],[-97.5157452399999,35.5133229400001],[-97.51540586,35.51233504],[-97.5151377,35.51140567],[-97.51481165,35.50966838],[-97.51463503,35.5083311500001],[-97.51432773,35.50655465],[-97.5141167799999,35.5053955700001],[-97.5140553,35.50396787],[-97.51397762,35.50216814],[-97.5137896099999,35.4973759800001],[-97.51376215,35.49686846],[-97.51369683,35.49639842],[-97.5135139499999,35.49565318],[-97.51338147,35.4952358900001],[-97.51326512,35.4948711400001],[-97.5129487999999,35.4941943000001],[-97.51239285,35.4932096200001],[-97.51374369,35.4932453800001],[-97.51586616,35.49327631],[-97.51731395,35.49327836],[-97.52102074,35.49328623],[-97.5240682,35.4932806300001],[-97.52584025,35.49326574],[-97.52869115,35.4932694],[-97.5299101699999,35.49327424],[-97.53153585,35.4932422000001],[-97.5399260299999,35.49324177],[-97.54556375,35.49323437],[-97.54681224,35.4932542500001],[-97.55108283,35.4932377900001],[-97.5552691,35.4932236000001],[-97.55655789,35.49318364],[-97.55945998,35.49316313],[-97.56274741,35.4931338000001],[-97.5656280599999,35.49316278],[-97.57008059,35.4931666300001],[-97.57453959,35.4932192300001],[-97.57889678,35.4932762500001],[-97.58334509,35.4933185900001],[-97.58555827,35.4933069300001],[-97.5867952899999,35.493312],[-97.5907907699999,35.4933190300001],[-97.59381804,35.4933181700001],[-97.5948785199999,35.49331987],[-97.5966797299999,35.49331364],[-97.59933888,35.4933069800001],[-97.6011154,35.49330903],[-97.60111463,35.4930615000001],[-97.60110789,35.49112746],[-97.60111044,35.4902170500001],[-97.60110138,35.48968132],[-97.60246521,35.4896644500001],[-97.60302515,35.48965752],[-97.6036706099999,35.48965265],[-97.6045139,35.4896558500001],[-97.6055485099999,35.4896514000001],[-97.60616363,35.48965409],[-97.60672247,35.4896525500001],[-97.60719131,35.48965027],[-97.6084658999999,35.4896439400001],[-97.6092667899999,35.48964619],[-97.61004625,35.4896558200001],[-97.6100460799999,35.4874248],[-97.6100384599999,35.48603116],[-97.61448597,35.48604111],[-97.61897212,35.4860251100001],[-97.62778664,35.4860647300001],[-97.62780958,35.48613694],[-97.62782617,35.4896738100001],[-97.62345754,35.4896651700001],[-97.6234416299999,35.49330129],[-97.62728364,35.4933213100001],[-97.6272752099999,35.49511722],[-97.62783619,35.49511898],[-97.6278126399999,35.5005646500001],[-97.61885949,35.5005100000001],[-97.618796,35.50789495],[-97.61003233,35.50791163],[-97.61006872,35.51503188],[-97.60132888,35.5150572200001],[-97.60133225,35.52219212],[-97.60284404,35.52218886],[-97.6028444899999,35.52232622],[-97.61004318,35.52231041],[-97.6100464899999,35.5233048700001],[-97.61079251,35.5233032],[-97.61078919,35.52230874],[-97.61449899,35.5223004000001],[-97.61450574,35.53682417],[-97.61005949,35.53682259],[-97.61006993,35.5498348300001],[-97.61391953,35.55030508],[-97.61391731,35.55108935],[-97.61380951,35.55109696],[-97.61378782,35.5516161100001],[-97.61322023,35.5552697900001],[-97.61332421,35.55597513],[-97.6126619999999,35.55600181],[-97.6123466399999,35.55607633],[-97.61192572,35.55608017]],[[-97.59007063,35.5122187600001],[-97.5900753499999,35.51156467],[-97.58561164,35.51157335],[-97.5856214999999,35.5150255],[-97.59217842,35.5150124900001],[-97.59218495,35.5130219000001],[-97.5919416899999,35.51302106],[-97.5909764799999,35.5128042800001],[-97.59007063,35.5122187600001]]]},"properties":{"FID":2,"Name":"2 - James Cooper","FolderPath":"OKC Council Wards.kmz/OKC Council Wards","SymbolID":1,"AltMode":0,"Base":0,"Clamped":-1,"Extruded":0,"Snippet":" ","PopupInfo":"<html><head><meta http-equiv=\"Content-Type\" content=\"text/html\"><meta http-equiv=\"content-type\" content=\"text/html; charset=UTF-8\"></head><body><table><tr><td><p style=\"font-weight:600; white-space:\"no-wrap\"\">Object ID</p></td><td>414</td></tr><tr><td><p","Shape_Leng":0.613124591149,"Shape_Area":0.0061393808643,"Shape__Area":93477691.69921875,"Shape__Length":75150.8797569086}},{"type":"Feature","id":3,"geometry":{"type":"Polygon","coordinates":[[[-97.70961933,35.6384567900001],[-97.6768944199999,35.6385341600001],[-97.65629523,35.63853084],[-97.6562871199999,35.6205135500001],[-97.65629209,35.60989499],[-97.6562347399999,35.59467596],[-97.63848383,35.5946035200001],[-97.638434,35.58742764],[-97.63843637,35.58007817],[-97.63197487,35.58011438],[-97.62065853,35.58013429],[-97.6122234699999,35.58014882],[-97.60952687,35.5801383400001],[-97.6104761299999,35.5791244500001],[-97.61170564,35.5778057000001],[-97.61347762,35.57590987],[-97.61467898,35.5746190200001],[-97.6155960199999,35.5736341],[-97.61628759,35.5728910300001],[-97.61649914,35.57267248],[-97.6166872699999,35.5724302400001],[-97.61675059,35.5723392400001],[-97.61686044,35.5721527800001],[-97.61690083,35.5720732400001],[-97.61700182,35.5718417100001],[-97.6170606199999,35.57164025],[-97.61709218,35.5715115100001],[-97.61713072,35.5712597200001],[-97.61713481,35.57103886],[-97.61712671,35.5690943700001],[-97.61713303,35.56562661],[-97.6171168,35.5628579400001],[-97.61709455,35.56266227],[-97.61706012,35.56248222],[-97.61701848,35.56233209],[-97.61694912,35.5621439600001],[-97.61686265,35.5619483500001],[-97.61670725,35.56168495],[-97.61638573,35.5612899600001],[-97.61590397,35.5608705600001],[-97.6146655699999,35.5598660200001],[-97.61431924,35.5595316600001],[-97.6141725099999,35.55935427],[-97.61402329,35.5591364800001],[-97.61387733,35.5588703500001],[-97.61377364,35.5586244200001],[-97.6137266699999,35.5584663000001],[-97.61337901,35.5563341800001],[-97.6132220099999,35.5552698000001],[-97.61326715,35.55488194],[-97.6137896,35.5516161200001],[-97.6138112899999,35.5510969700001],[-97.61391909,35.55108935],[-97.61899987,35.5511052100001],[-97.62339145,35.5511095900001],[-97.62339051,35.54854536],[-97.62355768,35.54838189],[-97.6239417199999,35.54813503],[-97.6239981899999,35.5479217600001],[-97.62401181,35.5476726300001],[-97.6239414899999,35.54761691],[-97.62376935,35.5474806600001],[-97.62364608,35.54724923],[-97.62391834,35.5466138400001],[-97.62481121,35.5461713400001],[-97.62562589,35.54576761],[-97.6272920499999,35.54399514],[-97.62784494,35.54400292],[-97.6278128599999,35.54045153],[-97.62459634,35.54043152],[-97.6245903399999,35.53701098],[-97.62907912,35.53704815],[-97.63220204,35.5370738],[-97.63220167,35.53693644],[-97.6338327,35.53694999],[-97.63562337,35.5369645700001],[-97.63562517,35.5375247200001],[-97.63450703,35.5375086500001],[-97.63449451,35.5392778],[-97.63657564,35.5392921500001],[-97.6365677699999,35.5369735],[-97.6366786899999,35.5369732900001],[-97.64109111,35.53694907],[-97.64550286,35.5369249600001],[-97.64550192,35.5368343000001],[-97.63678954,35.5368820200001],[-97.63678135,35.5304021800001],[-97.6367713399999,35.52247792],[-97.65431246,35.52241833],[-97.65431246,35.52232135],[-97.65685975,35.5222916500001],[-97.6582704899999,35.5201705],[-97.66076157,35.51776045],[-97.6632044899999,35.51539681],[-97.66321035,35.51512403],[-97.66236263,35.5151186000001],[-97.6623652499999,35.5145013100001],[-97.66313863,35.5131019],[-97.66315235,35.5077298300001],[-97.66314327,35.50474573],[-97.66312028,35.50040245],[-97.66312313,35.49812677],[-97.66312024,35.49717574],[-97.6631083,35.4932509600001],[-97.65947331,35.49326477],[-97.65947268,35.49458588],[-97.65880084,35.4945856000001],[-97.6587996,35.4969083400001],[-97.6542598199999,35.4969125100001],[-97.65426194,35.4932639900001],[-97.65427059,35.4896561400001],[-97.64546181,35.4896911500001],[-97.6454645599999,35.48606598],[-97.64198709,35.4860799900001],[-97.63664811,35.48610168],[-97.63664298,35.4788540500001],[-97.65429441,35.4787839800001],[-97.66278784,35.47877627],[-97.67144188,35.47875714],[-97.68895331,35.4788166800001],[-97.70185872,35.47883689],[-97.7123970099999,35.47886536],[-97.72449962,35.47889819],[-97.72450823,35.4787592000001],[-97.72451893,35.48613099],[-97.72452721,35.49342778],[-97.71573818,35.4933801400001],[-97.7158204,35.50785355],[-97.71585891,35.5151191000001],[-97.706892,35.51509208],[-97.70692703,35.52235131],[-97.7068491699999,35.5303300200001],[-97.70678682,35.53674508],[-97.7068275399999,35.55110496],[-97.70955143,35.55110561],[-97.72725186,35.55110718],[-97.7438083499999,35.5511061300001],[-97.76015477,35.5510872400001],[-97.76285005,35.55110226],[-97.76882896,35.55110031],[-97.77080423,35.5510994700001],[-97.78057468,35.55109566],[-97.79516093,35.55108847],[-97.79849159,35.55108647],[-97.79845278,35.55590907],[-97.79837387,35.5656592],[-97.7984190499999,35.58016546],[-97.7984763899999,35.59465635],[-97.79845046,35.6010198600001],[-97.79841777,35.6091151800001],[-97.7983563499999,35.62347649],[-97.7983616499999,35.6308848200001],[-97.7902193199999,35.63094821],[-97.78070718,35.6309760400001],[-97.77290211,35.63096018],[-97.76909188,35.63095209],[-97.76303652,35.6309358600001],[-97.75851039,35.6309289700001],[-97.75851194,35.6289315600001],[-97.75851249,35.6282281100001],[-97.7585147199999,35.62535036],[-97.75851599,35.6237190300001],[-97.74538891,35.62382266],[-97.72748331,35.6236794000001],[-97.7275480499999,35.6384184400001],[-97.70961933,35.6384567900001]],[[-97.66326362,35.5222088900001],[-97.6632254199999,35.51616635],[-97.6611494,35.51820624],[-97.65892851,35.52038832],[-97.65758226,35.5222852200001],[-97.66326362,35.5222088900001]]]},"properties":{"FID":3,"Name":"1 - Bradley Carter","FolderPath":"OKC Council Wards.kmz/OKC Council Wards","SymbolID":2,"AltMode":0,"Base":0,"Clamped":-1,"Extruded":0,"Snippet":" ","PopupInfo":"<html><head><meta http-equiv=\"Content-Type\" content=\"text/html\"><meta http-equiv=\"content-type\" content=\"text/html; charset=UTF-8\"></head><body><table><tr><td><p style=\"font-weight:600; white-space:\"no-wrap\"\">Object ID</p></td><td>415</td></tr><tr><td><p","Shape_Leng":0.854034356135,"Shape_Area":0.017959138642,"Shape__Area":273602411.68359375,"Shape__Length":104031.318809829}},{"type":"Feature","id":4,"geometry":{"type":"Polygon","coordinates":[[[-97.5584860499999,35.67489858],[-97.5496226399999,35.67483965],[-97.53182695,35.67480805],[-97.5316372,35.6748078300001],[-97.5228967,35.67480499],[-97.52288954,35.66798307],[-97.52279996,35.65296957],[-97.52271086,35.63845056],[-97.53159225,35.63848447],[-97.53167407,35.63255358],[-97.5316929899999,35.62986497],[-97.53165685,35.62607232],[-97.5316319899999,35.6258936500001],[-97.53157344,35.62566623],[-97.5312750999999,35.6247373200001],[-97.53124178,35.6245108200001],[-97.5312230499999,35.6242077300001],[-97.5312331,35.62353141],[-97.5312417599999,35.62275069],[-97.5312738699999,35.62249752],[-97.53137244,35.6220449000001],[-97.5314806599999,35.6216673100001],[-97.53162282,35.6211250200001],[-97.5316967799999,35.6206791700001],[-97.5317080199999,35.62048609],[-97.53167307,35.61632174],[-97.53161878,35.6090529800001],[-97.5325197399999,35.60904967],[-97.53587861,35.6091120300001],[-97.5388706099999,35.6094920300001],[-97.5404510399999,35.6096509000001],[-97.54163661,35.60968803],[-97.54793964,35.60972601],[-97.55835423,35.6098148500001],[-97.5671616,35.6098370600001],[-97.56717041,35.59472264],[-97.5671662999999,35.58493931],[-97.56716477,35.58022759],[-97.57157854,35.5802205100001],[-97.57608512,35.58021304],[-97.57608722,35.57478597],[-97.57497396,35.57294769],[-97.5756800999999,35.57294692],[-97.57517061,35.5704484500001],[-97.57492227,35.56922918],[-97.57473326,35.5686722],[-97.57440852,35.56815951],[-97.57374139,35.56754312],[-97.57374259,35.56731977],[-97.57519238,35.5673249700001],[-97.57527744,35.56732527],[-97.5760810099999,35.56732814],[-97.57608934,35.56577051],[-97.57493676,35.5657718900001],[-97.57446655,35.56436144],[-97.5735212699999,35.5621435400001],[-97.57306848,35.5608793000001],[-97.572908,35.5599001700001],[-97.57290103,35.55919687],[-97.57295348,35.55838471],[-97.573118,35.55761197],[-97.5736490899999,35.55625099],[-97.57413976,35.55546651],[-97.57556064,35.5536719],[-97.57614298,35.5527740000001],[-97.57640842,35.55210656],[-97.57661983,35.5514194100001],[-97.5767935799999,35.5504203300001],[-97.57679489,35.5497969900001],[-97.57664601,35.5486563800001],[-97.5763826199999,35.5479345800001],[-97.57561708,35.54613655],[-97.57535688,35.5453252],[-97.57529377,35.54487004],[-97.57526574,35.5444553900001],[-97.57678588,35.5451215100001],[-97.57775271,35.5455430800001],[-97.5779979499999,35.54563296],[-97.57825368,35.54570941],[-97.57843059,35.54575262],[-97.5789008899999,35.5458406600001],[-97.57926133,35.5459047100001],[-97.57971491,35.5459846900001],[-97.5800329899999,35.54604148],[-97.58047229,35.54611992],[-97.5808636099999,35.5461894600001],[-97.58120194,35.5462495800001],[-97.58161576,35.5463231200001],[-97.58175354,35.5463476],[-97.58193139,35.5463859600001],[-97.58209534,35.54642133],[-97.58235984,35.54649691],[-97.58256146,35.54655453],[-97.58266961,35.54658543],[-97.58341561,35.5468874900001],[-97.5834179399999,35.5508704800001],[-97.58349829,35.55346877],[-97.58884692,35.5520687800001],[-97.59221049,35.55056011],[-97.5938606999999,35.54883685],[-97.59419202,35.5482418],[-97.59387398,35.5462435200001],[-97.59406031,35.5454691200001],[-97.59505494,35.54485372],[-97.59462389,35.54636441],[-97.59525052,35.5480963700001],[-97.59479989,35.55062859],[-97.59680616,35.55060561],[-97.5975694099999,35.55114476],[-97.59538802,35.55256009],[-97.59533075,35.55381996],[-97.59536267,35.55471433],[-97.5951543199999,35.55644957],[-97.59492199,35.5573124900001],[-97.5958693099999,35.5584437200001],[-97.5968518599999,35.55926544],[-97.59898774,35.5591979600001],[-97.5996865399999,35.55881384],[-97.59982676,35.55847448],[-97.60056338,35.5578022500001],[-97.60115779,35.55759656],[-97.6020910399999,35.5575301900001],[-97.60239231,35.5573864200001],[-97.60308589,35.5567077700001],[-97.6035767,35.55772658],[-97.60343815,35.5592129],[-97.6044230799999,35.5592161800001],[-97.60595741,35.55877415],[-97.6067980499999,35.55844904],[-97.60716593,35.5578242600001],[-97.60786138,35.55734962],[-97.60781794,35.55682009],[-97.60775695,35.55633577],[-97.6092893,35.5562812000001],[-97.6098108299999,35.55407706],[-97.61024914,35.55395926],[-97.61079424,35.55437837],[-97.6109374,35.55508475],[-97.61113464,35.5557219200001],[-97.61169175,35.55612126],[-97.61192895,35.5560813800001],[-97.6123498699999,35.55607753],[-97.61266523,35.55600301],[-97.61332599,35.55597513],[-97.61337901,35.5563341800001],[-97.6137266699999,35.5584663000001],[-97.61377364,35.5586244200001],[-97.61387733,35.5588703500001],[-97.61402329,35.5591364800001],[-97.6141725099999,35.55935427],[-97.61431924,35.5595316600001],[-97.6146655699999,35.5598660200001],[-97.61590397,35.5608705600001],[-97.61638573,35.5612899600001],[-97.61670725,35.56168495],[-97.61686265,35.5619483500001],[-97.61694912,35.5621439600001],[-97.61701848,35.56233209],[-97.61706012,35.56248222],[-97.61709455,35.56266227],[-97.6171168,35.5628579400001],[-97.61713303,35.56562661],[-97.61712671,35.5690943700001],[-97.61713481,35.57103886],[-97.61713072,35.5712597200001],[-97.61709218,35.5715115100001],[-97.6170606199999,35.57164025],[-97.61700182,35.5718417100001],[-97.61690083,35.5720732400001],[-97.61686044,35.5721527800001],[-97.61675059,35.5723392400001],[-97.6166872699999,35.5724302400001],[-97.61649914,35.57267248],[-97.61628759,35.5728910300001],[-97.6155960199999,35.5736341],[-97.61467898,35.5746190200001],[-97.61347762,35.57590987],[-97.61170564,35.5778057000001],[-97.6104761299999,35.5791244500001],[-97.60952687,35.5801383400001],[-97.61222381,35.58014882],[-97.62065853,35.58013429],[-97.63197487,35.58011438],[-97.63843637,35.58007817],[-97.638434,35.58742764],[-97.63848383,35.5946035200001],[-97.6562347399999,35.59467596],[-97.65629209,35.60989499],[-97.6562871199999,35.6205135500001],[-97.65629523,35.63853084],[-97.6385290699999,35.63854246],[-97.62071953,35.63854331],[-97.61179036,35.6385433400001],[-97.6028611899999,35.63854271],[-97.59392088,35.63854933],[-97.5939038,35.6603375300001],[-97.59389821,35.6676008100001],[-97.59333366,35.66759834],[-97.5850208099999,35.6675660600001],[-97.58502398,35.66850479],[-97.58501893,35.66946904],[-97.5850214499999,35.67303572],[-97.5850202,35.6739178400001],[-97.58502033,35.67485629],[-97.57608322,35.6748805500001],[-97.5673137699999,35.67495412],[-97.5673157099999,35.67613599],[-97.56731715,35.6779244900001],[-97.56731869,35.6798489500001],[-97.5673195799999,35.6809650100001],[-97.5673199399999,35.6814157100001],[-97.5673203699999,35.6819449600001],[-97.56732052,35.68213116],[-97.5670947399999,35.6821284700001],[-97.56642799,35.68212054],[-97.56577099,35.6821127100001],[-97.56463081,35.68209913],[-97.56297372,35.68207937],[-97.56200074,35.68206775],[-97.5611238499999,35.68205728],[-97.56022065,35.6820464900001],[-97.5585278899999,35.68202624],[-97.5585238899999,35.68101127],[-97.55851697,35.6792587],[-97.55851071,35.67767021],[-97.5585006699999,35.67590348],[-97.55849526,35.6754524300001],[-97.5584860499999,35.67489858]]]},"properties":{"FID":4,"Name":"8 - Mark Stonecipher","FolderPath":"OKC Council Wards.kmz/OKC Council Wards","SymbolID":3,"AltMode":0,"Base":0,"Clamped":-1,"Extruded":0,"Snippet":" ","PopupInfo":"<html><head><meta http-equiv=\"Content-Type\" content=\"text/html\"><meta http-equiv=\"content-type\" content=\"text/html; charset=UTF-8\"></head><body><table><tr><td><p style=\"font-weight:600; white-space:\"no-wrap\"\">Object ID</p></td><td>416</td></tr><tr><td><p","Shape_Leng":0.583758519562,"Shape_Area":0.00963663750385,"Shape__Area":146902383.09375,"Shape__Length":72574.56698099476}},{"type":"Feature","id":5,"geometry":{"type":"Polygon","coordinates":[[[-97.21232983,35.6716702900001],[-97.21232208,35.6668628100001],[-97.20872356,35.66685926],[-97.20344345,35.6668531400001],[-97.20347977,35.6593899000001],[-97.2035148099999,35.65222061],[-97.20354998,35.6449711000001],[-97.20355332,35.6421274300001],[-97.2035847,35.6377990600001],[-97.2133758799999,35.6378667000001],[-97.21581029,35.6319580300001],[-97.21588704,35.6317854600001],[-97.21596178,35.63161233],[-97.2160341599999,35.63143863],[-97.2161055399999,35.6312643800001],[-97.21617357,35.6310895500001],[-97.21624058,35.63091444],[-97.2163052499999,35.6307382200001],[-97.2163672299999,35.6305617],[-97.21642819,35.6303854600001],[-97.21648715,35.6302081000001],[-97.21654309,35.6300301700001],[-97.2165976799999,35.62985196],[-97.21664992,35.62967373],[-97.21669947,35.6294949300001],[-97.21674768,35.62931531],[-97.21679354,35.6291353900001],[-97.2168377199999,35.62895546],[-97.2168791999999,35.62877524],[-97.21691901,35.62859446],[-97.21693105,35.62853464],[-97.21815116,35.62341959],[-97.2181788999999,35.62330246],[-97.21821363,35.62323086],[-97.2182451799999,35.6231657800001],[-97.21828537,35.62308283],[-97.21835664,35.62291874],[-97.2184295799999,35.6227554800001],[-97.21850589,35.6225925200001],[-97.2186103,35.62237672],[-97.2186929699999,35.622216],[-97.21875055,35.62210951],[-97.2201209899999,35.6197836100001],[-97.21229418,35.6197254300001],[-97.21226174,35.61608262],[-97.2226380399999,35.6161467900001],[-97.22693728,35.6088509200001],[-97.22877895,35.60575738],[-97.22887875,35.6055956600001],[-97.2289688399999,35.60542949],[-97.2290485299999,35.6052602300001],[-97.22911716,35.6050873200001],[-97.22917604,35.6049127],[-97.22922184,35.60473525],[-97.2292585599999,35.6045560900001],[-97.22928353,35.6043754900001],[-97.2292963899999,35.6041948000001],[-97.22929916,35.6040132200001],[-97.22928982,35.60383212],[-97.2292693799999,35.6036509400001],[-97.2291713,35.6028058000001],[-97.22913306,35.60262121],[-97.22910723,35.60244082],[-97.22909284,35.60225996],[-97.22908956,35.6020789],[-97.22909738,35.6018973500001],[-97.22911697,35.6017164400001],[-97.2291466299999,35.60153696],[-97.22918839,35.6013586600001],[-97.22924124,35.60118208],[-97.2293044799999,35.60100858],[-97.22937914,35.6008373600001],[-97.22946386,35.60066978],[-97.22991881,35.59975158],[-97.2322555699999,35.5945087200001],[-97.2323224099999,35.59434459],[-97.2324839199999,35.59402613],[-97.2326863,35.59372331],[-97.23292651,35.59343915],[-97.2332024999999,35.59317664],[-97.23350885,35.59293961],[-97.23384486,35.59273051],[-97.2339621899999,35.5926664300001],[-97.23453826,35.59236163],[-97.23491152,35.5922313400001],[-97.23533183,35.5920345000001],[-97.23561427,35.59190289],[-97.23594173,35.5917077500001],[-97.2362495399999,35.5914924200001],[-97.2365369999999,35.5912588200001],[-97.23680243,35.5910083300001],[-97.2370431099999,35.59074257],[-97.23725971,35.59046291],[-97.23744886,35.5901701700001],[-97.23761086,35.58986681],[-97.2377450399999,35.58955394],[-97.23785994,35.58921594],[-97.2379612399999,35.58889516],[-97.23805849,35.5885738100001],[-97.23815072,35.58825132],[-97.2382378999999,35.5879282500001],[-97.23832106,35.58760406],[-97.23839952,35.58727929],[-97.2384719299999,35.5869533800001],[-97.2385406399999,35.58662717],[-97.23860466,35.58630011],[-97.23866263,35.5859721800001],[-97.23871689,35.5856442300001],[-97.23876612,35.58531543],[-97.23884937,35.58498189],[-97.23894225,35.58466024],[-97.2390478899999,35.5843403100001],[-97.2390859,35.58423451],[-97.2392010899999,35.58404184],[-97.23935536,35.5837359600001],[-97.23950159,35.583427],[-97.2396377599999,35.58311496],[-97.23976419,35.58280094],[-97.23984491,35.58258991],[-97.23988258,35.5824841100001],[-97.2405043099999,35.58010485],[-97.24068606,35.57935161],[-97.24075256,35.5791144],[-97.24080638,35.5789370000001],[-97.24086391,35.57875962],[-97.2409257899999,35.57858336],[-97.24099136,35.57840823],[-97.24106095,35.57823395],[-97.24113357,35.5780602400001],[-97.24120987,35.57788847],[-97.24129054,35.5777170100001],[-97.24137455,35.5775466700001],[-97.2414619199999,35.57737827],[-97.2415536399999,35.5772104500001],[-97.24164804,35.57704457],[-97.24174579,35.57687981],[-97.2418485699999,35.5767164500001],[-97.24195336,35.57655448],[-97.24206149,35.5763944600001],[-97.24217364,35.57623556],[-97.2422884599999,35.5760783200001],[-97.2424079799999,35.57592277],[-97.24252984,35.5757686000001],[-97.24265571,35.57561693],[-97.2439760999999,35.57404484],[-97.24411797,35.57387157],[-97.24425483,35.5736955200001],[-97.244387,35.5735172400001],[-97.24451515,35.5733364600001],[-97.24463896,35.5731534500001],[-97.2447564,35.5729682100001],[-97.24486981,35.5727812900001],[-97.24497787,35.57259242],[-97.2450808999999,35.57240132],[-97.2451799199999,35.57220826],[-97.24682762,35.56866268],[-97.24695307,35.56844672],[-97.24717954,35.56805805],[-97.24737016,35.5678282000001],[-97.24757628,35.5675797800001],[-97.2478431799999,35.5673394400001],[-97.2482037,35.56704749],[-97.24849811,35.56684798],[-97.24881214,35.5666716700001],[-97.24913816,35.56650725],[-97.24948503,35.5663786700001],[-97.24984606,35.5662446900001],[-97.25020054,35.56616396],[-97.25052773,35.5660891],[-97.25082257,35.5660571700001],[-97.25122949,35.56601248],[-97.2582620599999,35.56565549],[-97.26495418,35.56567427],[-97.26495385,35.56658114],[-97.26495126,35.57288386],[-97.26494868,35.5800931700001],[-97.26495433,35.59040499],[-97.2649576699999,35.59458056],[-97.27602684,35.5945968400001],[-97.28265455,35.59460598],[-97.30032958,35.59466573],[-97.31806782,35.59476855],[-97.32697656,35.5946535300001],[-97.32702345,35.5706771700001],[-97.3270337499999,35.5657366],[-97.32704202,35.56139354],[-97.32704811,35.5584562400001],[-97.32595513,35.5584566300001],[-97.3220673499999,35.5584573200001],[-97.3181113199999,35.5584577500001],[-97.30917886,35.5584624700001],[-97.30923132,35.55116364],[-97.3092917,35.53662067],[-97.30046647,35.53667397],[-97.2916173099999,35.5366572400001],[-97.29164894,35.5221566700001],[-97.2828007099999,35.5221417500001],[-97.28286761,35.51492378],[-97.2829181399999,35.50947934],[-97.28513588,35.50949326],[-97.28515301,35.50766617],[-97.2872592799999,35.5076664700001],[-97.29161931,35.50766729],[-97.2950124,35.50766716],[-97.29875457,35.5076670600001],[-97.30044792,35.50766716],[-97.3043310099999,35.5076501400001],[-97.30433835,35.50715733],[-97.30461617,35.50677764],[-97.30494433,35.50632819],[-97.30607953,35.50633566],[-97.30609881,35.505091],[-97.30926551,35.50510946],[-97.3092435899999,35.50762827],[-97.3129979999999,35.50761132],[-97.3180395799999,35.50758956],[-97.32215142,35.50757767],[-97.32623403,35.50756601],[-97.33569414,35.50753855],[-97.33754914,35.50753216],[-97.33902011,35.50752634],[-97.34123697,35.50751834],[-97.3434548499999,35.50751002],[-97.34702307,35.5074964500001],[-97.34790538,35.5074930600001],[-97.3487618199999,35.5074900700001],[-97.3487824699999,35.51111624],[-97.35068057,35.51110906],[-97.35311762,35.51109983],[-97.3531173,35.5129116200001],[-97.35311695,35.5219846100001],[-97.35311515,35.5243084800001],[-97.35311388,35.52598923],[-97.35311216,35.52834441],[-97.3531094799999,35.5328374900001],[-97.37096365,35.53298064],[-97.37095766,35.53182815],[-97.3709511,35.53053555],[-97.3709446399999,35.5293572300001],[-97.37356306,35.5293479900001],[-97.37370479,35.5291891200001],[-97.3737719,35.5291172300001],[-97.3738448,35.52903574],[-97.37391701,35.5289550800001],[-97.37397906,35.5288864500001],[-97.37404176,35.5288186500001],[-97.3740943,35.5287620600001],[-97.37414785,35.52870575],[-97.37420751,35.52864068],[-97.37426885,35.5285759000001],[-97.37434237,35.5284996400001],[-97.3744185799999,35.5284244900001],[-97.37449106,35.5283531700001],[-97.37456387,35.5282824000001],[-97.37463602,35.52821135],[-97.37470916,35.5281405800001],[-97.37477689,35.52807556],[-97.37484529,35.52801026],[-97.37494413,35.5279203900001],[-97.37504196,35.5278308000001],[-97.37513775,35.5277433900001],[-97.37523522,35.5276565400001],[-97.3753698899999,35.52754049],[-97.3754916999999,35.52743509],[-97.37563177,35.5273163200001],[-97.37577484,35.52720005],[-97.37591689,35.52708541],[-97.37606094,35.5269721600001],[-97.37620364,35.52685999],[-97.37791079,35.52553627],[-97.37806194,35.5254170100001],[-97.37821109,35.52529609],[-97.37828855,35.52523138],[-97.37836636,35.5251655800001],[-97.37846518,35.5250773700001],[-97.37856133,35.52498639],[-97.3786521,35.5248959300001],[-97.37873953,35.5248027100001],[-97.37881755,35.5247102600001],[-97.3788932299999,35.5246156000001],[-97.3789703199999,35.52451216],[-97.37904306,35.52440704],[-97.3791046199999,35.5243131400001],[-97.37916182,35.5242175600001],[-97.37922556,35.5241033300001],[-97.3792845899999,35.5239882600001],[-97.3793542499999,35.5238465900001],[-97.37942123,35.5237046300001],[-97.37948582,35.5235667900001],[-97.3795494,35.5234292100001],[-97.3796035299999,35.52329653],[-97.37966572,35.5231658100001],[-97.37973192,35.5230370300001],[-97.3798028099999,35.52290966],[-97.37988074,35.5227847900001],[-97.3799640299999,35.52266215],[-97.380052,35.52254201],[-97.3801443199999,35.52242436],[-97.38029318,35.52225316],[-97.38039551,35.5221449000001],[-97.38866176,35.51782983],[-97.3886619099999,35.5179845000001],[-97.3928182499999,35.51621958],[-97.39391921,35.51566917],[-97.39447935,35.51531571],[-97.39500514,35.5149280100001],[-97.39549286,35.5145088],[-97.39751341,35.51263283],[-97.3975182899999,35.5149116700001],[-97.39961836,35.51491077],[-97.40194085,35.5128615300001],[-97.4019284,35.5085379000001],[-97.4028937099999,35.5076408400001],[-97.406344,35.50443511],[-97.40813706,35.50276606],[-97.40879358,35.5021267600001],[-97.40922634,35.50166876],[-97.4096410399999,35.5011999500001],[-97.41003733,35.50072006],[-97.41466589,35.49490981],[-97.41603466,35.49319103],[-97.42410202,35.49319774],[-97.42402378,35.48532111],[-97.43354146,35.47867526],[-97.43688287,35.47867798],[-97.44158484,35.4786815100001],[-97.4415858199999,35.4782557],[-97.44528894,35.47503576],[-97.44737152,35.47503064],[-97.45261414,35.4719401500001],[-97.45338587,35.47193904],[-97.45403982,35.47138849],[-97.4543420699999,35.4713876800001],[-97.4543439599999,35.47008606],[-97.45434757,35.46858308],[-97.45656353,35.46859325],[-97.4571712599999,35.4668386500001],[-97.45930389,35.46684838],[-97.4593028899999,35.4653676400001],[-97.4593015299999,35.46413661],[-97.45929993,35.4616586300001],[-97.45929924,35.4607240200001],[-97.45907763,35.46072439],[-97.4590749699999,35.45702142],[-97.4592962899999,35.4570141900001],[-97.45929061,35.44975853],[-97.47694238,35.44982393],[-97.4828269,35.44982244],[-97.49462283,35.4498670400001],[-97.4968935699999,35.4498541200001],[-97.50266387,35.4498228],[-97.50502352,35.44981253],[-97.50680385,35.44976775],[-97.51358491,35.4497082],[-97.5149056499999,35.4497297300001],[-97.5161589999999,35.4497202800001],[-97.51615025,35.4509364300001],[-97.516161,35.45192711],[-97.51617473,35.45292577],[-97.51616874,35.4539084200001],[-97.51614158,35.45489482],[-97.51617386,35.45643146],[-97.51616293,35.45899702],[-97.5161829799999,35.4621000500001],[-97.51619461,35.4621753700001],[-97.5162041199999,35.46243365],[-97.5162082799999,35.4632943600001],[-97.51627518,35.4642731800001],[-97.5163102699999,35.46642283],[-97.5161169899999,35.46642675],[-97.51289086,35.4664542900001],[-97.51272345,35.4670691900001],[-97.5126148899999,35.46973668],[-97.51260476,35.4718309900001],[-97.51197905,35.47181313],[-97.51042406,35.4728668600001],[-97.5079550499999,35.4744912400001],[-97.50840157,35.47505626],[-97.50863348,35.47546078],[-97.50896535,35.47610308],[-97.5092029099999,35.47673647],[-97.5093672199999,35.4773209200001],[-97.50943208,35.4775874000001],[-97.50950584,35.4780970300001],[-97.5095858399999,35.4787385600001],[-97.50963173,35.4797917500001],[-97.50967504,35.48017543],[-97.50975076,35.4809111700001],[-97.50979819,35.4811718],[-97.50995027,35.4820537300001],[-97.51017267,35.48286177],[-97.51037144,35.4835263200001],[-97.5107539099999,35.4850677000001],[-97.51086837,35.48578931],[-97.51094811,35.48647644],[-97.51099047,35.48756093],[-97.51098454,35.4890691200001],[-97.51103691,35.48961905],[-97.5110835899999,35.49000275],[-97.51116158,35.4904294300001],[-97.5112879599999,35.49090769],[-97.51136023,35.4911170500001],[-97.51150447,35.49153247],[-97.51168069,35.49193676],[-97.51182572,35.49222361],[-97.51188806,35.49235546],[-97.51239608,35.4932108300001],[-97.51295203,35.4941955100001],[-97.51326835,35.49487234],[-97.51338469,35.4952371000001],[-97.51351718,35.49565439],[-97.51370006,35.49639963],[-97.5137653799999,35.49686967],[-97.51379284,35.4973771900001],[-97.5139808499999,35.5021693400001],[-97.51405853,35.50396908],[-97.51412,35.50539677],[-97.5143309599999,35.50655585],[-97.51463826,35.50833235],[-97.51481488,35.50966958],[-97.51514093,35.51140687],[-97.51540909,35.51233624],[-97.5157484599999,35.5133241500001],[-97.51623211,35.5147901],[-97.5171050699999,35.51743838],[-97.51715225,35.51758225],[-97.51724166,35.51785404],[-97.51742247,35.5184014700001],[-97.51759916,35.5188344700001],[-97.51765693,35.51908813],[-97.51771261,35.51936529],[-97.51772642,35.51978124],[-97.5177076799999,35.5201760800001],[-97.51746579,35.52081229],[-97.5170889,35.52158341],[-97.5166228299999,35.5224692900001],[-97.51590241,35.5238388600001],[-97.51587046,35.5238983400001],[-97.5157929599999,35.52404198],[-97.5153596,35.5248440400001],[-97.51517267,35.5251891500001],[-97.5148733199999,35.5257813200001],[-97.5148113399999,35.5259159600001],[-97.5147558099999,35.5260393500001],[-97.5146971199999,35.5261844400001],[-97.51463395,35.52634764],[-97.514578,35.52653834],[-97.51435008,35.5276486500001],[-97.5140884299999,35.52899893],[-97.51398224,35.5295457400001],[-97.51388277,35.53009422],[-97.5137362,35.53086778],[-97.5136258699999,35.53154204],[-97.51361313,35.53170133],[-97.51360034,35.53186858],[-97.51359751,35.53200208],[-97.51360086,35.53211336],[-97.51360787,35.5322306900001],[-97.5136209199999,35.53234998],[-97.51363403,35.53245937],[-97.51365314,35.53257703],[-97.5136758899999,35.5327026700001],[-97.51369657,35.5328379100001],[-97.51372932,35.5329781500001],[-97.51377365,35.53314894],[-97.51389332,35.53363843],[-97.51394128,35.53381884],[-97.51397568,35.53401925],[-97.51399529,35.5342204300001],[-97.51404321,35.5349011100001],[-97.51405067,35.5353846400001],[-97.51402654,35.5368556700001],[-97.51401677,35.5387797700001],[-97.51394003,35.5441208400001],[-97.5138544,35.5511286],[-97.5138745,35.55268948],[-97.51391043,35.5554790800001],[-97.51392671,35.5567434800001],[-97.51399635,35.56035167],[-97.5140011399999,35.5655685],[-97.5224335,35.56555876],[-97.5251894199999,35.5655670300001],[-97.52919758,35.56556413],[-97.52955393,35.5655665300001],[-97.5312752,35.5655409200001],[-97.54033452,35.5655735600001],[-97.5403003,35.57078004],[-97.54029014,35.5733271300001],[-97.5403214299999,35.5801143300001],[-97.56716477,35.58022759],[-97.5671662999999,35.58493931],[-97.56717041,35.59472264],[-97.56716579,35.6026462500001],[-97.5671616,35.6098370600001],[-97.55835423,35.6098148500001],[-97.54782133,35.60972751],[-97.54163661,35.60968803],[-97.5404510399999,35.6096509000001],[-97.5388706099999,35.6094920300001],[-97.53587861,35.6091120300001],[-97.5325197399999,35.60904967],[-97.53161878,35.6090529800001],[-97.53167307,35.61632174],[-97.5317080199999,35.62048609],[-97.5316967799999,35.6206791700001],[-97.53162282,35.6211250200001],[-97.5314806599999,35.6216673100001],[-97.53137244,35.6220449000001],[-97.5312738699999,35.62249752],[-97.5312417599999,35.62275069],[-97.5312331,35.62353141],[-97.5312230499999,35.6242077300001],[-97.53124178,35.6245108200001],[-97.5312750999999,35.6247373200001],[-97.53157344,35.62566623],[-97.5316319899999,35.6258936500001],[-97.53165685,35.62607232],[-97.5316929899999,35.62986497],[-97.53167407,35.63255358],[-97.53159225,35.63848447],[-97.52271086,35.63845056],[-97.52271135,35.6383582600001],[-97.51709098,35.63833664],[-97.5136557499999,35.63832319],[-97.51358311,35.6235640900001],[-97.49613594,35.62349748],[-97.49610111,35.6163798700001],[-97.4870872399999,35.6162767700001],[-97.4870554999999,35.60901439],[-97.48540253,35.6089935100001],[-97.48209894,35.6089519700001],[-97.4821192699999,35.6140283500001],[-97.47817678,35.61401111],[-97.47818232,35.61603116],[-97.46889032,35.6161716],[-97.4648563599999,35.61623209],[-97.4624704299999,35.6162677500001],[-97.4604101999999,35.61629908],[-97.4604102599999,35.61643809],[-97.45601534,35.61644031],[-97.45383386,35.6164413000001],[-97.45383223,35.6165792],[-97.4532771299999,35.61657583],[-97.45292015,35.6168711600001],[-97.45260402,35.6173405800001],[-97.45161303,35.6176063400001],[-97.45162041,35.6164421],[-97.44283023,35.61644491],[-97.44283154,35.6146317600001],[-97.4428324899999,35.61416172],[-97.44283253,35.6137251800001],[-97.44283684,35.6093299400001],[-97.42944088,35.60934634],[-97.42876819,35.6093747100001],[-97.42506765,35.60937885],[-97.4250636199999,35.6111406200001],[-97.4250569599999,35.6142856000001],[-97.4250521,35.61648775],[-97.3894339999999,35.6165033],[-97.37160224,35.6165071],[-97.37161291,35.61987278],[-97.37162527,35.6237884700001],[-97.36256582,35.62373778],[-97.3605184799999,35.6237256800001],[-97.35377386,35.6236875700001],[-97.3447683699999,35.6236229],[-97.33850969,35.62357754],[-97.3357299199999,35.6235571],[-97.3181549399999,35.62355817],[-97.30042765,35.62358211],[-97.30047454,35.62902],[-97.300552,35.638088],[-97.28306936,35.63804818],[-97.26485344,35.63804137],[-97.2649866,35.6525682600001],[-97.26494263,35.66108144],[-97.26491063,35.66706996],[-97.26487296,35.67432246],[-97.24721926,35.6742552100001],[-97.2299521,35.67418702],[-97.21233347,35.6741145500001],[-97.21232983,35.6716702900001]],[[-97.45347806,35.52862258],[-97.45348683,35.5256905200001],[-97.4506242799999,35.5256951700001],[-97.4475080299999,35.52545572],[-97.4472767299999,35.52542113],[-97.44736451,35.5253616500001],[-97.44738847,35.52534775],[-97.44741243,35.5253333000001],[-97.44743672,35.5253194000001],[-97.44746001,35.5253052200001],[-97.44748364,35.5252905],[-97.4475062499999,35.52527632],[-97.44753022,35.52526105],[-97.44755284,35.5252460400001],[-97.44757546,35.52523104],[-97.44759842,35.52521548],[-97.4476210399999,35.52520021],[-97.44764333,35.52518438],[-97.4476656199999,35.52516827],[-97.4476872399999,35.52515271],[-97.44770919,35.5251366100001],[-97.4477308099999,35.5251205000001],[-97.44775277,35.52510384],[-97.44777372,35.5250874600001],[-97.44779467,35.5250708],[-97.44781596,35.52505359],[-97.4478365799999,35.5250366500001],[-97.44785753,35.5250194400001],[-97.44787748,35.52500223],[-97.44789776,35.52498474],[-97.4479180499999,35.52496725],[-97.447938,35.52494949],[-97.44795829,35.52493145],[-97.44797723,35.5249134000001],[-97.4479965099999,35.5248956400001],[-97.4480158,35.52487705],[-97.44803474,35.5248587300001],[-97.44805335,35.52484013],[-97.4480719699999,35.5248215400001],[-97.44809025,35.52480267],[-97.4481085199999,35.5247838000001],[-97.44812647,35.5247643800001],[-97.44814474,35.52474578],[-97.44816202,35.52472608],[-97.44817896,35.52470665],[-97.44819623,35.52468695],[-97.44821317,35.52466753],[-97.44823045,35.5246478300001],[-97.44824672,35.5246275700001],[-97.44826299,35.5246078700001],[-97.44827892,35.52458761],[-97.44829486,35.52456736],[-97.44831046,35.5245468300001],[-97.44832639,35.5245263],[-97.44834098,35.5245060400001],[-97.44835591,35.5244855],[-97.4483708499999,35.5244644200001],[-97.44838578,35.5244436100001],[-97.44840004,35.5244227900001],[-97.4484143,35.52440171],[-97.44842856,35.5243803400001],[-97.44844181,35.52435898],[-97.44845507,35.52433789],[-97.4484686599999,35.52431597],[-97.44848124,35.5242946000001],[-97.4484941599999,35.5242729600001],[-97.44850675,35.5242513100001],[-97.44851967,35.5242294],[-97.44853125,35.5242072],[-97.44854316,35.52418555],[-97.44855541,35.52416335],[-97.44856632,35.52414115],[-97.44857756,35.5241189500001],[-97.44858847,35.52409648],[-97.44859905,35.52407427],[-97.44860996,35.5240512500001],[-97.44862019,35.5240293200001],[-97.44863043,35.52400656],[-97.44863967,35.5239835300001],[-97.4486499,35.52396105],[-97.44865914,35.5239380200001],[-97.44866769,35.5239155300001],[-97.44867626,35.5238919400001],[-97.4486844799999,35.5238691800001],[-97.44869371,35.52384642],[-97.4487016099999,35.5238231100001],[-97.44870916,35.52380006],[-97.44871705,35.52377675],[-97.44872427,35.5237537100001],[-97.4487314899999,35.52373011],[-97.44873871,35.5237065200001],[-97.44874492,35.52368347],[-97.44875147,35.52365988],[-97.44875734,35.5236360000001],[-97.44876322,35.52361268],[-97.44876843,35.5235888],[-97.4487743,35.5235649300001],[-97.44877951,35.5235416],[-97.44878471,35.5235182800001],[-97.4487892499999,35.5234938500001],[-97.44879344,35.52347052],[-97.44879764,35.52344636],[-97.4488015,35.5234227500001],[-97.44880503,35.52339887],[-97.44880822,35.52337471],[-97.44881141,35.5233513700001],[-97.4488146,35.5233269300001],[-97.44881745,35.52330332],[-97.44881964,35.5232794300001],[-97.44882182,35.5232549900001],[-97.44882333,35.5232311],[-97.44882518,35.5232074800001],[-97.44882635,35.52318304],[-97.44882753,35.5231591400001],[-97.4488287,35.5231349700001],[-97.4488288699999,35.52311079],[-97.4488293699999,35.5230869000001],[-97.44882954,35.52306272],[-97.4488293699999,35.5230388200001],[-97.44882884,35.5230190400001],[-97.4486756699999,35.5223318000001],[-97.44867534,35.52228262],[-97.4486749599999,35.52219224],[-97.4590044399999,35.5221515600001],[-97.4590473599999,35.5168403000001],[-97.45906207,35.51502721],[-97.4591201699999,35.5077819900001],[-97.45912113,35.5076913400001],[-97.45912306,35.5060757200001],[-97.45912968,35.5004200700001],[-97.45500858,35.50042375],[-97.45501152,35.4989680200001],[-97.45502433,35.4971008100001],[-97.4541208799999,35.49708917],[-97.4539872,35.49698607],[-97.4538950099999,35.49706601],[-97.45265108,35.49610663],[-97.45228231,35.4964264000001],[-97.4516085499999,35.4959067400001],[-97.4511947,35.4959048200001],[-97.4511950999999,35.49584659],[-97.45048967,35.4958433200001],[-97.4504822,35.49689878],[-97.44164775,35.4968763100001],[-97.44168192,35.5023258100001],[-97.44169207,35.50398792],[-97.4389002999999,35.5039747600001],[-97.438908,35.50502478],[-97.43997495,35.50503723],[-97.43995543,35.5078030300001],[-97.43283097,35.5078049300001],[-97.4328780499999,35.5223318600001],[-97.43290197,35.52961318],[-97.4373183499999,35.52960534],[-97.44173438,35.5295976100001],[-97.44175807,35.5368847],[-97.45040298,35.5368340800001],[-97.45350163,35.53681569],[-97.4534809,35.5295286200001],[-97.45347806,35.52862258]]]},"properties":{"FID":5,"Name":"7 - Camal Pennington","FolderPath":"OKC Council Wards.kmz/OKC Council Wards","SymbolID":4,"AltMode":0,"Base":0,"Clamped":-1,"Extruded":0,"Snippet":" ","PopupInfo":"<html><head><meta http-equiv=\"Content-Type\" content=\"text/html\"><meta http-equiv=\"content-type\" content=\"text/html; charset=UTF-8\"></head><body><table><tr><td><p style=\"font-weight:600; white-space:\"no-wrap\"\">Object ID</p></td><td>417</td></tr><tr><td><p","Shape_Leng":1.5781341965,"Shape_Area":0.0344730263307,"Shape__Area":525176891.44140625,"Shape__Length":193521.26548484914}},{"type":"Feature","id":6,"geometry":{"type":"Polygon","coordinates":[[[-97.79585801,35.33927764],[-97.79625026,35.3396092],[-97.7987452199999,35.3420268300001],[-97.80151953,35.3438075400001],[-97.8040731299999,35.34485927],[-97.80635151,35.3450904800001],[-97.80952016,35.3447313400001],[-97.81339189,35.34365266],[-97.81980591,35.3397632900001],[-97.82169896,35.33863641],[-97.8222828999999,35.33828879],[-97.82379177,35.3373905400001],[-97.83026559,35.3361074600001],[-97.8305912599999,35.33604282],[-97.8306181,35.34831269],[-97.83065028,35.36280832],[-97.83079646,35.3771686900001],[-97.8307723199999,35.3916634500001],[-97.83072839,35.40615133],[-97.83076553,35.4207014200001],[-97.8308218499999,35.43523149],[-97.83084761,35.44977857],[-97.83089222,35.4644699100001],[-97.83090924,35.4752434800001],[-97.83091338,35.4800829000001],[-97.83089519,35.49256654],[-97.83088286,35.50087835],[-97.8308719,35.5079168600001],[-97.82115422,35.5078905300001],[-97.8129255799999,35.5078676900001],[-97.79527778,35.5078871900001],[-97.79064884,35.5078916900001],[-97.79067436,35.5078357800001],[-97.7906735,35.5076120200001],[-97.79141688,35.50719982],[-97.7918140899999,35.50685709],[-97.79187954,35.5065046300001],[-97.7913763399999,35.50586794],[-97.79104383,35.5055917400001],[-97.79172876,35.5047358200001],[-97.7923064,35.50427689],[-97.7919202799999,35.50382864],[-97.79125292,35.50327014],[-97.79095577,35.5028987000001],[-97.79097328,35.50231502],[-97.78975461,35.50231137],[-97.7777062,35.5022854100001],[-97.7776272199999,35.50228524],[-97.7775841,35.5006220500001],[-97.7776032,35.4952717100001],[-97.77761159,35.49335668],[-97.77764024,35.4861239800001],[-97.7689945399999,35.48614923],[-97.7689359,35.47878533],[-97.76021057,35.4787916500001],[-97.7425213399999,35.4787578900001],[-97.73097172,35.4787591400001],[-97.72450851,35.4787595700001],[-97.72449962,35.47889819],[-97.7123970099999,35.47886536],[-97.70185872,35.47883689],[-97.68895331,35.4788166800001],[-97.67144188,35.47875714],[-97.66278784,35.47877627],[-97.65278169,35.4787900900001],[-97.64645816,35.47881254],[-97.63664299,35.4788540500001],[-97.63664811,35.48610168],[-97.6278113499999,35.48613694],[-97.6277884199999,35.4860647400001],[-97.6189739,35.4860251100001],[-97.61448775,35.48604112],[-97.6100416899999,35.48603237],[-97.61004786,35.4874248100001],[-97.61004948,35.48965702],[-97.6092700199999,35.4896474],[-97.60842188,35.48964419],[-97.6067257,35.4896537500001],[-97.6060723799999,35.48965488],[-97.60494233,35.48965523],[-97.60302837,35.48965873],[-97.6024684399999,35.4896656600001],[-97.60190512,35.48967263],[-97.6011046099999,35.48968252],[-97.60111367,35.49021825],[-97.60111112,35.4911286600001],[-97.60111786,35.4930627100001],[-97.60111863,35.4933102300001],[-97.59934065,35.4933069900001],[-97.5966815099999,35.49331364],[-97.5948802999999,35.49331987],[-97.59381982,35.4933181700001],[-97.5907925499999,35.4933190400001],[-97.58679707,35.4933120100001],[-97.58556005,35.4933069300001],[-97.58334832,35.49331979],[-97.5833372499999,35.48921985],[-97.58333479,35.4880880000001],[-97.5833322,35.4871089000001],[-97.5833297899999,35.4860319900001],[-97.5833278099999,35.48512953],[-97.58332584,35.4842246000001],[-97.58332388,35.4833183000001],[-97.5833281,35.48238619],[-97.58333353,35.4814788100001],[-97.58331815,35.48056862],[-97.58331579,35.47967385],[-97.58331399,35.4787370500001],[-97.58331371,35.47699808],[-97.58329416,35.4763324900001],[-97.5832973,35.4751972500001],[-97.5833127,35.4684221900001],[-97.58332253,35.4658437200001],[-97.5833117399999,35.4642522400001],[-97.5833113299999,35.46151439],[-97.5833155299999,35.46065014],[-97.58331752,35.4602696600001],[-97.58331792,35.4600012600001],[-97.58331894,35.4596150100001],[-97.58332047,35.45836423],[-97.58332575,35.45453962],[-97.58328532,35.44810282],[-97.5833233599999,35.44469123],[-97.58330599,35.43520076],[-97.5833054299999,35.4333238800001],[-97.5833084399999,35.4297124600001],[-97.5833059499999,35.42746443],[-97.58331003,35.42555959],[-97.58330158,35.4246559900001],[-97.58330079,35.42313568],[-97.5833014199999,35.42162976],[-97.58330806,35.42072396],[-97.58328032,35.4191157700001],[-97.58328051,35.4175831800001],[-97.5832805699999,35.4170299400001],[-97.58325558,35.41153117],[-97.58288641,35.41153373],[-97.58249984,35.4114827600001],[-97.5821484899999,35.41138232],[-97.58180196,35.4112409],[-97.5815221,35.4110735400001],[-97.5812284799999,35.41085063],[-97.58099225,35.41057126],[-97.58085121,35.4103609100001],[-97.58065335,35.4098794500001],[-97.58052372,35.4095572200001],[-97.58033712,35.4090856600001],[-97.58007251,35.40844801],[-97.57990554,35.4080754],[-97.5796943299999,35.40780518],[-97.57939572,35.40753942],[-97.57904149,35.4073259300001],[-97.57872599,35.40722465],[-97.5780252499999,35.4070787700001],[-97.57717422,35.40696747],[-97.5771107899999,35.40645992],[-97.5770060199999,35.4053968500001],[-97.57699297,35.4046973700001],[-97.5770280899999,35.4037730700001],[-97.57719281,35.4024541900001],[-97.5774453399999,35.4003949800001],[-97.57744447,35.39986422],[-97.5773503399999,35.39920456],[-97.57717454,35.3986979100001],[-97.57699425,35.3983415100001],[-97.57659782,35.3976232100001],[-97.5760612299999,35.39688492],[-97.57548344,35.39607683],[-97.5746832,35.39483334],[-97.57437358,35.39394874],[-97.5740738699999,35.39165294],[-97.57407339,35.3872324700001],[-97.57407354,35.3860781000001],[-97.57407348,35.38477347],[-97.57407368,35.3831092300001],[-97.57407637,35.3814161600001],[-97.57407935,35.38129969],[-97.57408632,35.38112527],[-97.57409497,35.38095086],[-97.5741063,35.38077645],[-97.57411965,35.38060205],[-97.5741379899999,35.3804328900001],[-97.5741513899999,35.38031124],[-97.57419092,35.37994546],[-97.57422121,35.37973871],[-97.57426707,35.3794424500001],[-97.5742978499999,35.3792697700001],[-97.57433064,35.3790970900001],[-97.57436611,35.3789249700001],[-97.57440326,35.3787531300001],[-97.5744163099999,35.3786960300001],[-97.57445648,35.3785244800001],[-97.57457497,35.37806915],[-97.5747088799999,35.37761662],[-97.5748785499999,35.3771257600001],[-97.57586458,35.3746321100001],[-97.5760542999999,35.37415286],[-97.5793796999999,35.3657591900001],[-97.5805109899999,35.3630767500001],[-97.58133419,35.36099785],[-97.58290597,35.3571051700001],[-97.58503151,35.35186966],[-97.58553016,35.3505753000001],[-97.58635096,35.34852191],[-97.5873438899999,35.34598177],[-97.59088805,35.3371611100001],[-97.59216044,35.3340035200001],[-97.59288193,35.33222584],[-97.59350418,35.3307703400001],[-97.5945711099999,35.32802931],[-97.5948780099999,35.32726939],[-97.59514245,35.32655384],[-97.5954111199999,35.32573116],[-97.59564527,35.32497155],[-97.59589133,35.3240419200001],[-97.59615345,35.32305302],[-97.59637373,35.32205105],[-97.59655534,35.3209393500001],[-97.59678918,35.3194435],[-97.5972057,35.3162859600001],[-97.5980856799999,35.30988341],[-97.59868189,35.30543175],[-97.5989448399999,35.3034604600001],[-97.59908982,35.3034851200001],[-97.6067043899999,35.3025139900001],[-97.61053093,35.3026005300001],[-97.61335824,35.30460313],[-97.61575851,35.3051271300001],[-97.6184276399999,35.3057099100001],[-97.62016746,35.3060899400001],[-97.62776997,35.30905683],[-97.6320897099999,35.3120663600001],[-97.63884522,35.31910585],[-97.64367033,35.3260965800001],[-97.64814238,35.33041116],[-97.65359019,35.33386885],[-97.67131661,35.3339017700001],[-97.6734805199999,35.33612443],[-97.67581461,35.33799808],[-97.67786689,35.3391187400001],[-97.67985945,35.3395131400001],[-97.68232777,35.33957143],[-97.68362763,35.33905652],[-97.6843278699999,35.3380729900001],[-97.68446113,35.3362580300001],[-97.68475331,35.3345212300001],[-97.68558221,35.33286388],[-97.68653428,35.33227],[-97.68840192,35.3321710800001],[-97.6907725,35.3328256200001],[-97.6931768599999,35.3329873600001],[-97.69536276,35.3324224200001],[-97.6960936199999,35.33162048],[-97.69609798,35.3304796],[-97.69509216,35.3287652700001],[-97.69421203,35.3271553700001],[-97.69424836,35.32598847],[-97.69463339,35.3245370500001],[-97.6953643799999,35.32368319],[-97.69698377,35.3222610300001],[-97.6988220699999,35.3214360800001],[-97.70100523,35.3214155100001],[-97.70344025,35.3218103500001],[-97.70457536,35.3228507900001],[-97.70466584,35.32412184],[-97.70345624,35.32606353],[-97.7023741199999,35.32769454],[-97.70189276,35.3294828200001],[-97.70258489,35.33049606],[-97.70438598,35.3313304800001],[-97.70650553,35.33154289],[-97.70879881,35.3312779500001],[-97.71101421,35.33103806],[-97.7199449999999,35.32742997],[-97.72225086,35.3263945100001],[-97.7242456,35.326036],[-97.7264623199999,35.32554857],[-97.72842568,35.325138],[-97.7299133399999,35.32493399],[-97.73187544,35.3248865200001],[-97.73355262,35.3248386600001],[-97.735897,35.3240401],[-97.73754445,35.32344708],[-97.73918915,35.3236842200001],[-97.74076739,35.32477665],[-97.7425991699999,35.32594763],[-97.74449161,35.32776704],[-97.74726749,35.3305220600001],[-97.75061263,35.3334334300001],[-97.75335797,35.3360066600001],[-97.75681681,35.3390546300001],[-97.75873896,35.33935662],[-97.76101507,35.3401351],[-97.76284748,35.3406398600001],[-97.7644559999999,35.34169029],[-97.76916795,35.3458433500001],[-97.7711659999999,35.3467579100001],[-97.77211328,35.3460314600001],[-97.7733952199999,35.3445768400001],[-97.77378863,35.3431202300001],[-97.77346081,35.34120704],[-97.7731879299999,35.33943049],[-97.7734139,35.33801944],[-97.7748066299999,35.33692928],[-97.77625335,35.3362944100001],[-97.7773647,35.3362965000001],[-97.7795311199999,35.33652829],[-97.7813654,35.3364860900001],[-97.78353344,35.3361258],[-97.78603442,35.3359935300001],[-97.7887564599999,35.3363173600001],[-97.79181159,35.33696038],[-97.79419891,35.3378752300001],[-97.7952640299999,35.33877556],[-97.79585801,35.33927764]],[[-97.67151407,35.37701509],[-97.67152822,35.40606968],[-97.77773344,35.4059083500001],[-97.77775619,35.39152977],[-97.77779082,35.3769803600001],[-97.67151407,35.37701509]]]},"properties":{"FID":6,"Name":"3 - Katrina Avers","FolderPath":"OKC Council Wards.kmz/OKC Council Wards","SymbolID":5,"AltMode":0,"Base":0,"Clamped":-1,"Extruded":0,"Snippet":" ","PopupInfo":"<html><head><meta http-equiv=\"Content-Type\" content=\"text/html\"><meta http-equiv=\"content-type\" content=\"text/html; charset=UTF-8\"></head><body><table><tr><td><p style=\"font-weight:600; white-space:\"no-wrap\"\">Object ID</p></td><td>418</td></tr><tr><td><p","Shape_Leng":1.22934939539,"Shape_Area":0.0362026076274,"Shape__Area":550438965.5859375,"Shape__Length":150551.66046033066}},{"type":"Feature","id":7,"geometry":{"type":"Polygon","coordinates":[[[-97.5137386499999,35.44970634],[-97.51382039,35.4470930200001],[-97.51384677,35.44632547],[-97.51390149,35.4445155700001],[-97.51385979,35.44396949],[-97.51376605,35.44351772],[-97.5136012,35.4429068200001],[-97.5134094,35.4424322200001],[-97.51287273,35.4414985700001],[-97.5116393,35.43940996],[-97.5091504,35.43524072],[-97.5085832299999,35.43429517],[-97.5080546199999,35.4333689100001],[-97.50803512,35.43227965],[-97.50803222,35.4312913100001],[-97.50803568,35.4303022],[-97.50804278,35.42931392],[-97.50803181,35.4283256200001],[-97.5120781799999,35.42829032],[-97.51233591,35.42824166],[-97.51249534,35.42818792],[-97.5126458299999,35.42811271],[-97.5128502699999,35.4280528400001],[-97.51353389,35.42801196],[-97.51382011,35.4279075900001],[-97.5140106599999,35.42784263],[-97.5141386399999,35.42781748],[-97.51432343,35.4278115700001],[-97.5161703,35.4277983000001],[-97.53021517,35.4277935000001],[-97.5302020999999,35.42075076],[-97.5301813999999,35.41397722],[-97.53016409,35.40623394],[-97.53242066,35.4062318700001],[-97.53470241,35.4062293100001],[-97.53698583,35.40622698],[-97.53904543,35.40622484],[-97.5434639599999,35.40622023],[-97.54791437,35.4062150300001],[-97.55102361,35.40620569],[-97.5567994899999,35.40618813],[-97.56554569,35.4061608800001],[-97.57217803,35.40618005],[-97.5732781899999,35.4061972],[-97.57431631,35.40639349],[-97.57499551,35.40656763],[-97.5758794499999,35.4067323200001],[-97.57717422,35.40696747],[-97.5777600599999,35.40704409],[-97.5780252499999,35.4070787700001],[-97.57872599,35.40722465],[-97.57904149,35.4073259300001],[-97.57939572,35.40753942],[-97.5796943299999,35.40780518],[-97.57990554,35.4080754],[-97.58007251,35.40844801],[-97.58033712,35.4090856600001],[-97.58052372,35.4095572200001],[-97.58065335,35.4098794500001],[-97.58085121,35.4103609100001],[-97.58099225,35.41057126],[-97.5812284799999,35.41085063],[-97.5815221,35.4110735400001],[-97.58180196,35.4112409],[-97.5821484899999,35.41138232],[-97.58249984,35.4114827600001],[-97.58288641,35.41153373],[-97.58325558,35.41153117],[-97.58326221,35.4134687700001],[-97.5832805699999,35.4170299400001],[-97.58328051,35.4175831800001],[-97.58328034,35.41893093],[-97.58330806,35.42072396],[-97.58330079,35.42313568],[-97.58331003,35.42555959],[-97.5833059499999,35.42746443],[-97.5833084399999,35.4297124600001],[-97.5833054299999,35.4333238800001],[-97.58330599,35.43520076],[-97.5833233599999,35.44469123],[-97.58328532,35.44810282],[-97.58332575,35.45453962],[-97.58332047,35.45836423],[-97.58331894,35.4596150100001],[-97.58331792,35.4600012600001],[-97.58331752,35.4602696600001],[-97.5833155299999,35.46065014],[-97.5833113299999,35.46151439],[-97.5833117399999,35.4642519600001],[-97.58332253,35.4658437200001],[-97.5833127,35.4684221900001],[-97.5832973,35.4751972500001],[-97.58329416,35.4763324900001],[-97.58331371,35.47699808],[-97.58331399,35.4787370500001],[-97.5833158,35.4796735800001],[-97.58331815,35.48056862],[-97.58333353,35.4814788100001],[-97.5833281,35.48238619],[-97.58332388,35.4833180200001],[-97.58332584,35.48422488],[-97.5833278099999,35.48512953],[-97.5833297899999,35.4860319900001],[-97.5833322,35.4871089000001],[-97.58333479,35.4880880000001],[-97.58333692,35.48915309],[-97.5833391899999,35.49025802],[-97.5833520899999,35.49125639],[-97.58334439,35.49227447],[-97.58334831,35.49331979],[-97.57890001,35.49327745],[-97.57454281,35.4932204300001],[-97.57008382,35.4931678300001],[-97.5656312899999,35.4931639800001],[-97.56275064,35.493135],[-97.55946321,35.4931643300001],[-97.55656112,35.49318484],[-97.55527232,35.4932248000001],[-97.55108606,35.4932389900001],[-97.54681547,35.4932554600001],[-97.54556698,35.49323557],[-97.53992926,35.4932429800001],[-97.5315390799999,35.4932434100001],[-97.52991339,35.49327544],[-97.52869438,35.49327061],[-97.52584348,35.4932669500001],[-97.52407143,35.4932818300001],[-97.52102396,35.4932874300001],[-97.51731717,35.4932795600001],[-97.51586938,35.49327751],[-97.5137469199999,35.4932465900001],[-97.51239608,35.4932108300001],[-97.51188806,35.49235546],[-97.51182572,35.49222361],[-97.51168069,35.49193676],[-97.51150447,35.49153247],[-97.51136023,35.4911170500001],[-97.5112879599999,35.49090769],[-97.51116158,35.4904294300001],[-97.5110835899999,35.49000275],[-97.51103691,35.48961905],[-97.51098454,35.4890691200001],[-97.51099047,35.48756093],[-97.51094811,35.48647644],[-97.51086837,35.48578931],[-97.5107539099999,35.4850677000001],[-97.51037144,35.4835263200001],[-97.51017267,35.48286177],[-97.50995027,35.4820537300001],[-97.50979819,35.4811718],[-97.50975076,35.4809111700001],[-97.50967504,35.48017543],[-97.50963173,35.4797917500001],[-97.5095858399999,35.4787385600001],[-97.50950584,35.4780970300001],[-97.50943208,35.4775874000001],[-97.5093672199999,35.4773209200001],[-97.5092029099999,35.47673647],[-97.50896535,35.47610308],[-97.50863348,35.47546078],[-97.50840157,35.47505626],[-97.5079550499999,35.4744912400001],[-97.51042406,35.4728668600001],[-97.51197905,35.47181313],[-97.51228764,35.4718179700001],[-97.51260476,35.4718309900001],[-97.5126148899999,35.46973668],[-97.51271631,35.46713788],[-97.51289086,35.4664542900001],[-97.51619907,35.4664250800001],[-97.5163102699999,35.46642283],[-97.51627518,35.4642731800001],[-97.5162082799999,35.4632943600001],[-97.5162041199999,35.46243365],[-97.51619461,35.4621753700001],[-97.5161829799999,35.4621000500001],[-97.51616293,35.45899702],[-97.51617386,35.45643146],[-97.51614158,35.45489482],[-97.51616874,35.4539084200001],[-97.51617473,35.45292577],[-97.516161,35.45192711],[-97.51615025,35.4509364300001],[-97.5161589999999,35.4497202800001],[-97.5149056499999,35.4497297300001],[-97.5137386499999,35.44970634]],[[-97.55532025,35.4569565900001],[-97.55594508,35.45696058],[-97.5559455599999,35.4568756900001],[-97.55599126,35.4568681700001],[-97.55608603,35.45685424],[-97.55618247,35.4568403100001],[-97.55635919,35.4568198200001],[-97.5565369,35.4568045500001],[-97.55671491,35.4567942300001],[-97.55689323,35.4567888500001],[-97.55707151,35.4567889700001],[-97.55725011,35.45679403],[-97.55742801,35.4568040300001],[-97.5576055399999,35.45681925],[-97.5577323699999,35.45683484],[-97.55787028,35.4568515600001],[-97.5580329799999,35.45687716],[-97.55821947,35.45691192],[-97.5583921799999,35.4569496500001],[-97.55859502,35.4570028800001],[-97.55922859,35.45700523],[-97.55922602,35.4574692200001],[-97.5616602599999,35.4574782400001],[-97.56166244,35.45708266],[-97.56544845,35.45647764],[-97.56543397,35.45034889],[-97.56543342,35.44977308],[-97.55591574,35.44977685],[-97.55591555,35.4499916800001],[-97.55666503,35.45033046],[-97.55707584,35.4500526100001],[-97.5571852,35.45012719],[-97.55863061,35.4518668700001],[-97.5588797399999,35.4522872900001],[-97.55893826,35.45275289],[-97.5564171999999,35.45274513],[-97.55641646,35.45287727],[-97.5562166999999,35.45287653],[-97.55533438,35.4528732200001],[-97.55533411,35.45292075],[-97.55614056,35.45292377],[-97.55612981,35.4548464800001],[-97.55531328,35.45484342],[-97.55531473,35.45596291],[-97.5553148499999,35.4561821400001],[-97.55532025,35.4569565900001]]]},"properties":{"FID":7,"Name":"6 - JoBeth Hamon","FolderPath":"OKC Council Wards.kmz/OKC Council Wards","SymbolID":6,"AltMode":0,"Base":0,"Clamped":-1,"Extruded":0,"Snippet":" ","PopupInfo":"<html><head><meta http-equiv=\"Content-Type\" content=\"text/html\"><meta http-equiv=\"content-type\" content=\"text/html; charset=UTF-8\"></head><body><table><tr><td><p style=\"font-weight:600; white-space:\"no-wrap\"\">Object ID</p></td><td>419</td></tr><tr><td><p","Shape_Leng":0.369552110382,"Shape_Area":0.00571150725606,"Shape__Area":86885692.29296875,"Shape__Length":45799.9243421377}},{"type":"Feature","id":8,"geometry":{"type":"Polygon","coordinates":[[[-97.4591727599999,35.4208118700001],[-97.4412861,35.4207503900001],[-97.44116696,35.4207501000001],[-97.42371288,35.4207407500001],[-97.42371237,35.42798485],[-97.4237798299999,35.4279851800001],[-97.4237902,35.43377551],[-97.42378064,35.4350943900001],[-97.4235460099999,35.4350932500001],[-97.42354641,35.43503804],[-97.42177423,35.43501595],[-97.41710452,35.4349931],[-97.41710503,35.4349244200001],[-97.41473225,35.4349127400001],[-97.41473174,35.43498141],[-97.4122008699999,35.4349689000001],[-97.41215816,35.4349335200001],[-97.40943932,35.43492002],[-97.4062133,35.4349039200001],[-97.4062259299999,35.43321417],[-97.4057399,35.43321174],[-97.40572743,35.43487896],[-97.40382155,35.4345570400001],[-97.3992234,35.43453054],[-97.39907532,35.4351144],[-97.39887426,35.4351133800001],[-97.3988741699999,35.43512546],[-97.39756207,35.4351188100001],[-97.3975689,35.43421858],[-97.39757495,35.43341973],[-97.39721883,35.4334179200001],[-97.39721711,35.43364345],[-97.3972126799999,35.4342280400001],[-97.39720594,35.435117],[-97.3946716999999,35.43510409],[-97.3933502099999,35.43509734],[-97.38978114,35.4350790400001],[-97.38978124,35.4350653000001],[-97.38702884,35.4350511100001],[-97.38703004,35.43489535],[-97.3870327599999,35.4345429],[-97.38682498,35.43454182],[-97.38682234,35.4348846600001],[-97.38682106,35.4350500400001],[-97.386405,35.4349847],[-97.38575031,35.43487005],[-97.3850987599999,35.4347416800001],[-97.38475807,35.4347399100001],[-97.3847100999999,35.4347786700001],[-97.38432807,35.4350874],[-97.37913843,35.4350603500001],[-97.3791419999999,35.4346032400001],[-97.3791506699999,35.4334942300001],[-97.37881535,35.43349248],[-97.37880596,35.4345654900001],[-97.37880346,35.43484212],[-97.37880176,35.4350591400001],[-97.37819756,35.4350579000001],[-97.37819863,35.4349205400001],[-97.37387244,35.43343572],[-97.37350288,35.4334337700001],[-97.37350343,35.4333650900001],[-97.37300062,35.4333624400001],[-97.37300192,35.43319733],[-97.37230377,35.4331936400001],[-97.37230246,35.4333587400001],[-97.37164525,35.43335526],[-97.3716365699999,35.4344541],[-97.37056246,35.4344484100001],[-97.37055953,35.4350731100001],[-97.36193719,35.43505946],[-97.33546508,35.4352039500001],[-97.3354740999999,35.4361724],[-97.33538093,35.4361540200001],[-97.33529614,35.43613816],[-97.33518453,35.43611803],[-97.3350990499999,35.43610326],[-97.3350135699999,35.4360890500001],[-97.33488854,35.4360688400001],[-97.33476315,35.43605001],[-97.33464413,35.4360328600001],[-97.3345113499999,35.4360150800001],[-97.33439197,35.4360001200001],[-97.33427259,35.4359859900001],[-97.33416627,35.43597441],[-97.3341936,35.43583857],[-97.33328484,35.4357683600001],[-97.3328639599999,35.4357607700001],[-97.33121479,35.4357589100001],[-97.33121532,35.4358962700001],[-97.32746919,35.43593086],[-97.3274693499999,35.4357935],[-97.3252891399999,35.4357910100001],[-97.3210567199999,35.4357748300001],[-97.3207717599999,35.4357718200001],[-97.32053876,35.43577708],[-97.32030602,35.43578948],[-97.3200742399999,35.43580903],[-97.3198175199999,35.43583916],[-97.3195375399999,35.43588206],[-97.31928537,35.4359303300001],[-97.31919221,35.4359504],[-97.31923878,35.43607869],[-97.31845663,35.4362764],[-97.3180518199999,35.4363911],[-97.31739598,35.43657689],[-97.3170995899999,35.4366540300001],[-97.3170450599999,35.4365147],[-97.3169595699999,35.43654058],[-97.3168643499999,35.43656751],[-97.31673683,35.4366016600001],[-97.31660193,35.43663523],[-97.31645966,35.4366676500001],[-97.31629051,35.43670294],[-97.31613988,35.4367309200001],[-97.31600172,35.43675374],[-97.31588307,35.43677174],[-97.3157503199999,35.43678938],[-97.3156307,35.43680325],[-97.3154909299999,35.4368175600001],[-97.3153370799999,35.43683013],[-97.31520341,35.4368387000001],[-97.31502912,35.43684621],[-97.31490825,35.43684963],[-97.31477397,35.43685078],[-97.31464641,35.43685004],[-97.31455915,35.4368484400001],[-97.31450545,35.43684703],[-97.31447861,35.43684605],[-97.31445176,35.43684507],[-97.3144182,35.4368437800001],[-97.31438499,35.4368422100001],[-97.31435143,35.4368406500001],[-97.31434002,35.43684003],[-97.3143116699999,35.4369753],[-97.31386328,35.43692601],[-97.3128276,35.4368604000001],[-97.3128438699999,35.43668632],[-97.30597885,35.4361098200001],[-97.30595507,35.43625666],[-97.30465838,35.4361372500001],[-97.30233452,35.43594037],[-97.30235853,35.4358053500001],[-97.30224624,35.4357879300001],[-97.30209401,35.4357678000001],[-97.30194747,35.43575128],[-97.30180089,35.4357377800001],[-97.30162712,35.43572549],[-97.30147949,35.43571803],[-97.30131841,35.43571324],[-97.30110358,35.43571197],[-97.30094948,35.43571491],[-97.3007752,35.43572212],[-97.3006210399999,35.43573166],[-97.3005075,35.43574088],[-97.3003795,35.43575303],[-97.2998823299999,35.4357943300001],[-97.29737424,35.43620093],[-97.29727708,35.43621848],[-97.29717555,35.43623519],[-97.2970478299999,35.43625339],[-97.29686839,35.43627458],[-97.29671386,35.4362885],[-97.29653283,35.4362997900001],[-97.2963518399999,35.4363055800001],[-97.2961964199999,35.43630603],[-97.29598935,35.43630068],[-97.29578234,35.4362884600001],[-97.2955767399999,35.4362691100001],[-97.29542284,35.43624979],[-97.29526964,35.4362266300001],[-97.2952368799999,35.43636187],[-97.2951497399999,35.4363467900001],[-97.2950448399999,35.43632776],[-97.2949537,35.4363093700001],[-97.29486257,35.4362898700001],[-97.2947336,35.4362597100001],[-97.29462475,35.4362321400001],[-97.2945102199999,35.4362006900001],[-97.29438401,35.4361631200001],[-97.2942712,35.4361272900001],[-97.2941534,35.4360870300001],[-97.29404934,35.4360490400001],[-97.29393426,35.4360046800001],[-97.29386736,35.4359779100001],[-97.29394364,35.43585556],[-97.29342023,35.43563871],[-97.2920180099999,35.43504684],[-97.29196389,35.4351308500001],[-97.29118914,35.43486826],[-97.29103582,35.4348220200001],[-97.29087642,35.4347793100001],[-97.29070223,35.43473871],[-97.29052597,35.4347041400001],[-97.29032821,35.4346721800001],[-97.29014245,35.4346493700001],[-97.28996234,35.43463318],[-97.28979493,35.4346233900001],[-97.28963384,35.4346191300001],[-97.28947943,35.4346193000001],[-97.2893185999999,35.43462438],[-97.28919769,35.4346313500001],[-97.2890703799999,35.4346410300001],[-97.2890674,35.4345239800001],[-97.28859,35.4345326500001],[-97.2885937999999,35.4346700400001],[-97.28691549,35.43470144],[-97.28691169,35.43456351],[-97.2855694399999,35.43458895],[-97.28557324,35.43472633],[-97.28268192,35.4347808600001],[-97.28267794,35.4345896300001],[-97.28262426,35.4345865600001],[-97.28255716,35.4345831300001],[-97.28251019,35.43458065],[-97.2824632099999,35.43457872],[-97.28242295,35.43457683],[-97.28237597,35.4345748900001],[-97.2823092,35.4345722900001],[-97.2822488,35.4345700000001],[-97.2822018099999,35.4345686200001],[-97.28214812,35.4345669200001],[-97.28208771,35.43456546],[-97.28203402,35.4345640300001],[-97.28199374,35.43456324],[-97.28194676,35.4345624100001],[-97.2818997699999,35.4345618500001],[-97.28184607,35.4345609700001],[-97.28184328,35.43442414],[-97.28174928,35.43442522],[-97.2816082699999,35.4344284900001],[-97.2814605299999,35.43443309],[-97.28131984,35.43443828],[-97.28119256,35.4344441000001],[-97.28109853,35.43444903],[-97.28098468,35.43445575],[-97.28082413,35.4344660400001],[-97.28068373,35.43447646],[-97.28055003,35.43448719],[-97.28042338,35.43449823],[-97.28030344,35.4345095900001],[-97.28017678,35.4345225600001],[-97.28005044,35.43453635],[-97.27993048,35.43455018],[-97.27980446,35.4345653500001],[-97.27970499,35.43457821],[-97.2796186199999,35.4345897700001],[-97.2795356,35.43460136],[-97.27952798,35.4347384000001],[-97.27890849,35.43490469],[-97.27828152,35.43519236],[-97.2783633499999,35.4353120800001],[-97.2771249099999,35.4357691000001],[-97.27715198,35.43581899],[-97.2769909799999,35.4358784500001],[-97.27618831,35.43610707],[-97.27613501,35.4360619600001],[-97.27513999,35.43617924],[-97.27510926,35.4362359200001],[-97.2736493899999,35.43619951],[-97.27123808,35.43555286],[-97.27121117,35.4356323700001],[-97.2684670099999,35.4349388300001],[-97.2684966,35.4348599],[-97.26603608,35.4342087100001],[-97.26490795,35.4339110700001],[-97.2638451399999,35.43362948],[-97.2637939099999,35.4337602100001],[-97.2628261999999,35.4335044700001],[-97.2628774199999,35.43337375],[-97.26062024,35.43277619],[-97.2605429499999,35.43296609],[-97.2585999899999,35.43247512],[-97.25868431,35.4322522900001],[-97.2561999,35.43162383],[-97.2561895799999,35.4316498700001],[-97.24728799,35.42925911],[-97.23705402,35.4266308300001],[-97.23689164,35.4265877500001],[-97.23672393,35.4265416200001],[-97.23659004,35.4265034000001],[-97.23646788,35.4264677200001],[-97.23631292,35.42642112],[-97.2361586499999,35.4263731500001],[-97.2360268199999,35.4263310900001],[-97.2358628699999,35.42627701],[-97.23573206,35.4262327600001],[-97.23557986,35.42617986],[-97.23539623,35.42611384],[-97.23523536,35.42605429],[-97.23509624,35.4260011900001],[-97.23498957,35.42595985],[-97.2348939399999,35.42592187],[-97.2347461699999,35.42586212],[-97.23464187,35.4258188700001],[-97.22537202,35.4219485400001],[-97.22527139,35.4219080500001],[-97.22517076,35.42186811],[-97.2250687599999,35.42183063],[-97.22496642,35.4217936900001],[-97.2248633899999,35.42175896],[-97.22475901,35.4217247600001],[-97.22465427,35.42169303],[-97.2245491799999,35.42166267],[-97.2244424099999,35.42163313],[-97.22433595,35.42160578],[-97.2242288,35.42157953],[-97.2241203,35.4215549200001],[-97.22401245,35.4215325100001],[-97.2239039199999,35.4215106500001],[-97.2237943699999,35.42149098],[-97.22368514,35.42147213],[-97.22357522,35.4214557500001],[-97.22346461,35.4214404700001],[-97.22335365,35.4214273800001],[-97.2232426799999,35.4214151100001],[-97.2231316899999,35.4214045],[-97.22302102,35.4213958],[-97.222909,35.4213884800001],[-97.22279797,35.4213828000001],[-97.22268591,35.42137877],[-97.22257383,35.42137639],[-97.22246174,35.4213756500001],[-97.22234998,35.4213763000001],[-97.22223853,35.4213788600001],[-97.22212639,35.4213825200001],[-97.22201491,35.4213881100001],[-97.2219030799999,35.4213950700001],[-97.2217919,35.4214042300001],[-97.22168071,35.4214147600001],[-97.2215695099999,35.4214264],[-97.2214414799999,35.4214417600001],[-97.2214149599999,35.4213064300001],[-97.21789714,35.42176899],[-97.21787028,35.42163365],[-97.21781914,35.4216465000001],[-97.21775488,35.4216625600001],[-97.2176334099999,35.4216944500001],[-97.2173729199999,35.4217674600001],[-97.21707735,35.4218578100001],[-97.21684098,35.4219359200001],[-97.21665608,35.4220009100001],[-97.2164724899999,35.4220689300001],[-97.2163269499999,35.4221253800001],[-97.2161763299999,35.4221859300001],[-97.21602703,35.42224868],[-97.21589658,35.4223052300001],[-97.21575567,35.4223688600001],[-97.2156427099999,35.42242141],[-97.21574467,35.4225306000001],[-97.2126713599999,35.4244954000001],[-97.2127497,35.4246170700001],[-97.2118062599999,35.42502097],[-97.21094964,35.42529879],[-97.21022934,35.4254363000001],[-97.20939141,35.4255222],[-97.20888232,35.4255487500001],[-97.20073322,35.4246909500001],[-97.2007703899999,35.4242271800001],[-97.20081942,35.42361549],[-97.2008571599999,35.4231447000001],[-97.2009109099999,35.42249223],[-97.20095825,35.4219554700001],[-97.20100841,35.42141881],[-97.20104141,35.4209345200001],[-97.20104895,35.42073363],[-97.2006120299999,35.42073315],[-97.20016601,35.42073266],[-97.19986869,35.4207323300001],[-97.1993008599999,35.4207317],[-97.1985837999999,35.4207309],[-97.19827804,35.42073056],[-97.19782388,35.42073005],[-97.19730795,35.42072947],[-97.19691437,35.4207290300001],[-97.1962857299999,35.4207283200001],[-97.1956125999999,35.42072755],[-97.19492218,35.42072676],[-97.19449352,35.42072627],[-97.19401303,35.42072571],[-97.19342718,35.42072517],[-97.18996369,35.4170287700001],[-97.1895037,35.41658909],[-97.18898925,35.41619189],[-97.1884259999999,35.4158424300001],[-97.18782027,35.41554433],[-97.18675786,35.41517551],[-97.18597503,35.4149676700001],[-97.18578175,35.41493337],[-97.1856076,35.4148983900001],[-97.18537759,35.4148454300001],[-97.18512155,35.41477774],[-97.1848411999999,35.4146928500001],[-97.1845659799999,35.4145975500001],[-97.18432298,35.41450302],[-97.1841372,35.414424],[-97.18390306,35.4143155200001],[-97.18364968,35.41418602],[-97.1834034399999,35.4140469700001],[-97.18314202,35.4138839],[-97.18291309,35.41372656],[-97.1826933,35.41356103],[-97.1824417499999,35.4133516100001],[-97.17724013,35.41335437],[-97.16841718,35.4133582100001],[-97.15959388,35.41336195],[-97.1596505799999,35.4059997100001],[-97.16017805,35.4060018000001],[-97.16018275,35.40558865],[-97.16060082,35.40559188],[-97.16060418,35.40517872],[-97.15965461,35.4051747400001],[-97.15968228,35.3997323500001],[-97.15927272,35.39956242],[-97.15892344,35.3994346700001],[-97.15856766,35.3993189500001],[-97.15820638,35.39921639],[-97.15780074,35.39912038],[-97.15731929,35.3990224500001],[-97.15679233,35.3989442600001],[-97.1563365,35.39889843],[-97.1559549199999,35.3988748400001],[-97.15557253,35.3988647],[-97.1551134699999,35.39887077],[-97.15473143,35.3988903000001],[-97.1541994199999,35.3989406200001],[-97.1537467899999,35.3990047],[-97.15329898,35.39908777],[-97.152784,35.3992085400001],[-97.15227915,35.39935466],[-97.1516469699999,35.3995787100001],[-97.15119875,35.3997631400001],[-97.1508057899999,35.3999564800001],[-97.14192137,35.4038634],[-97.14196658,35.39768515],[-97.1419800199999,35.3958811200001],[-97.14201235,35.39145525],[-97.14205127,35.3841181700001],[-97.1420896,35.3768670700001],[-97.14211844,35.3622552],[-97.13786655,35.36225869],[-97.1291883799999,35.3622653],[-97.1247617599999,35.3622684000001],[-97.12470819,35.3549776200001],[-97.1293933699999,35.3549981300001],[-97.14206367,35.35505262],[-97.14200879,35.34779867],[-97.1420101899999,35.34642533],[-97.14201614,35.3405578000001],[-97.14201767,35.33901661],[-97.14202008,35.3364616900001],[-97.14202349,35.3332235400001],[-97.14194327,35.3187161500001],[-97.1419299899999,35.30512163],[-97.14192937,35.3042150300001],[-97.15955059,35.3043207900001],[-97.17029395,35.30433528],[-97.1773566699999,35.30434362],[-97.19478116,35.3044185900001],[-97.1947109,35.2971541800001],[-97.2124082399999,35.2972982000001],[-97.21243071,35.30454304],[-97.2124452199999,35.3141847800001],[-97.21245322,35.3190323100001],[-97.2212949299999,35.3191218100001],[-97.22135968,35.3263781900001],[-97.2302041199999,35.3264436900001],[-97.23027058,35.33367673],[-97.23032804,35.3427421100001],[-97.23036173,35.34820052],[-97.24193349,35.34828473],[-97.24746539,35.34832493],[-97.2474665,35.3427848900001],[-97.2474680399999,35.3338685300001],[-97.24745054,35.31934471],[-97.2557420099999,35.31942402],[-97.26494715,35.31951144],[-97.26942733,35.31950564],[-97.27388774,35.31949983],[-97.27770692,35.31949488],[-97.28492656,35.3194919800001],[-97.28936939,35.31950168],[-97.29393523,35.31951113],[-97.30041597,35.3195245800001],[-97.3047741299999,35.31955601],[-97.3092698899999,35.31958745],[-97.30933694,35.3123460300001],[-97.3143417799999,35.3123730500001],[-97.31815587,35.312393],[-97.3359018199999,35.3124655300001],[-97.3359604299999,35.3052006300001],[-97.3359775599999,35.3015810300001],[-97.3359908199999,35.2986660600001],[-97.3360041,35.29578927],[-97.3360272799999,35.29072139],[-97.34195347,35.2907338700001],[-97.347747,35.29074532],[-97.35307813,35.2907561600001],[-97.3707067399999,35.2907775300001],[-97.38256971,35.2907778900001],[-97.3882896,35.29077736],[-97.40594341,35.2906952700001],[-97.4147954599999,35.29074017],[-97.41477374,35.3004403400001],[-97.41476334,35.3052725800001],[-97.41477474,35.3125177700001],[-97.4235897,35.3125129200001],[-97.44126062,35.3125313900001],[-97.44126864,35.3151135],[-97.44128224,35.3197161900001],[-97.44128761,35.32152935],[-97.44130167,35.3260674800001],[-97.44131106,35.32921744],[-97.44132647,35.3342313900001],[-97.4413337999999,35.3403966500001],[-97.44134407,35.34876874],[-97.44134531,35.3501206400001],[-97.4413475599999,35.3523777300001],[-97.4458233599999,35.3523424300001],[-97.44582367,35.3559555300001],[-97.4590715099999,35.35585933],[-97.45906725,35.35722493],[-97.4590606099999,35.3595328100001],[-97.45905039,35.3631054800001],[-97.45938577,35.36310481],[-97.4593771999999,35.37037323],[-97.4680520699999,35.370415],[-97.47690232,35.3704527400001],[-97.4949666899999,35.37053383],[-97.51209842,35.37060174],[-97.5122749,35.37060247],[-97.51227779,35.3711596100001],[-97.5123051099999,35.3722283700001],[-97.51239395,35.37721377],[-97.51241363,35.38292002],[-97.51242625,35.38802818],[-97.5124388899999,35.3919841700001],[-97.5139950499999,35.3919573200001],[-97.51600553,35.3918647200001],[-97.5170982499999,35.39174748],[-97.5200531,35.3914358600001],[-97.52125096,35.3914069100001],[-97.5300826599999,35.39133301],[-97.53011979,35.4004454500001],[-97.53012759,35.4042907200001],[-97.53016409,35.40623394],[-97.5301813999999,35.41397722],[-97.5302020999999,35.42075076],[-97.53021517,35.4277935000001],[-97.5161703,35.4277983000001],[-97.51432343,35.4278115700001],[-97.5141386399999,35.42781748],[-97.5140106599999,35.42784263],[-97.51382011,35.4279075900001],[-97.51353389,35.42801196],[-97.51338298,35.4280196],[-97.5128502699999,35.4280528400001],[-97.5126458299999,35.42811271],[-97.51249534,35.42818792],[-97.51233591,35.42824166],[-97.5120781799999,35.42829032],[-97.51027062,35.4283114400001],[-97.50803181,35.4283256200001],[-97.50804278,35.42931392],[-97.50803568,35.4303022],[-97.50803222,35.4312913100001],[-97.50803512,35.43227965],[-97.5080546199999,35.4333689100001],[-97.5081128799999,35.43349937],[-97.5085832299999,35.43429517],[-97.5091504,35.43524072],[-97.51051394,35.4375090300001],[-97.5116393,35.43940996],[-97.51287273,35.4414985700001],[-97.51316009,35.4419699600001],[-97.5134094,35.4424322200001],[-97.5136012,35.4429068200001],[-97.51376605,35.44351772],[-97.51385979,35.44396949],[-97.51390149,35.4445155700001],[-97.51384677,35.44632547],[-97.51382039,35.4470930200001],[-97.5137386499999,35.44970634],[-97.51350453,35.44970891],[-97.51279313,35.44971518],[-97.51176286,35.4497242400001],[-97.51070184,35.44973357],[-97.5070639,35.44976547],[-97.50502352,35.44981253],[-97.49879243,35.44984385],[-97.49462283,35.4498670400001],[-97.4808129799999,35.4498147],[-97.47694238,35.44982393],[-97.47350685,35.4498114100001],[-97.45929061,35.44975853],[-97.4592915599999,35.44708654],[-97.4592916999999,35.4467109400001],[-97.45929352,35.44158865],[-97.45929573,35.43540747],[-97.4592916,35.4302923300001],[-97.4592897699999,35.42811728],[-97.45928969,35.42803114],[-97.45917896,35.42803121],[-97.4591727599999,35.4208118700001]],[[-97.4860452,35.4062718100001],[-97.4860070499999,35.4034538500001],[-97.48599723,35.40274119],[-97.48596793,35.4005793000001],[-97.48596663,35.40052023],[-97.485966,35.40046226],[-97.4859643999999,35.4003460400001],[-97.48595823,35.3999001500001],[-97.48594646,35.3990210900001],[-97.4770135699999,35.39902644],[-97.476952,35.40614084],[-97.4807685499999,35.4061383800001],[-97.4835187199999,35.4061363800001],[-97.48351884,35.40627319],[-97.48501842,35.4062723000001],[-97.4860452,35.4062718100001]]]},"properties":{"FID":8,"Name":"4 - Todd Stone","FolderPath":"OKC Council Wards.kmz/OKC Council Wards","SymbolID":7,"AltMode":0,"Base":0,"Clamped":-1,"Extruded":0,"Snippet":" ","PopupInfo":"<html><head><meta http-equiv=\"Content-Type\" content=\"text/html\"><meta http-equiv=\"content-type\" content=\"text/html; charset=UTF-8\"></head><body><table><tr><td><p style=\"font-weight:600; white-space:\"no-wrap\"\">Object ID</p></td><td>420</td></tr><tr><td><p","Shape_Leng":1.31595189948,"Shape_Area":0.0417642731592,"Shape__Area":634711908.8242188,"Shape__Length":158693.6811192648}}]}