{"type":"FeatureCollection","name":"tl_2025_41_scsd","crs":{"type":"name","properties":{"name":"urn:ogc:def:crs:OGC:1.3:CRS84"}},"features":[{"type":"Feature","properties":{"STATEFP":"41","SCSDLEA":"03630","GEOID":"4103630","GEOIDFQ":"9600000US4103630","NAME":"Harney County Union High School District 1J","LSAD":"00","LOGRADE":"09","HIGRADE":"12","MTFCC":"G5410","SDTYP":"","FUNCSTAT":"E","ALAND":22858014365,"AWATER":238933116,"INTPTLAT":"+42.9562139","INTPTLON":"-118.9338052"},"geometry":{"type":"Polygon","coordinates":[[[-119.94374,42.747203],[-119.943689,42.748312],[-119.943621,42.749769],[-119.943614,42.749938],[-119.943611,42.750074],[-119.943603,42.750211],[-119.943441,42.753671],[-119.943657,42.760728],[-119.943653,42.764917],[-119.943647,42.76713],[-119.94364,42.769469],[-119.943632,42.772063],[-119.943623,42.775483],[-119.943739,42.781945],[-119.943737,42.789252],[-119.943727,42.792359],[-119.943713,42.793241],[-119.943712,42.793353],[-119.94371,42.79346],[-119.943708,42.793621],[-119.943699,42.794234],[-119.943685,42.795173],[-119.943657,42.797052],[-119.943632,42.799362],[-119.943623,42.80035],[-119.943614,42.80114],[-119.943612,42.801636],[-119.943605,42.802437],[-119.94359,42.804141],[-119.943585,42.804615],[-119.943585,42.806722],[-119.943598,42.811268],[-119.943601,42.812636],[-119.943602,42.813331],[-119.943603,42.817288],[-119.943586,42.831159],[-119.943585,42.835779],[-119.943587,42.838127],[-119.943589,42.840172],[-119.943589,42.840958],[-119.94359,42.841308],[-119.943588,42.845352],[-119.943586,42.84827],[-119.943582,42.8519],[-119.943575,42.857422],[-119.943579,42.860762],[-119.943581,42.862795],[-119.943596,42.866462],[-119.943608,42.868843],[-119.943608,42.869149],[-119.943623,42.871662],[-119.943623,42.874579],[-119.943623,42.875474],[-119.943624,42.88306],[-119.943638,42.891168],[-119.94363,42.894187],[-119.943538,42.898532],[-119.943538,42.898558],[-119.943535,42.898665],[-119.943528,42.899015],[-119.943517,42.899546],[-119.943505,42.90008],[-119.943499,42.900365],[-119.943488,42.900884],[-119.94349,42.901045],[-119.943496,42.901545],[-119.943503,42.902138],[-119.943509,42.902584],[-119.943514,42.90298],[-119.943519,42.903394],[-119.943531,42.904404],[-119.943546,42.905606],[-119.94356,42.906683],[-119.943564,42.90697],[-119.943569,42.907385],[-119.943572,42.907623],[-119.943579,42.908237],[-119.943565,42.90943],[-119.943497,42.916134],[-119.943504,42.917079],[-119.941988,42.917074],[-119.941042,42.91707],[-119.936258,42.917037],[-119.933933,42.917021],[-119.931595,42.917005],[-119.931623,42.919251],[-119.931692,42.925001],[-119.931708,42.926809],[-119.931722,42.928456],[-119.931742,42.930671],[-119.931739,42.932533],[-119.931725,42.934239],[-119.931707,42.936514],[-119.931698,42.937653],[-119.931691,42.938634],[-119.931703,42.939535],[-119.931719,42.941056],[-119.931756,42.944205],[-119.931807,42.954071],[-119.931812,42.954939],[-119.931826,42.957901],[-119.931827,42.958215],[-119.931845,42.961309],[-119.93185,42.962083],[-119.93186,42.963578],[-119.931875,42.965893],[-119.931891,42.968408],[-119.931907,42.971046],[-119.931923,42.973678],[-119.931933,42.975133],[-119.931942,42.976209],[-119.931944,42.976439],[-119.93196,42.978304],[-119.931968,42.979309],[-119.931974,42.979936],[-119.931983,42.981124],[-119.931988,42.981624],[-119.932012,42.985283],[-119.932017,42.986074],[-119.932019,42.986383],[-119.932028,42.987779],[-119.932037,42.990225],[-119.932039,42.993739],[-119.93204,42.995732],[-119.93204,42.996366],[-119.93205,42.997206],[-119.932058,42.997838],[-119.932081,42.999716],[-119.932083,42.999874],[-119.932083,42.999904],[-119.932085,43.000018],[-119.932088,43.000281],[-119.932095,43.000904],[-119.932111,43.002127],[-119.932126,43.003377],[-119.932125,43.004051],[-119.932118,43.005415],[-119.932116,43.005687],[-119.932106,43.007297],[-119.932102,43.007931],[-119.932083,43.01094],[-119.93209,43.011554],[-119.932124,43.014588],[-119.932151,43.017094],[-119.932165,43.018591],[-119.932166,43.019142],[-119.932166,43.019418],[-119.932167,43.019766],[-119.932168,43.020103],[-119.932172,43.020471],[-119.932172,43.02203],[-119.932167,43.02238],[-119.932178,43.025513],[-119.932182,43.028928],[-119.932216,43.044875],[-119.932297,43.055056],[-119.932291,43.063613],[-119.932299,43.065552],[-119.932323,43.070233],[-119.932329,43.07185],[-119.932332,43.072166],[-119.932338,43.073365],[-119.932341,43.074055],[-119.932343,43.07448],[-119.932353,43.076457],[-119.932387,43.076813],[-119.932387,43.077082],[-119.932405,43.083729],[-119.932442,43.089053],[-119.932462,43.099218],[-119.932474,43.111748],[-119.93248,43.119076],[-119.932486,43.120903],[-119.932499,43.124164],[-119.93251,43.126843],[-119.93254,43.134175],[-119.932548,43.136195],[-119.932554,43.13746],[-119.932561,43.139224],[-119.932588,43.145922],[-119.932591,43.146701],[-119.932596,43.147767],[-119.932607,43.15049],[-119.932632,43.156536],[-119.932654,43.161981],[-119.932659,43.164148],[-119.932652,43.165295],[-119.932649,43.166462],[-119.932642,43.168835],[-119.932638,43.170104],[-119.93263,43.172515],[-119.932629,43.173087],[-119.932626,43.173787],[-119.932624,43.174629],[-119.932622,43.174965],[-119.932622,43.175305],[-119.932614,43.177721],[-119.932611,43.178963],[-119.929554,43.17897],[-119.927369,43.178975],[-119.925247,43.178981],[-119.924404,43.178981],[-119.924244,43.178986],[-119.924124,43.178982],[-119.92362,43.178983],[-119.923009,43.178985],[-119.92173,43.178987],[-119.920798,43.178992],[-119.920611,43.178989],[-119.919834,43.178992],[-119.91845,43.178995],[-119.914284,43.179004],[-119.913227,43.179006],[-119.91296,43.179008],[-119.911867,43.179008],[-119.909708,43.179009],[-119.908564,43.17901],[-119.907821,43.17901],[-119.9076,43.17901],[-119.904839,43.179012],[-119.904284,43.179012],[-119.904194,43.179012],[-119.903985,43.179013],[-119.903537,43.179013],[-119.903414,43.179013],[-119.901818,43.179014],[-119.899274,43.179015],[-119.897612,43.179016],[-119.896969,43.179017],[-119.896928,43.183076],[-119.896909,43.184851],[-119.896866,43.189023],[-119.896861,43.189545],[-119.896858,43.18983],[-119.896857,43.189982],[-119.896853,43.190334],[-119.896848,43.19081],[-119.896845,43.191043],[-119.896845,43.191119],[-119.896841,43.191474],[-119.89684,43.191594],[-119.896839,43.191644],[-119.896811,43.194296],[-119.896798,43.195674],[-119.896741,43.20108],[-119.896685,43.206543],[-119.896675,43.207508],[-119.896643,43.210573],[-119.896636,43.211],[-119.896634,43.211476],[-119.896624,43.212453],[-119.896588,43.215896],[-119.896577,43.216829],[-119.896571,43.217563],[-119.896565,43.218156],[-119.896542,43.220409],[-119.896532,43.221226],[-119.896524,43.222159],[-119.896507,43.223956],[-119.896497,43.225046],[-119.896435,43.231848],[-119.89641,43.234474],[-119.896328,43.243677],[-119.896315,43.245067],[-119.896288,43.247635],[-119.896287,43.248171],[-119.896264,43.250661],[-119.896242,43.253098],[-119.896201,43.257663],[-119.896193,43.25855],[-119.896184,43.259524],[-119.89618,43.260222],[-119.896168,43.261261],[-119.89616,43.262173],[-119.896156,43.262562],[-119.896155,43.262673],[-119.896155,43.262753],[-119.896153,43.262917],[-119.896131,43.26534],[-119.896123,43.266217],[-119.896128,43.267568],[-119.896147,43.272029],[-119.896162,43.274178],[-119.896162,43.275738],[-119.896173,43.278246],[-119.896176,43.27902],[-119.896182,43.27999],[-119.896183,43.280668],[-119.896193,43.283077],[-119.89622,43.289565],[-119.896228,43.29156],[-119.89624,43.294315],[-119.896243,43.294781],[-119.896243,43.296426],[-119.896216,43.299342],[-119.896198,43.301337],[-119.896194,43.301711],[-119.896186,43.302415],[-119.896178,43.303493],[-119.896166,43.304778],[-119.89611,43.310971],[-119.896098,43.313621],[-119.896094,43.314382],[-119.896091,43.315161],[-119.89609,43.315339],[-119.896084,43.316654],[-119.896055,43.317947],[-119.896046,43.324775],[-119.896031,43.327926],[-119.896005,43.333754],[-119.896002,43.334277],[-119.895992,43.336362],[-119.895965,43.342021],[-119.895959,43.343235],[-119.895957,43.343692],[-119.895952,43.344938],[-119.895946,43.346191],[-119.895914,43.353073],[-119.895913,43.353226],[-119.89591,43.353809],[-119.896465,43.353816],[-119.896452,43.355061],[-119.896417,43.359922],[-119.896304,43.374319],[-119.89629,43.37611],[-119.896264,43.379447],[-119.896251,43.381161],[-119.896235,43.383175],[-119.896227,43.383888],[-119.896216,43.385597],[-119.8962,43.387643],[-119.896188,43.388537],[-119.896177,43.390546],[-119.89614,43.395295],[-119.89613,43.396579],[-119.896128,43.396773],[-119.896111,43.398818],[-119.896106,43.399591],[-119.896101,43.400305],[-119.896095,43.401061],[-119.896068,43.40449],[-119.89606,43.405451],[-119.896058,43.405793],[-119.895974,43.416048],[-119.895975,43.416327],[-119.89597,43.417045],[-119.895961,43.418137],[-119.895919,43.423547],[-119.89591,43.424914],[-119.895892,43.426937],[-119.895863,43.430639],[-119.89584,43.4336],[-119.895838,43.433788],[-119.895831,43.434658],[-119.895823,43.4358],[-119.895809,43.437505],[-119.895805,43.438046],[-119.895781,43.440613],[-119.895768,43.441615],[-119.895763,43.442099],[-119.89576,43.442324],[-119.895753,43.442857],[-119.895738,43.444072],[-119.895732,43.444484],[-119.895666,43.449795],[-119.895619,43.453581],[-119.895605,43.454695],[-119.895584,43.456461],[-119.895583,43.456587],[-119.895581,43.456723],[-119.895578,43.457007],[-119.895577,43.45705],[-119.895576,43.457123],[-119.895566,43.458004],[-119.895548,43.459509],[-119.895501,43.463512],[-119.895421,43.470336],[-119.895373,43.474455],[-119.895328,43.478272],[-119.895325,43.478679],[-119.895318,43.479178],[-119.895274,43.482899],[-119.895188,43.490216],[-119.895183,43.492346],[-119.895183,43.495239],[-119.895187,43.499075],[-119.89519,43.499895],[-119.895194,43.500991],[-119.895194,43.501223],[-119.8952,43.50261],[-119.895212,43.506287],[-119.895217,43.507585],[-119.895218,43.507798],[-119.89522,43.508579],[-119.895222,43.50892],[-119.895225,43.509808],[-119.895229,43.511137],[-119.895233,43.512204],[-119.895236,43.513107],[-119.89524,43.514079],[-119.895241,43.514413],[-119.895251,43.517454],[-119.89527,43.522917],[-119.895283,43.526633],[-119.895284,43.527531],[-119.895273,43.529477],[-119.895265,43.530971],[-119.895261,43.531692],[-119.895256,43.532174],[-119.895253,43.533198],[-119.895219,43.539502],[-119.895195,43.544028],[-119.895132,43.555611],[-119.895105,43.560722],[-119.895072,43.566833],[-119.895056,43.568127],[-119.895058,43.569361],[-119.895048,43.571371],[-119.89502,43.576459],[-119.895004,43.579535],[-119.894984,43.583256],[-119.894982,43.583599],[-119.894978,43.584277],[-119.894972,43.585412],[-119.894984,43.58589],[-119.895009,43.586867],[-119.895112,43.590934],[-119.895152,43.592478],[-119.895152,43.592568],[-119.895155,43.592648],[-119.895163,43.592745],[-119.895428,43.596189],[-119.895751,43.600394],[-119.895811,43.60121],[-119.896418,43.609047],[-119.896511,43.61026],[-119.896581,43.611164],[-119.896582,43.611185],[-119.896583,43.611302],[-119.896587,43.611643],[-119.89659,43.611835],[-119.896632,43.614801],[-119.896683,43.618437],[-119.896695,43.619339],[-119.8967,43.619653],[-119.896733,43.622074],[-119.896784,43.625717],[-119.896835,43.629347],[-119.896886,43.632983],[-119.896937,43.63662],[-119.896988,43.640256],[-119.897027,43.642946],[-119.897063,43.645589],[-119.897132,43.65038],[-119.897141,43.651166],[-119.897148,43.651458],[-119.897192,43.654802],[-119.897243,43.658439],[-119.897281,43.661192],[-119.897294,43.662076],[-119.897345,43.665712],[-119.897396,43.669348],[-119.8974,43.673069],[-119.89741,43.680168],[-119.897407,43.681719],[-119.897419,43.685118],[-119.897419,43.687381],[-119.897422,43.689632],[-119.897423,43.68982],[-119.897424,43.690987],[-119.897429,43.694594],[-119.897434,43.6982],[-119.894141,43.698196],[-119.892449,43.698186],[-119.887463,43.698173],[-119.879753,43.698148],[-119.877493,43.698145],[-119.875168,43.698139],[-119.871494,43.698128],[-119.870961,43.698127],[-119.867523,43.698117],[-119.861985,43.6981],[-119.861729,43.698101],[-119.861423,43.698098],[-119.857552,43.69809],[-119.852567,43.698076],[-119.850706,43.698071],[-119.847582,43.698062],[-119.842597,43.698049],[-119.834996,43.698017],[-119.832616,43.698001],[-119.828812,43.697979],[-119.828565,43.697973],[-119.81276,43.697884],[-119.812649,43.697879],[-119.810322,43.697876],[-119.807594,43.697868],[-119.807545,43.697868],[-119.807305,43.697868],[-119.802577,43.697852],[-119.79756,43.697837],[-119.792543,43.697821],[-119.790046,43.697822],[-119.787531,43.697806],[-119.786619,43.697819],[-119.786051,43.697828],[-119.785857,43.697834],[-119.785659,43.697834],[-119.782527,43.697881],[-119.780973,43.697905],[-119.7796,43.697926],[-119.777528,43.697957],[-119.777522,43.699792],[-119.777518,43.70114],[-119.777518,43.701182],[-119.777511,43.703323],[-119.77751,43.703601],[-119.77751,43.703692],[-119.77751,43.703743],[-119.777509,43.703801],[-119.777498,43.707161],[-119.777494,43.708555],[-119.777484,43.71108],[-119.777482,43.712036],[-119.77747,43.716899],[-119.777459,43.71904],[-119.777444,43.72352],[-119.777444,43.723599],[-119.777446,43.723889],[-119.777425,43.728965],[-119.777415,43.731073],[-119.777419,43.731271],[-119.777413,43.733443],[-119.777411,43.733719],[-119.777417,43.734259],[-119.7774,43.738612],[-119.77739,43.739904],[-119.777386,43.743098],[-119.777384,43.744418],[-119.777384,43.750007],[-119.777382,43.750649],[-119.777382,43.759761],[-119.777379,43.76067],[-119.777381,43.764668],[-119.777378,43.766412],[-119.777349,43.771893],[-119.777248,43.77542],[-119.777224,43.776228],[-119.777221,43.776412],[-119.77721,43.776668],[-119.777175,43.77806],[-119.777012,43.784045],[-119.777006,43.78424],[-119.776999,43.784503],[-119.776974,43.785408],[-119.776935,43.789536],[-119.776914,43.792798],[-119.776886,43.796424],[-119.776874,43.798036],[-119.776857,43.80005],[-119.776834,43.80368],[-119.776811,43.807309],[-119.776789,43.810929],[-119.776767,43.81455],[-119.776761,43.815594],[-119.776759,43.815856],[-119.776762,43.815986],[-119.776757,43.816171],[-119.776745,43.81817],[-119.776723,43.82179],[-119.776697,43.825411],[-119.776671,43.829033],[-119.776662,43.829732],[-119.77666,43.829929],[-119.776626,43.83264],[-119.776596,43.834831],[-119.776582,43.836247],[-119.776515,43.841498],[-119.776493,43.843461],[-119.776488,43.847094],[-119.776482,43.850727],[-119.776439,43.854353],[-119.776396,43.85798],[-119.77632,43.861597],[-119.77625,43.864947],[-119.776243,43.865215],[-119.7763,43.867962],[-119.776374,43.872513],[-119.776333,43.87612],[-119.776293,43.879727],[-119.776275,43.881509],[-119.776252,43.883334],[-119.776212,43.886942],[-119.776171,43.890549],[-119.776131,43.894156],[-119.776129,43.894336],[-119.776098,43.897197],[-119.776095,43.897325],[-119.776085,43.897841],[-119.776086,43.898145],[-119.77605,43.901371],[-119.776009,43.904978],[-119.775969,43.908585],[-119.775919,43.912977],[-119.775918,43.913084],[-119.775917,43.913189],[-119.775896,43.915062],[-119.77582,43.92186],[-119.7758,43.923649],[-119.775799,43.92372],[-119.775792,43.924299],[-119.775786,43.924863],[-119.775778,43.925957],[-119.77576,43.927157],[-119.775697,43.932745],[-119.77558,43.943027],[-119.775579,43.943318],[-119.775574,43.943718],[-119.775572,43.943879],[-119.775402,43.959086],[-119.768864,43.959056],[-119.768065,43.959052],[-119.766447,43.959045],[-119.764649,43.959036],[-119.756835,43.959],[-119.751528,43.958996],[-119.734908,43.958983],[-119.72091,43.95897],[-119.716974,43.958968],[-119.710908,43.958962],[-119.707009,43.95896],[-119.702026,43.958956],[-119.697043,43.958952],[-119.682096,43.95894],[-119.673292,43.958933],[-119.672097,43.958932],[-119.661936,43.958924],[-119.661626,43.958923],[-119.657538,43.95892],[-119.657183,43.95892],[-119.64656,43.9591],[-119.645205,43.959123],[-119.64392,43.959144],[-119.642554,43.959167],[-119.637578,43.959252],[-119.632602,43.959336],[-119.627626,43.95942],[-119.622651,43.959505],[-119.61949,43.95956],[-119.617675,43.959589],[-119.614325,43.959593],[-119.614327,43.954928],[-119.614388,43.929245],[-119.614387,43.929014],[-119.614384,43.928324],[-119.614383,43.928094],[-119.614385,43.927888],[-119.614392,43.92727],[-119.614395,43.927065],[-119.6144,43.92506],[-119.614415,43.919044],[-119.614421,43.91704],[-119.614421,43.916743],[-119.614421,43.915855],[-119.614421,43.915559],[-119.614423,43.915293],[-119.61443,43.914494],[-119.614433,43.914229],[-119.614434,43.913542],[-119.614436,43.911483],[-119.614438,43.910797],[-119.614439,43.910337],[-119.614439,43.909578],[-119.614439,43.909172],[-119.614444,43.905645],[-119.614445,43.904299],[-119.614447,43.902675],[-119.614455,43.900199],[-119.614458,43.89942],[-119.614466,43.897135],[-119.614472,43.895389],[-119.614477,43.893735],[-119.61448,43.892771],[-119.614489,43.890296],[-119.61449,43.889721],[-119.614492,43.889367],[-119.614493,43.889039],[-119.614493,43.888749],[-119.614495,43.887998],[-119.614497,43.887424],[-119.614496,43.886749],[-119.614493,43.884724],[-119.614493,43.884049],[-119.614498,43.883267],[-119.614515,43.880921],[-119.614522,43.88014],[-119.614525,43.87969],[-119.614535,43.878343],[-119.614539,43.877894],[-119.614593,43.87663],[-119.614635,43.875688],[-119.614744,43.873175],[-119.614409,43.873171],[-119.613145,43.873159],[-119.612546,43.873163],[-119.611075,43.873176],[-119.610752,43.873178],[-119.610154,43.873183],[-119.609183,43.87319],[-119.607297,43.873204],[-119.602386,43.873242],[-119.599652,43.873262],[-119.598728,43.873269],[-119.598249,43.873273],[-119.595872,43.873291],[-119.594629,43.8733],[-119.592406,43.873317],[-119.591365,43.873312],[-119.591245,43.873312],[-119.580273,43.873262],[-119.578866,43.873256],[-119.577846,43.873251],[-119.575645,43.873241],[-119.57334,43.873231],[-119.572005,43.873227],[-119.56973,43.87322],[-119.566336,43.873212],[-119.558901,43.873191],[-119.555292,43.873181],[-119.555052,43.873179],[-119.554334,43.873175],[-119.554095,43.873174],[-119.538899,43.873094],[-119.532591,43.873041],[-119.51443,43.872892],[-119.514429,43.873653],[-119.514429,43.874629],[-119.514424,43.879429],[-119.514424,43.879961],[-119.514423,43.880679],[-119.514423,43.882836],[-119.514423,43.883275],[-119.514423,43.883555],[-119.514418,43.884105],[-119.514406,43.885754],[-119.514402,43.886305],[-119.514429,43.887149],[-119.514131,43.887152],[-119.510706,43.887188],[-119.509565,43.887201],[-119.505676,43.887222],[-119.495634,43.887278],[-119.494012,43.887286],[-119.492911,43.887293],[-119.492535,43.887295],[-119.492428,43.886498],[-119.492215,43.884906],[-119.492124,43.883966],[-119.491853,43.881146],[-119.491763,43.880206],[-119.491476,43.876689],[-119.491464,43.873363],[-119.489449,43.873346],[-119.48341,43.873293],[-119.482868,43.873286],[-119.473756,43.873243],[-119.472479,43.873232],[-119.468651,43.873199],[-119.467375,43.873189],[-119.466771,43.873404],[-119.464962,43.874051],[-119.464359,43.874267],[-119.462578,43.87416],[-119.457236,43.873842],[-119.455456,43.873736],[-119.453675,43.873646],[-119.448332,43.873376],[-119.446552,43.873286],[-119.444973,43.873235],[-119.440238,43.873082],[-119.43866,43.873032],[-119.437888,43.873044],[-119.435574,43.87308],[-119.434803,43.873093],[-119.434754,43.873095],[-119.434607,43.873103],[-119.434559,43.873107],[-119.432413,43.873035],[-119.428057,43.872889],[-119.425978,43.872819],[-119.423833,43.872748],[-119.422842,43.872738],[-119.422753,43.872738],[-119.41987,43.872712],[-119.41888,43.872704],[-119.417007,43.872686],[-119.413436,43.872654],[-119.413443,43.870609],[-119.41345,43.868737],[-119.41345,43.86871],[-119.41345,43.86863],[-119.41345,43.868604],[-119.413455,43.866513],[-119.413472,43.86024],[-119.413478,43.85815],[-119.413481,43.85718],[-119.413493,43.854269],[-119.413497,43.8533],[-119.413497,43.853111],[-119.413499,43.852543],[-119.4135,43.852355],[-119.4135,43.852317],[-119.4135,43.852205],[-119.4135,43.852168],[-119.413503,43.85025],[-119.413506,43.848063],[-119.413526,43.83575],[-119.413533,43.831646],[-119.413557,43.831231],[-119.41363,43.829987],[-119.413655,43.829573],[-119.413659,43.829493],[-119.413672,43.829253],[-119.413677,43.829174],[-119.413745,43.828183],[-119.413951,43.825212],[-119.414021,43.824222],[-119.413972,43.823452],[-119.413827,43.821145],[-119.413779,43.820376],[-119.41375,43.819854],[-119.413665,43.818291],[-119.413637,43.81777],[-119.413638,43.817698],[-119.413643,43.817482],[-119.413645,43.817411],[-119.413646,43.816137],[-119.41365,43.813825],[-119.413652,43.812318],[-119.413653,43.811856],[-119.413654,43.811045],[-119.413651,43.810986],[-119.413643,43.810809],[-119.413641,43.810751],[-119.413646,43.809213],[-119.413662,43.804599],[-119.413668,43.803062],[-119.413669,43.80135],[-119.41367,43.8011],[-119.413675,43.796214],[-119.413678,43.794503],[-119.413678,43.794196],[-119.413679,43.793277],[-119.41368,43.792971],[-119.41369,43.7924],[-119.413721,43.790687],[-119.413729,43.79027],[-119.413708,43.790118],[-119.413628,43.787609],[-119.413574,43.785899],[-119.419391,43.785921],[-119.421901,43.785931],[-119.422491,43.785931],[-119.424261,43.785932],[-119.424852,43.785933],[-119.430682,43.785956],[-119.431947,43.785961],[-119.444334,43.78601],[-119.447667,43.786023],[-119.448175,43.786025],[-119.449683,43.78603],[-119.454006,43.786048],[-119.454226,43.786048],[-119.454887,43.78605],[-119.455108,43.786051],[-119.45793,43.786062],[-119.465268,43.786091],[-119.466398,43.786095],[-119.468849,43.786105],[-119.469221,43.786106],[-119.47178,43.786115],[-119.476136,43.786133],[-119.476403,43.786134],[-119.479457,43.786145],[-119.482016,43.786156],[-119.484962,43.786148],[-119.489892,43.786135],[-119.493173,43.786126],[-119.49318,43.785496],[-119.493215,43.78255],[-119.493203,43.781348],[-119.49317,43.777745],[-119.493159,43.776544],[-119.493156,43.776515],[-119.493147,43.776428],[-119.493147,43.776399],[-119.493156,43.776275],[-119.493185,43.775905],[-119.493196,43.775782],[-119.493219,43.775415],[-119.493289,43.774317],[-119.493313,43.773952],[-119.493316,43.773652],[-119.493327,43.772754],[-119.493332,43.772455],[-119.493343,43.771397],[-119.493379,43.768225],[-119.493392,43.767168],[-119.493401,43.766279],[-119.49343,43.763615],[-119.493438,43.762982],[-119.493441,43.762727],[-119.493547,43.753561],[-119.493594,43.749437],[-119.493717,43.738321],[-119.493717,43.738293],[-119.493719,43.738209],[-119.49372,43.738182],[-119.493803,43.732243],[-119.493824,43.729544],[-119.493829,43.728918],[-119.493833,43.728321],[-119.493845,43.72653],[-119.493849,43.725933],[-119.493858,43.725516],[-119.493887,43.724266],[-119.493898,43.72385],[-119.493942,43.721442],[-119.494077,43.714219],[-119.494078,43.714185],[-119.496452,43.714184],[-119.496689,43.714184],[-119.497401,43.714184],[-119.497639,43.714185],[-119.498586,43.714186],[-119.501428,43.71419],[-119.502031,43.714192],[-119.502376,43.714193],[-119.503074,43.714192],[-119.506548,43.714198],[-119.508093,43.714199],[-119.512729,43.714203],[-119.514275,43.714205],[-119.515127,43.714201],[-119.517684,43.714189],[-119.518537,43.714186],[-119.519347,43.714182],[-119.52178,43.714172],[-119.522591,43.714169],[-119.522925,43.71417],[-119.527465,43.714177],[-119.533029,43.714187],[-119.533151,43.705127],[-119.533217,43.700253],[-119.533234,43.698448],[-119.533285,43.693032],[-119.533303,43.691228],[-119.53341,43.684274],[-119.533413,43.683654],[-119.533442,43.681029],[-119.533532,43.673158],[-119.533562,43.670534],[-119.533573,43.669478],[-119.533609,43.66631],[-119.533621,43.665255],[-119.533627,43.665224],[-119.533646,43.665133],[-119.533653,43.665103],[-119.533752,43.657393],[-119.534053,43.634265],[-119.534154,43.626556],[-119.534161,43.625834],[-119.534185,43.623671],[-119.534194,43.62295],[-119.534273,43.616793],[-119.53328,43.615297],[-119.529096,43.615168],[-119.521746,43.61487],[-119.517366,43.614692],[-119.515691,43.614624],[-119.509248,43.614353],[-119.489919,43.61354],[-119.483477,43.61327],[-119.483418,43.613142],[-119.483262,43.613071],[-119.482935,43.612923],[-119.482618,43.612923],[-119.482459,43.612962],[-119.482365,43.612962],[-119.482308,43.612962],[-119.482286,43.612945],[-119.482225,43.612929],[-119.482127,43.612863],[-119.482093,43.612834],[-119.481956,43.612909],[-119.481593,43.613111],[-119.481554,43.613144],[-119.481438,43.613248],[-119.476952,43.613201],[-119.463495,43.613062],[-119.45901,43.613016],[-119.458669,43.613012],[-119.457648,43.613001],[-119.457308,43.612998],[-119.447339,43.612916],[-119.417434,43.61267],[-119.414951,43.61265],[-119.414948,43.605165],[-119.414946,43.605021],[-119.41494,43.604591],[-119.414939,43.604448],[-119.414942,43.603939],[-119.41495,43.602415],[-119.414954,43.601908],[-119.414946,43.600305],[-119.414923,43.595499],[-119.414916,43.593897],[-119.414913,43.593176],[-119.414905,43.591013],[-119.414903,43.590292],[-119.414901,43.589798],[-119.414896,43.588317],[-119.414895,43.587824],[-119.414894,43.587785],[-119.414892,43.587669],[-119.414892,43.587631],[-119.414886,43.585934],[-119.414869,43.580844],[-119.414864,43.579148],[-119.414859,43.578001],[-119.414845,43.574563],[-119.414841,43.573417],[-119.414829,43.570285],[-119.414796,43.560889],[-119.414785,43.557758],[-119.414782,43.557066],[-119.414773,43.554992],[-119.41477,43.554301],[-119.414765,43.553112],[-119.414753,43.549547],[-119.414749,43.548359],[-119.414747,43.547796],[-119.414741,43.546107],[-119.41474,43.545544],[-119.414734,43.544087],[-119.414719,43.540053],[-119.414714,43.539716],[-119.414694,43.53826],[-119.414718,43.537697],[-119.414746,43.537058],[-119.414791,43.536011],[-119.414794,43.535957],[-119.414816,43.535449],[-119.414948,43.533315],[-119.415347,43.526913],[-119.41548,43.52478],[-119.415768,43.519806],[-119.416636,43.504885],[-119.416925,43.499912],[-119.417025,43.498292],[-119.417328,43.493436],[-119.417387,43.492494],[-119.417429,43.491817],[-119.417503,43.489961],[-119.417729,43.484393],[-119.417805,43.482538],[-119.417905,43.47919],[-119.418205,43.469145],[-119.418306,43.465798],[-119.418379,43.462086],[-119.418599,43.45095],[-119.418673,43.447239],[-119.418676,43.44705],[-119.418686,43.446484],[-119.41869,43.446296],[-119.418718,43.444898],[-119.418804,43.440706],[-119.418834,43.439309],[-119.41755,43.439294],[-119.416203,43.439279],[-119.413701,43.439249],[-119.412418,43.439235],[-119.410602,43.439213],[-119.405157,43.439147],[-119.403342,43.439126],[-119.378571,43.438832],[-119.368445,43.438711],[-119.350502,43.438499],[-119.350339,43.438497],[-119.350176,43.438495],[-119.348553,43.438476],[-119.338069,43.438351],[-119.327944,43.438231],[-119.326549,43.438215],[-119.322366,43.438169],[-119.320972,43.438154],[-119.320453,43.438147],[-119.318896,43.438129],[-119.318378,43.438123],[-119.316327,43.438096],[-119.314178,43.438069],[-119.313802,43.438064],[-119.310174,43.438017],[-119.308124,43.437991],[-119.303405,43.437936],[-119.28925,43.437771],[-119.284532,43.437716],[-119.274584,43.437599],[-119.253393,43.43735],[-119.250152,43.437312],[-119.246912,43.437273],[-119.246688,43.437271],[-119.245366,43.437256],[-119.244742,43.437248],[-119.244045,43.43724],[-119.238814,43.437178],[-119.234795,43.437174],[-119.234387,43.437178],[-119.233163,43.437192],[-119.232756,43.437198],[-119.229063,43.437189],[-119.22788,43.437189],[-119.226696,43.437189],[-119.223628,43.43719],[-119.220561,43.43719],[-119.22024,43.437191],[-119.181657,43.437168],[-119.181448,43.437167],[-119.180821,43.437167],[-119.180612,43.437167],[-119.175918,43.437165],[-119.161836,43.437161],[-119.157143,43.43716],[-119.150675,43.437148],[-119.134862,43.437121],[-119.131271,43.437114],[-119.124803,43.437104],[-119.124689,43.437022],[-119.124403,43.43689],[-119.124252,43.436781],[-119.124153,43.436777],[-119.124079,43.436775],[-119.123921,43.436814],[-119.12374,43.436836],[-119.123477,43.436819],[-119.123303,43.43677],[-119.123032,43.436649],[-119.122942,43.436628],[-119.122671,43.436606],[-119.122272,43.436655],[-119.122099,43.436694],[-119.121992,43.436745],[-119.121602,43.436936],[-119.121436,43.437034],[-119.121366,43.437123],[-119.119365,43.437113],[-119.118513,43.43711],[-119.113364,43.437086],[-119.111364,43.437077],[-119.093081,43.437054],[-119.05774,43.437012],[-119.038232,43.436988],[-119.030224,43.436979],[-119.01995,43.436967],[-119.016148,43.437012],[-119.010328,43.437083],[-119.004744,43.43715],[-119.003695,43.437163],[-119.003739,43.439915],[-119.003722,43.440174],[-119.003674,43.440954],[-119.003659,43.441215],[-119.003662,43.44206],[-119.003672,43.444596],[-119.003676,43.445442],[-119.003749,43.450442],[-119.003731,43.451925],[-119.003733,43.454049],[-119.003736,43.456775],[-119.003739,43.460424],[-119.003741,43.462549],[-119.003741,43.464081],[-119.003742,43.468679],[-119.003743,43.470212],[-119.003753,43.473245],[-119.003775,43.479334],[-119.000763,43.479322],[-118.99773,43.47931],[-118.995934,43.479302],[-118.990546,43.479281],[-118.988751,43.479274],[-118.986207,43.479263],[-118.985771,43.479262],[-118.984518,43.479257],[-118.984005,43.479255],[-118.978575,43.479233],[-118.976031,43.479223],[-118.972944,43.479211],[-118.965055,43.47918],[-118.932127,43.479053],[-118.925019,43.479026],[-118.921151,43.479011],[-118.920749,43.479011],[-118.919545,43.479012],[-118.919144,43.479013],[-118.915553,43.478999],[-118.915283,43.478998],[-118.914416,43.478994],[-118.914118,43.478993],[-118.904272,43.478955],[-118.900232,43.478939],[-118.897155,43.478927],[-118.895505,43.478921],[-118.892684,43.478908],[-118.89212,43.478906],[-118.889254,43.478903],[-118.884222,43.478897],[-118.881402,43.478895],[-118.862217,43.478876],[-118.857194,43.478871],[-118.836482,43.478851],[-118.827969,43.478868],[-118.827973,43.480286],[-118.82798,43.482961],[-118.828006,43.486421],[-118.828022,43.488401],[-118.828086,43.496802],[-118.828092,43.497552],[-118.828113,43.500263],[-118.828129,43.501164],[-118.828177,43.503868],[-118.828194,43.50477],[-118.828213,43.506563],[-118.828271,43.511942],[-118.828291,43.513736],[-118.828294,43.514104],[-118.828305,43.515208],[-118.828309,43.515576],[-118.828314,43.516172],[-118.828332,43.517962],[-118.828338,43.518559],[-118.828346,43.520737],[-118.828373,43.527274],[-118.828377,43.528178],[-118.827101,43.528176],[-118.826421,43.528174],[-118.824381,43.52817],[-118.823701,43.528169],[-118.823388,43.528167],[-118.822451,43.528164],[-118.822139,43.528163],[-118.820442,43.528159],[-118.815351,43.528151],[-118.813654,43.528148],[-118.811704,43.528143],[-118.805857,43.528131],[-118.803908,43.528127],[-118.80325,43.528125],[-118.801277,43.528122],[-118.80062,43.528121],[-118.800275,43.52812],[-118.79924,43.528117],[-118.798976,43.528117],[-118.798896,43.528117],[-118.798721,43.528118],[-118.798198,43.528124],[-118.798024,43.528126],[-118.792199,43.528124],[-118.775163,43.528121],[-118.774727,43.52812],[-118.768903,43.528119],[-118.766958,43.528117],[-118.761124,43.528111],[-118.75918,43.528109],[-118.755131,43.528105],[-118.754768,43.528104],[-118.752556,43.528102],[-118.752435,43.531563],[-118.752472,43.539122],[-118.752494,43.543534],[-118.752505,43.545682],[-118.752505,43.545878],[-118.75254,43.552911],[-118.752552,43.555256],[-118.752565,43.557919],[-118.752604,43.565908],[-118.752618,43.568571],[-118.752619,43.568799],[-118.752622,43.569486],[-118.752624,43.569715],[-118.752624,43.569763],[-118.752633,43.572132],[-118.75266,43.578518],[-118.75266,43.57867],[-118.752661,43.578823],[-118.752663,43.579384],[-118.752673,43.581802],[-118.752694,43.58422],[-118.752858,43.594031],[-118.748321,43.594023],[-118.744331,43.594022],[-118.732362,43.59402],[-118.728373,43.59402],[-118.726206,43.594013],[-118.719705,43.593992],[-118.717539,43.593985],[-118.715096,43.593991],[-118.712052,43.594],[-118.712094,43.590889],[-118.710921,43.590901],[-118.708479,43.590928],[-118.708002,43.590931],[-118.706572,43.590944],[-118.706096,43.590948],[-118.702666,43.590975],[-118.692379,43.591059],[-118.688951,43.591087],[-118.684909,43.591115],[-118.679047,43.591156],[-118.672785,43.5912],[-118.671938,43.591206],[-118.671988,43.5944],[-118.672,43.595842],[-118.672037,43.600171],[-118.67205,43.601614],[-118.672064,43.603858],[-118.672109,43.61059],[-118.672124,43.612835],[-118.672124,43.613532],[-118.672125,43.615623],[-118.672126,43.616321],[-118.672134,43.616699],[-118.672161,43.617834],[-118.67217,43.618213],[-118.672207,43.620892],[-118.672223,43.621954],[-118.672241,43.623258],[-118.672295,43.627079],[-118.670444,43.627113],[-118.667765,43.627163],[-118.662498,43.627188],[-118.662495,43.627562],[-118.662371,43.644485],[-118.662331,43.650126],[-118.66233,43.650194],[-118.662329,43.650401],[-118.662329,43.65047],[-118.662323,43.651164],[-118.662307,43.653249],[-118.662303,43.653944],[-118.662292,43.655359],[-118.662261,43.659607],[-118.662251,43.661023],[-118.662249,43.661146],[-118.662246,43.661514],[-118.662246,43.661638],[-118.66223,43.66379],[-118.662184,43.670248],[-118.66217,43.672401],[-118.662163,43.673214],[-118.662144,43.675656],[-118.662139,43.67647],[-118.661893,43.707936],[-118.661894,43.710305],[-118.661863,43.714397],[-118.661771,43.726674],[-118.661741,43.730767],[-118.66175,43.73079],[-118.661762,43.730896],[-118.661743,43.731019],[-118.661679,43.731268],[-118.661614,43.731468],[-118.661586,43.731618],[-118.6616,43.731732],[-118.66162,43.731761],[-118.661676,43.731842],[-118.661772,43.731968],[-118.661761,43.732458],[-118.661732,43.733931],[-118.661722,43.734423],[-118.66172,43.734505],[-118.661716,43.734751],[-118.661715,43.734834],[-118.661709,43.734928],[-118.661695,43.735213],[-118.661691,43.735308],[-118.661671,43.736549],[-118.661612,43.740276],[-118.661593,43.741518],[-118.663263,43.741522],[-118.668273,43.741534],[-118.669944,43.741539],[-118.675501,43.741555],[-118.692173,43.741603],[-118.697731,43.74162],[-118.710439,43.741676],[-118.710466,43.743588],[-118.710468,43.746771],[-118.710471,43.749167],[-118.710477,43.756322],[-118.710481,43.759506],[-118.710528,43.76321],[-118.710567,43.766225],[-118.710664,43.774324],[-118.710683,43.775887],[-118.7107,43.776539],[-118.710719,43.778029],[-118.710724,43.778286],[-118.710731,43.778581],[-118.710725,43.77906],[-118.710725,43.77907],[-118.7107,43.779317],[-118.710714,43.781461],[-118.710743,43.785814],[-118.712817,43.785953],[-118.714957,43.786098],[-118.715754,43.786098],[-118.718148,43.786101],[-118.718946,43.786102],[-118.719105,43.786101],[-118.719104,43.790276],[-118.719104,43.790952],[-118.718766,43.803273],[-118.718648,43.807606],[-118.718566,43.811327],[-118.718324,43.82249],[-118.718243,43.826212],[-118.718146,43.83535],[-118.71794,43.855012],[-118.717892,43.85957],[-118.717872,43.861492],[-118.717858,43.862767],[-118.717822,43.866197],[-118.717762,43.871906],[-118.72281,43.871962],[-118.725725,43.871994],[-118.742898,43.872186],[-118.745321,43.872213],[-118.749617,43.87226],[-118.757431,43.872347],[-118.757581,43.872349],[-118.757701,43.87235],[-118.758061,43.872353],[-118.758181,43.872355],[-118.766396,43.872439],[-118.770302,43.872479],[-118.771098,43.872492],[-118.773488,43.872534],[-118.773822,43.87254],[-118.774285,43.872548],[-118.776585,43.872569],[-118.783485,43.872632],[-118.785785,43.872654],[-118.788421,43.872682],[-118.791966,43.872721],[-118.796331,43.872768],[-118.796925,43.872775],[-118.798968,43.872797],[-118.80156,43.872824],[-118.802551,43.872835],[-118.809336,43.872906],[-118.811013,43.872924],[-118.811929,43.872934],[-118.812581,43.872945],[-118.81454,43.872978],[-118.815193,43.87299],[-118.816815,43.872984],[-118.816786,43.873799],[-118.81672,43.875722],[-118.816561,43.880307],[-118.816533,43.88111],[-118.816449,43.883547],[-118.816608,43.884692],[-118.817031,43.887721],[-118.816985,43.88813],[-118.816856,43.88928],[-118.81699,43.892612],[-118.817272,43.899552],[-118.81735,43.901487],[-118.817395,43.902608],[-118.817418,43.903161],[-118.817379,43.905943],[-118.817318,43.90719],[-118.817137,43.910931],[-118.817077,43.912179],[-118.817062,43.913671],[-118.817019,43.918151],[-118.817005,43.919644],[-118.816991,43.920862],[-118.816953,43.924519],[-118.816941,43.925738],[-118.816862,43.935588],[-118.816857,43.936331],[-118.816829,43.940294],[-118.81682,43.940761],[-118.816821,43.941333],[-118.816682,43.95641],[-118.81668,43.956486],[-118.816678,43.956715],[-118.816678,43.956792],[-118.816671,43.957428],[-118.816654,43.959338],[-118.816931,43.960733],[-118.816925,43.964351],[-118.816919,43.967968],[-118.816914,43.971586],[-118.816909,43.973892],[-118.816911,43.974374],[-118.816913,43.981111],[-118.816919,43.98247],[-118.816922,43.984774],[-118.816917,43.985428],[-118.816926,43.98702],[-118.81693,43.989737],[-118.816935,43.993371],[-118.816941,43.997004],[-118.816947,44.000638],[-118.816952,44.004272],[-118.816958,44.007905],[-118.81696,44.008864],[-118.816963,44.011539],[-118.816971,44.014289],[-118.816969,44.015172],[-118.816978,44.015247],[-118.816996,44.030196],[-118.816988,44.03121],[-118.816996,44.03334],[-118.81697,44.036962],[-118.816961,44.03817],[-118.816963,44.038615],[-118.816943,44.040584],[-118.816917,44.044206],[-118.816916,44.046547],[-118.81689,44.047828],[-118.81443,44.047822],[-118.812046,44.047813],[-118.807067,44.047795],[-118.80698,44.047797],[-118.801954,44.047781],[-118.799711,44.047775],[-118.796909,44.047766],[-118.791865,44.047749],[-118.788984,44.047739],[-118.784198,44.047724],[-118.78244,44.047719],[-118.782217,44.047718],[-118.78177,44.047716],[-118.779672,44.04771],[-118.776733,44.0477],[-118.774598,44.047693],[-118.756794,44.047637],[-118.756541,44.047636],[-118.751495,44.04762],[-118.749798,44.047614],[-118.746449,44.047604],[-118.741403,44.047588],[-118.736724,44.047573],[-118.736357,44.047572],[-118.731229,44.04755],[-118.715366,44.04748],[-118.714666,44.047476],[-118.693538,44.047384],[-118.693197,44.047382],[-118.692641,44.04738],[-118.688144,44.04736],[-118.683091,44.047338],[-118.678033,44.047315],[-118.672978,44.047293],[-118.657814,44.047225],[-118.652758,44.047203],[-118.651211,44.047196],[-118.650635,44.047196],[-118.647703,44.04718],[-118.642659,44.047165],[-118.637615,44.047149],[-118.632571,44.047134],[-118.628775,44.047122],[-118.627526,44.047119],[-118.622482,44.047103],[-118.617438,44.047088],[-118.612394,44.047072],[-118.607349,44.047057],[-118.602305,44.047042],[-118.597261,44.047026],[-118.590369,44.047005],[-118.587172,44.046995],[-118.587141,44.042514],[-118.587125,44.040266],[-118.583775,44.040269],[-118.582829,44.04027],[-118.577835,44.040274],[-118.574328,44.04028],[-118.57284,44.040279],[-118.570233,44.040283],[-118.567845,44.040283],[-118.56285,44.040288],[-118.557856,44.040292],[-118.55337,44.040299],[-118.552861,44.040297],[-118.547866,44.040301],[-118.542871,44.040306],[-118.540098,44.040312],[-118.538708,44.040317],[-118.537876,44.04031],[-118.532882,44.040315],[-118.527887,44.040319],[-118.522892,44.040324],[-118.517897,44.040328],[-118.512903,44.040333],[-118.507908,44.040337],[-118.503912,44.040345],[-118.502913,44.040342],[-118.50099,44.040344],[-118.50014,44.040345],[-118.499201,44.040346],[-118.499183,44.040348],[-118.498942,44.040351],[-118.498477,44.040346],[-118.497918,44.040347],[-118.496616,44.040348],[-118.492923,44.040351],[-118.488557,44.040355],[-118.488103,44.04035],[-118.487929,44.040356],[-118.482934,44.04036],[-118.477939,44.040365],[-118.475451,44.040367],[-118.474073,44.040368],[-118.473688,44.040369],[-118.471066,44.040371],[-118.467308,44.040375],[-118.466299,44.040374],[-118.465984,44.040373],[-118.46528,44.040375],[-118.462153,44.040374],[-118.458395,44.040373],[-118.444857,44.040378],[-118.444198,44.040376],[-118.444022,44.040374],[-118.443495,44.040376],[-118.438487,44.040377],[-118.436203,44.040385],[-118.431927,44.040377],[-118.428471,44.040378],[-118.423449,44.040385],[-118.418427,44.040392],[-118.413405,44.040399],[-118.411549,44.0404],[-118.409075,44.040405],[-118.40839,44.040406],[-118.401621,44.040418],[-118.399624,44.040423],[-118.39896,44.040425],[-118.397849,44.040423],[-118.385899,44.040438],[-118.385098,44.040443],[-118.383246,44.040449],[-118.378196,44.040461],[-118.373146,44.040474],[-118.368096,44.040487],[-118.364133,44.040454],[-118.363039,44.040445],[-118.357982,44.040403],[-118.352921,44.040396],[-118.347859,44.040388],[-118.347856,44.039075],[-118.34262,44.039129],[-118.342246,44.039133],[-118.342056,44.039137],[-118.337249,44.039186],[-118.331446,44.039237],[-118.326299,44.03928],[-118.322119,44.039319],[-118.321151,44.039327],[-118.317076,44.039363],[-118.315383,44.039378],[-118.312032,44.039407],[-118.306989,44.039452],[-118.30203,44.039477],[-118.297071,44.039503],[-118.292112,44.039529],[-118.287153,44.039554],[-118.282194,44.03958],[-118.281783,44.039583],[-118.277235,44.039606],[-118.272276,44.039632],[-118.269442,44.039646],[-118.267317,44.039657],[-118.262358,44.039683],[-118.257399,44.039709],[-118.25244,44.039734],[-118.247481,44.03976],[-118.24727,44.039764],[-118.246747,44.039764],[-118.242522,44.039786],[-118.234936,44.039825],[-118.232613,44.039837],[-118.227645,44.039862],[-118.227646,44.039644],[-118.227657,44.037854],[-118.227662,44.037058],[-118.227735,44.0326],[-118.227726,44.028949],[-118.227735,44.027225],[-118.227743,44.025309],[-118.227742,44.024377],[-118.227741,44.024054],[-118.22774,44.023569],[-118.22774,44.023249],[-118.227737,44.022434],[-118.227736,44.021979],[-118.227733,44.021183],[-118.227722,44.019537],[-118.227719,44.019127],[-118.227715,44.01854],[-118.227706,44.01686],[-118.227685,44.013214],[-118.227671,44.011696],[-118.227675,44.009143],[-118.227684,44.001923],[-118.227686,44.000616],[-118.227687,43.999509],[-118.227688,43.998862],[-118.227689,43.997654],[-118.22769,43.996559],[-118.227691,43.995715],[-118.227692,43.995198],[-118.227692,43.994906],[-118.227693,43.994576],[-118.227694,43.993866],[-118.227694,43.993534],[-118.227694,43.993064],[-118.227697,43.991284],[-118.227701,43.988058],[-118.227705,43.984062],[-118.227709,43.98066],[-118.22773,43.963776],[-118.227729,43.963749],[-118.227742,43.953149],[-118.227756,43.948041],[-118.227763,43.945121],[-118.227782,43.937521],[-118.227799,43.931458],[-118.227846,43.912956],[-118.227863,43.906635],[-118.227864,43.905955],[-118.227876,43.901566],[-118.22789,43.896128],[-118.22789,43.887553],[-118.227889,43.885851],[-118.227888,43.882096],[-118.227887,43.880891],[-118.227887,43.880397],[-118.227884,43.879737],[-118.227889,43.879637],[-118.227888,43.879554],[-118.227884,43.877464],[-118.227882,43.875474],[-118.22788,43.873881],[-118.227883,43.863044],[-118.227901,43.858702],[-118.227908,43.858505],[-118.227909,43.855918],[-118.22791,43.855187],[-118.227913,43.854424],[-118.227923,43.852961],[-118.227922,43.851034],[-118.227922,43.840826],[-118.227931,43.837742],[-118.227927,43.835269],[-118.227944,43.828385],[-118.227949,43.82676],[-118.227951,43.825653],[-118.227953,43.825111],[-118.227956,43.823695],[-118.227971,43.818958],[-118.227981,43.815667],[-118.228044,43.797042],[-118.228065,43.791088],[-118.228069,43.789897],[-118.228081,43.786439],[-118.228092,43.783384],[-118.228097,43.78218],[-118.228105,43.781656],[-118.228104,43.78008],[-118.228106,43.779667],[-118.228107,43.779195],[-118.230291,43.779207],[-118.230521,43.779209],[-118.231731,43.779216],[-118.231744,43.778988],[-118.231765,43.778607],[-118.231794,43.778075],[-118.231913,43.77526],[-118.231947,43.774452],[-118.2321,43.770829],[-118.232097,43.76717],[-118.232095,43.76351],[-118.232094,43.76225],[-118.232093,43.759851],[-118.232089,43.753081],[-118.232089,43.750633],[-118.232086,43.748873],[-118.232086,43.748289],[-118.232086,43.747367],[-118.232084,43.745213],[-118.232084,43.744422],[-118.23208,43.742218],[-118.23208,43.737894],[-118.232077,43.733948],[-118.232069,43.718604],[-118.232067,43.7155],[-118.23207,43.708933],[-118.232071,43.708322],[-118.232072,43.708002],[-118.232075,43.705828],[-118.232075,43.705543],[-118.232076,43.7055],[-118.232076,43.704923],[-118.232077,43.704652],[-118.232077,43.704502],[-118.232079,43.703567],[-118.232079,43.703106],[-118.232082,43.701202],[-118.232085,43.69951],[-118.232086,43.698482],[-118.23209,43.696932],[-118.232093,43.696078],[-118.232094,43.69581],[-118.232099,43.694388],[-118.232106,43.692533],[-118.23211,43.691449],[-118.232129,43.686102],[-118.232174,43.673417],[-118.232196,43.667168],[-118.232201,43.665718],[-118.232208,43.663943],[-118.232229,43.659387],[-118.232256,43.650506],[-118.232286,43.642655],[-118.232291,43.640473],[-118.232308,43.635711],[-118.232312,43.633853],[-118.232318,43.633436],[-118.232316,43.633204],[-118.232319,43.632684],[-118.23232,43.632361],[-118.232326,43.631916],[-118.232331,43.629265],[-118.232337,43.627782],[-118.232343,43.62603],[-118.232348,43.624507],[-118.232354,43.622776],[-118.232361,43.620905],[-118.232368,43.61888],[-118.23237,43.618284],[-118.232373,43.617622],[-118.232379,43.615916],[-118.232384,43.614447],[-118.232392,43.612266],[-118.232372,43.608843],[-118.232348,43.607076],[-118.232297,43.603353],[-118.232232,43.59864],[-118.232191,43.595686],[-118.23218,43.594902],[-118.232138,43.592041],[-118.232129,43.591185],[-118.232103,43.589316],[-118.232093,43.588816],[-118.232078,43.587523],[-118.232068,43.58676],[-118.232055,43.585852],[-118.232045,43.585122],[-118.232028,43.584393],[-118.231967,43.579461],[-118.231941,43.577966],[-118.231934,43.577274],[-118.231936,43.577068],[-118.231898,43.574482],[-118.231875,43.573603],[-118.231873,43.572628],[-118.231809,43.568013],[-118.231793,43.566816],[-118.231816,43.563151],[-118.23184,43.559486],[-118.231863,43.555821],[-118.231887,43.552156],[-118.23191,43.548492],[-118.23192,43.54593],[-118.231924,43.544569],[-118.231967,43.539634],[-118.232068,43.521595],[-118.232072,43.520899],[-118.232062,43.514811],[-118.232058,43.511967],[-118.232052,43.508343],[-118.232094,43.504723],[-118.232131,43.501529],[-118.232136,43.501102],[-118.23214,43.500819],[-118.232179,43.497482],[-118.232221,43.493862],[-118.232218,43.490241],[-118.232214,43.486619],[-118.232211,43.482998],[-118.232208,43.479377],[-118.232206,43.477834],[-118.232212,43.477121],[-118.232205,43.476043],[-118.232203,43.47381],[-118.232202,43.472956],[-118.232198,43.468201],[-118.232186,43.454261],[-118.232187,43.449522],[-118.232192,43.448808],[-118.232181,43.447961],[-118.232178,43.445294],[-118.232177,43.4433],[-118.232171,43.442204],[-118.232177,43.440504],[-118.232173,43.439542],[-118.232172,43.437505],[-118.232171,43.436775],[-118.232178,43.43565],[-118.232163,43.434311],[-118.232155,43.432495],[-118.232124,43.425448],[-118.232117,43.423907],[-118.232106,43.421474],[-118.232111,43.421072],[-118.232123,43.42018],[-118.232155,43.4176],[-118.232164,43.416888],[-118.232199,43.414127],[-118.232245,43.410453],[-118.232291,43.40678],[-118.232274,43.405535],[-118.232237,43.403023],[-118.232205,43.400643],[-118.232174,43.398395],[-118.232161,43.397465],[-118.232158,43.397255],[-118.232157,43.39711],[-118.232148,43.396542],[-118.232123,43.394758],[-118.232108,43.39368],[-118.23209,43.392329],[-118.232088,43.390907],[-118.232085,43.389435],[-118.232081,43.387724],[-118.232075,43.383632],[-118.232071,43.381886],[-118.232059,43.374901],[-118.232044,43.366838],[-118.23204,43.364631],[-118.232031,43.358995],[-118.232028,43.358695],[-118.232024,43.356203],[-118.232021,43.354099],[-118.23202,43.353559],[-118.232013,43.349872],[-118.232011,43.348959],[-118.228069,43.348964],[-118.228072,43.34467],[-118.228073,43.342221],[-118.228076,43.337159],[-118.228079,43.336152],[-118.228078,43.334963],[-118.228082,43.328748],[-118.228082,43.326695],[-118.228084,43.326046],[-118.228086,43.323865],[-118.228087,43.322439],[-118.228088,43.320252],[-118.228089,43.318832],[-118.228063,43.316621],[-118.228047,43.315184],[-118.228039,43.314511],[-118.228017,43.312672],[-118.227968,43.308436],[-118.227947,43.306647],[-118.227935,43.30563],[-118.227919,43.303869],[-118.227917,43.302492],[-118.227917,43.302146],[-118.227912,43.297063],[-118.227908,43.293466],[-118.227907,43.292151],[-118.227903,43.288802],[-118.227902,43.288056],[-118.227901,43.286567],[-118.2279,43.285888],[-118.2279,43.285172],[-118.227899,43.284709],[-118.227898,43.283719],[-118.227898,43.283414],[-118.227897,43.282535],[-118.227894,43.279994],[-118.227894,43.279139],[-118.227891,43.276781],[-118.22789,43.276248],[-118.227881,43.272513],[-118.227875,43.270309],[-118.22787,43.268726],[-118.227867,43.26784],[-118.22786,43.26516],[-118.22786,43.265025],[-118.227858,43.264573],[-118.227854,43.263365],[-118.227852,43.262947],[-118.227869,43.260261],[-118.22786,43.253282],[-118.227859,43.252392],[-118.227859,43.25222],[-118.227856,43.250012],[-118.227856,43.249871],[-118.227856,43.249715],[-118.227857,43.249543],[-118.227855,43.249085],[-118.227854,43.248104],[-118.227853,43.247678],[-118.227858,43.245066],[-118.227877,43.24347],[-118.227978,43.234718],[-118.228019,43.231184],[-118.228068,43.227069],[-118.228073,43.226493],[-118.228089,43.225134],[-118.228094,43.224626],[-118.228115,43.222836],[-118.22814,43.220735],[-118.22817,43.217564],[-118.228174,43.216858],[-118.22818,43.215806],[-118.228185,43.214945],[-118.228194,43.213289],[-118.228202,43.211805],[-118.228207,43.210957],[-118.228233,43.206278],[-118.228255,43.202463],[-118.228279,43.198114],[-118.228289,43.196282],[-118.228317,43.191515],[-118.228325,43.189917],[-118.228288,43.187888],[-118.228301,43.186128],[-118.228311,43.184651],[-118.228321,43.183234],[-118.228324,43.18279],[-118.228333,43.181552],[-118.228353,43.178871],[-118.228357,43.178088],[-118.228373,43.17605],[-118.228407,43.170069],[-118.228418,43.168123],[-118.228435,43.164919],[-118.228482,43.15644],[-118.22849,43.154941],[-118.228505,43.152332],[-118.228509,43.151593],[-118.228512,43.151014],[-118.228513,43.150744],[-118.228523,43.148981],[-118.22853,43.14783],[-118.228542,43.142997],[-118.228543,43.141525],[-118.228544,43.140386],[-118.228545,43.139225],[-118.228544,43.138791],[-118.228545,43.137844],[-118.22855,43.1357],[-118.22855,43.131197],[-118.228553,43.128055],[-118.228561,43.126473],[-118.22857,43.124881],[-118.228558,43.118825],[-118.22856,43.116587],[-118.228561,43.115127],[-118.228562,43.114063],[-118.228563,43.112614],[-118.228563,43.112075],[-118.228565,43.10887],[-118.228566,43.107644],[-118.228567,43.106016],[-118.228584,43.101021],[-118.228595,43.099513],[-118.228605,43.097664],[-118.228618,43.096791],[-118.228636,43.094559],[-118.228687,43.088184],[-118.228683,43.086086],[-118.228685,43.081019],[-118.228681,43.068016],[-118.228679,43.063674],[-118.228679,43.06348],[-118.228679,43.063242],[-118.228679,43.06291],[-118.228679,43.062852],[-118.228679,43.062638],[-118.228677,43.061174],[-118.228677,43.057648],[-118.228677,43.054171],[-118.228676,43.051747],[-118.228674,43.04507],[-118.228673,43.042817],[-118.228673,43.041302],[-118.228672,43.037849],[-118.228671,43.037027],[-118.228671,43.03679],[-118.228671,43.03673],[-118.228671,43.034787],[-118.22867,43.033978],[-118.228669,43.032549],[-118.22867,43.032086],[-118.228667,43.024581],[-118.228666,43.02058],[-118.228666,43.02022],[-118.228665,43.018142],[-118.228678,43.017123],[-118.228665,43.016202],[-118.228667,43.01239],[-118.228672,43.005852],[-118.228674,43.003375],[-118.228677,42.99989],[-118.228679,42.998495],[-118.22868,42.997869],[-118.22868,42.997283],[-118.228683,42.996354],[-118.228685,42.993906],[-118.228688,42.992189],[-118.228692,42.989006],[-118.228695,42.986741],[-118.228709,42.976629],[-118.228723,42.966195],[-118.228731,42.960291],[-118.228739,42.954094],[-118.228764,42.935681],[-118.228771,42.929493],[-118.228771,42.928124],[-118.228778,42.925705],[-118.22878,42.924295],[-118.228781,42.923391],[-118.228783,42.921844],[-118.228786,42.920131],[-118.228793,42.914625],[-118.227585,42.914633],[-118.225261,42.914648],[-118.22023,42.914681],[-118.216832,42.914703],[-118.216805,42.907265],[-118.21679,42.90338],[-118.216766,42.896324],[-118.21671,42.880687],[-118.216707,42.876091],[-118.216707,42.875133],[-118.216707,42.873948],[-118.216691,42.868607],[-118.216688,42.868127],[-118.216685,42.867584],[-118.216671,42.864835],[-118.216664,42.863962],[-118.216644,42.861221],[-118.216637,42.860339],[-118.216616,42.857606],[-118.216618,42.856717],[-118.216623,42.853997],[-118.216625,42.853108],[-118.21663,42.850388],[-118.216631,42.849499],[-118.216631,42.848282],[-118.216633,42.843139],[-118.216628,42.841442],[-118.216626,42.840634],[-118.216624,42.84034],[-118.216617,42.837998],[-118.216585,42.831494],[-118.216573,42.829297],[-118.21657,42.828706],[-118.216566,42.828143],[-118.216562,42.827782],[-118.216551,42.826486],[-118.216541,42.825405],[-118.216522,42.823206],[-118.216516,42.822494],[-118.216511,42.821935],[-118.216505,42.821541],[-118.216493,42.819723],[-118.21646,42.815293],[-118.216451,42.814105],[-118.216439,42.812712],[-118.216433,42.81194],[-118.216429,42.811413],[-118.216426,42.810951],[-118.216415,42.809583],[-118.216402,42.808042],[-118.216395,42.807084],[-118.216393,42.806858],[-118.216387,42.806137],[-118.216384,42.805902],[-118.216358,42.802996],[-118.216327,42.799653],[-118.216312,42.797926],[-118.216251,42.790585],[-118.216202,42.782917],[-118.216161,42.777316],[-118.216144,42.774411],[-118.216096,42.766589],[-118.216093,42.766164],[-118.216092,42.765938],[-118.216089,42.76576],[-118.216088,42.765077],[-118.216079,42.764005],[-118.216057,42.754092],[-118.216013,42.749883],[-118.216024,42.745169],[-118.215965,42.733566],[-118.215964,42.73335],[-118.215944,42.730326],[-118.215931,42.728358],[-118.215907,42.72382],[-118.215881,42.719098],[-118.215826,42.713678],[-118.215805,42.708552],[-118.215801,42.706651],[-118.2158,42.704724],[-118.215797,42.701111],[-118.215793,42.697497],[-118.215781,42.693864],[-118.215769,42.690231],[-118.215769,42.686615],[-118.215768,42.683],[-118.215779,42.679359],[-118.21579,42.675719],[-118.215791,42.672079],[-118.215792,42.668439],[-118.215787,42.66512],[-118.215784,42.662703],[-118.215784,42.659343],[-118.215779,42.657838],[-118.215788,42.655419],[-118.215789,42.649461],[-118.215789,42.648018],[-118.215787,42.646013],[-118.215773,42.640514],[-118.215769,42.638628],[-118.215768,42.637922],[-118.215767,42.636823],[-118.215765,42.636421],[-118.215763,42.634173],[-118.215751,42.62888],[-118.215738,42.627089],[-118.215743,42.626082],[-118.21574,42.625202],[-118.215727,42.624118],[-118.215675,42.620244],[-118.215658,42.618689],[-118.215642,42.617798],[-118.215635,42.615955],[-118.215633,42.615539],[-118.21563,42.614724],[-118.215629,42.614576],[-118.215628,42.614342],[-118.215628,42.614327],[-118.215628,42.614216],[-118.215627,42.614091],[-118.215627,42.614016],[-118.215624,42.613152],[-118.215621,42.612415],[-118.215602,42.608571],[-118.215598,42.607918],[-118.215591,42.606775],[-118.21559,42.606519],[-118.215579,42.604764],[-118.215549,42.599678],[-118.215549,42.597954],[-118.215521,42.594988],[-118.215495,42.590411],[-118.215481,42.588423],[-118.215471,42.586229],[-118.215456,42.583475],[-118.215442,42.582087],[-118.215432,42.579278],[-118.215415,42.576318],[-118.215415,42.574893],[-118.215376,42.569545],[-118.215321,42.559781],[-118.215288,42.553964],[-118.215286,42.553728],[-118.215284,42.553349],[-118.215279,42.552363],[-118.215285,42.551882],[-118.215296,42.551103],[-118.215398,42.543681],[-118.215437,42.540831],[-118.215464,42.538807],[-118.215474,42.537717],[-118.215466,42.537096],[-118.215392,42.530922],[-118.215367,42.528846],[-118.215319,42.524893],[-118.215303,42.523525],[-118.215284,42.521975],[-118.215257,42.519745],[-118.215222,42.516854],[-118.215178,42.513182],[-118.215131,42.509252],[-118.215124,42.504867],[-118.215122,42.503233],[-118.215111,42.50015],[-118.215109,42.499789],[-118.215092,42.497095],[-118.215081,42.495256],[-118.215079,42.494965],[-118.215078,42.49487],[-118.215054,42.490887],[-118.215035,42.487856],[-118.215027,42.486792],[-118.21496,42.480275],[-118.214915,42.473967],[-118.214898,42.47238],[-118.214859,42.471076],[-118.214718,42.466295],[-118.21467,42.462483],[-118.214625,42.455347],[-118.214621,42.454823],[-118.214606,42.452429],[-118.2146,42.449267],[-118.2146,42.448325],[-118.214626,42.440412],[-118.214692,42.417574],[-118.214701,42.414393],[-118.214723,42.40763],[-118.214734,42.4031],[-118.214738,42.401945],[-118.214749,42.398146],[-118.214773,42.391009],[-118.214775,42.390472],[-118.214787,42.38819],[-118.214809,42.383895],[-118.214834,42.379092],[-118.214838,42.378344],[-118.21485,42.376941],[-118.214856,42.376445],[-118.214856,42.37641],[-118.214857,42.376353],[-118.21486,42.376064],[-118.214865,42.375675],[-118.214871,42.375103],[-118.214874,42.374879],[-118.214875,42.374742],[-118.214886,42.373737],[-118.214904,42.372122],[-118.214932,42.369706],[-118.214951,42.36821],[-118.214959,42.367278],[-118.214977,42.365622],[-118.214987,42.364742],[-118.214994,42.364173],[-118.215005,42.363179],[-118.214993,42.359005],[-118.214989,42.357787],[-118.214986,42.356582],[-118.214995,42.354031],[-118.215002,42.352991],[-118.215003,42.35259],[-118.215011,42.351146],[-118.215025,42.34594],[-118.215024,42.344381],[-118.215024,42.342605],[-118.215024,42.341249],[-118.215025,42.340653],[-118.215027,42.339952],[-118.215029,42.338968],[-118.215029,42.338701],[-118.21503,42.338371],[-118.215035,42.337992],[-118.215031,42.337748],[-118.215037,42.335208],[-118.215006,42.328274],[-118.215,42.327366],[-118.214996,42.326734],[-118.214992,42.325926],[-118.214987,42.325149],[-118.214985,42.324797],[-118.214984,42.324649],[-118.214975,42.323133],[-118.214968,42.321905],[-118.214925,42.314618],[-118.214913,42.312085],[-118.214894,42.309367],[-118.214856,42.302774],[-118.214844,42.300326],[-118.214831,42.298602],[-118.214817,42.296135],[-118.214811,42.295143],[-118.214808,42.294661],[-118.214805,42.294099],[-118.214787,42.291112],[-118.214782,42.290211],[-118.214773,42.288687],[-118.214747,42.284288],[-118.21474,42.28307],[-118.214739,42.282823],[-118.214734,42.282028],[-118.214726,42.276781],[-118.214698,42.275891],[-118.204246,42.275849],[-118.197344,42.275822],[-118.195281,42.275813],[-118.19529,42.273086],[-118.195291,42.272663],[-118.195294,42.271819],[-118.195311,42.267119],[-118.195343,42.265618],[-118.195457,42.260279],[-118.195473,42.259084],[-118.195522,42.25149],[-118.195533,42.249438],[-118.1956,42.237613],[-118.195605,42.23622],[-118.195611,42.234554],[-118.195618,42.232328],[-118.195628,42.230165],[-118.195644,42.228492],[-118.195677,42.225236],[-118.195693,42.223699],[-118.195696,42.223313],[-118.195699,42.223017],[-118.195697,42.222955],[-118.195676,42.222271],[-118.195674,42.221952],[-118.195666,42.220669],[-118.195662,42.220002],[-118.195597,42.210717],[-118.195579,42.208363],[-118.195592,42.206535],[-118.195618,42.202979],[-118.195619,42.201842],[-118.195629,42.201294],[-118.195631,42.199757],[-118.195631,42.19945],[-118.19563,42.198719],[-118.19563,42.197391],[-118.19563,42.196724],[-118.195629,42.193742],[-118.195629,42.19311],[-118.195628,42.190095],[-118.195628,42.189492],[-118.195627,42.186447],[-118.195637,42.185873],[-118.195691,42.182794],[-118.195701,42.182255],[-118.195756,42.17914],[-118.195763,42.178669],[-118.195762,42.178003],[-118.195744,42.171945],[-118.195741,42.168657],[-118.195739,42.166652],[-118.195733,42.164308],[-118.195822,42.160916],[-118.196063,42.152095],[-118.196115,42.150369],[-118.19614,42.148904],[-118.196189,42.143104],[-118.196212,42.135276],[-118.196857,42.135279],[-118.196953,42.12824],[-118.196979,42.126292],[-118.196998,42.124865],[-118.197019,42.12336],[-118.19702,42.123291],[-118.197022,42.123101],[-118.197026,42.122809],[-118.197029,42.122548],[-118.197032,42.122392],[-118.197033,42.122273],[-118.197036,42.122107],[-118.197038,42.121888],[-118.197041,42.121689],[-118.197045,42.120804],[-118.197045,42.120473],[-118.197046,42.120121],[-118.197046,42.119781],[-118.197047,42.118828],[-118.197048,42.118489],[-118.197051,42.11577],[-118.197052,42.114596],[-118.197057,42.110598],[-118.197061,42.108058],[-118.197065,42.104728],[-118.197067,42.103222],[-118.197067,42.102714],[-118.19707,42.100219],[-118.197072,42.099088],[-118.197073,42.098933],[-118.197075,42.096555],[-118.197076,42.096047],[-118.197083,42.090406],[-118.197086,42.08763],[-118.197089,42.085057],[-118.197089,42.084802],[-118.197091,42.083864],[-118.197091,42.083215],[-118.197092,42.08292],[-118.197095,42.080277],[-118.197097,42.078843],[-118.197097,42.078489],[-118.197104,42.077107],[-118.197104,42.076982],[-118.197112,42.075891],[-118.197118,42.075031],[-118.197134,42.072606],[-118.197146,42.070823],[-118.197154,42.069672],[-118.197157,42.069261],[-118.197171,42.067415],[-118.197182,42.065546],[-118.197221,42.059825],[-118.197231,42.058242],[-118.197241,42.056802],[-118.197266,42.053207],[-118.197272,42.052239],[-118.197294,42.049199],[-118.197313,42.040965],[-118.197317,42.038519],[-118.197323,42.03617],[-118.19733,42.032042],[-118.197346,42.024953],[-118.19735,42.023147],[-118.197353,42.021657],[-118.197363,42.01964],[-118.197359,42.017133],[-118.19736,42.016119],[-118.19736,42.015537],[-118.197361,42.014651],[-118.197362,42.013204],[-118.197363,42.012148],[-118.197364,42.010665],[-118.197365,42.009162],[-118.197367,42.005457],[-118.197368,42.004106],[-118.197368,42.003157],[-118.197369,42.000713],[-118.19737,41.999647],[-118.19737,41.998594],[-118.197371,41.997841],[-118.197371,41.997344],[-118.202214,41.997323],[-118.202306,41.997323],[-118.203204,41.997319],[-118.20706,41.997305],[-118.207146,41.997305],[-118.211901,41.997288],[-118.211983,41.997287],[-118.216455,41.997271],[-118.216743,41.99727],[-118.22089,41.997256],[-118.221601,41.997254],[-118.223189,41.997249],[-118.225739,41.997229],[-118.226461,41.997224],[-118.230584,41.997192],[-118.231316,41.997187],[-118.235428,41.997155],[-118.236173,41.99715],[-118.240275,41.997118],[-118.241122,41.997111],[-118.242249,41.997103],[-118.245121,41.997085],[-118.246077,41.99708],[-118.249222,41.99706],[-118.252982,41.997037],[-118.257383,41.99701],[-118.259775,41.99699],[-118.264728,41.996965],[-118.265963,41.996958],[-118.277618,41.996886],[-118.282429,41.996857],[-118.285709,41.996839],[-118.287995,41.996826],[-118.295453,41.996786],[-118.30371,41.996722],[-118.319946,41.996554],[-118.324553,41.996545],[-118.325557,41.996543],[-118.327192,41.99654],[-118.327906,41.996539],[-118.329327,41.996536],[-118.332844,41.996528],[-118.334265,41.996526],[-118.337599,41.996519],[-118.339143,41.996516],[-118.342354,41.996489],[-118.343982,41.996476],[-118.34711,41.99645],[-118.347756,41.996444],[-118.348218,41.996444],[-118.350496,41.996421],[-118.355309,41.996381],[-118.356833,41.996368],[-118.360496,41.996343],[-118.370582,41.996281],[-118.374104,41.996259],[-118.376079,41.996247],[-118.376669,41.996244],[-118.377414,41.996239],[-118.380954,41.996175],[-118.381635,41.996163],[-118.381826,41.996162],[-118.382232,41.996155],[-118.382918,41.99614],[-118.385292,41.996097],[-118.390803,41.995997],[-118.390984,41.995994],[-118.391181,41.995991],[-118.391453,41.995986],[-118.391923,41.995977],[-118.392354,41.99597],[-118.392489,41.995967],[-118.394481,41.995931],[-118.394855,41.995925],[-118.396869,41.995888],[-118.397503,41.995887],[-118.399229,41.995887],[-118.412244,41.995912],[-118.412495,41.995912],[-118.412686,41.995912],[-118.413113,41.995913],[-118.414024,41.995914],[-118.415296,41.99591],[-118.416254,41.995907],[-118.416488,41.995906],[-118.418168,41.995902],[-118.418652,41.995901],[-118.421181,41.995895],[-118.423732,41.995887],[-118.424547,41.995888],[-118.426195,41.995883],[-118.42651,41.995882],[-118.426818,41.995882],[-118.429638,41.995871],[-118.431851,41.995861],[-118.433054,41.995856],[-118.433372,41.995857],[-118.434816,41.995857],[-118.435279,41.995853],[-118.440365,41.995808],[-118.441257,41.9958],[-118.441506,41.995798],[-118.441883,41.995794],[-118.442376,41.99579],[-118.442582,41.995788],[-118.443068,41.995784],[-118.44457,41.99577],[-118.446278,41.995755],[-118.447834,41.995741],[-118.449221,41.995729],[-118.450372,41.995719],[-118.451596,41.995708],[-118.452399,41.995701],[-118.455256,41.995675],[-118.45714,41.995656],[-118.458699,41.995642],[-118.46061,41.995622],[-118.463505,41.995594],[-118.467845,41.99555],[-118.470074,41.995528],[-118.474072,41.995489],[-118.477372,41.995454],[-118.480766,41.995419],[-118.481791,41.995408],[-118.483366,41.995392],[-118.486816,41.995355],[-118.488085,41.995342],[-118.488232,41.99534],[-118.488391,41.995339],[-118.488725,41.995335],[-118.489357,41.995328],[-118.490601,41.995316],[-118.491887,41.995303],[-118.494249,41.995279],[-118.497286,41.995247],[-118.501008,41.995207],[-118.504408,41.995169],[-118.506899,41.995141],[-118.514277,41.995062],[-118.520783,41.994987],[-118.527877,41.994903],[-118.532838,41.994846],[-118.533072,41.994844],[-118.534309,41.99483],[-118.53713,41.994797],[-118.53799,41.994786],[-118.538507,41.99478],[-118.538863,41.994777],[-118.540753,41.994754],[-118.541414,41.994749],[-118.54201,41.99474],[-118.542702,41.994731],[-118.551038,41.994636],[-118.556403,41.994582],[-118.559852,41.994546],[-118.569725,41.994457],[-118.583827,41.994213],[-118.599747,41.993924],[-118.600464,41.993911],[-118.600798,41.993905],[-118.601318,41.993896],[-118.601663,41.99389],[-118.601816,41.993887],[-118.606326,41.993805],[-118.607471,41.993784],[-118.608464,41.993766],[-118.6093,41.993751],[-118.612272,41.993696],[-118.614992,41.993647],[-118.618566,41.993582],[-118.621137,41.993535],[-118.623336,41.993495],[-118.624508,41.993474],[-118.62467,41.993471],[-118.626001,41.993447],[-118.628607,41.993399],[-118.628816,41.993396],[-118.630471,41.993366],[-118.631245,41.993349],[-118.632015,41.99333],[-118.633533,41.993282],[-118.634858,41.99324],[-118.638755,41.993118],[-118.639151,41.993108],[-118.640052,41.993077],[-118.641567,41.993039],[-118.641863,41.993031],[-118.643773,41.992983],[-118.644699,41.992962],[-118.647119,41.992898],[-118.650524,41.992812],[-118.651844,41.992779],[-118.656569,41.992659],[-118.660229,41.992567],[-118.661294,41.99254],[-118.665064,41.992444],[-118.665739,41.992427],[-118.6699,41.992321],[-118.670185,41.992314],[-118.671648,41.992277],[-118.674633,41.992201],[-118.674737,41.992199],[-118.676499,41.992154],[-118.679081,41.992153],[-118.679576,41.992152],[-118.681124,41.992152],[-118.684565,41.99215],[-118.690105,41.992142],[-118.692074,41.992135],[-118.6927,41.992129],[-118.69407,41.992128],[-118.695246,41.992125],[-118.695723,41.992123],[-118.696124,41.992121],[-118.697637,41.992117],[-118.7014,41.992104],[-118.703555,41.992096],[-118.707888,41.992082],[-118.70851,41.992089],[-118.713299,41.992127],[-118.714342,41.992132],[-118.714985,41.99214],[-118.722589,41.992205],[-118.724909,41.992221],[-118.726107,41.992229],[-118.726844,41.992235],[-118.728091,41.992245],[-118.733093,41.992287],[-118.736037,41.992309],[-118.738096,41.992332],[-118.742861,41.992435],[-118.745862,41.992499],[-118.747627,41.992516],[-118.75085,41.992546],[-118.75103,41.992548],[-118.751829,41.992556],[-118.754101,41.992579],[-118.75507,41.992585],[-118.757159,41.99261],[-118.75895,41.992589],[-118.761902,41.992554],[-118.765792,41.992509],[-118.766675,41.992513],[-118.771605,41.992536],[-118.772633,41.992541],[-118.775391,41.992554],[-118.77598,41.992557],[-118.776512,41.99256],[-118.776939,41.992562],[-118.777629,41.992565],[-118.782418,41.992588],[-118.782658,41.992589],[-118.783039,41.992591],[-118.783891,41.992595],[-118.785256,41.992601],[-118.788774,41.992604],[-118.792745,41.992603],[-118.793338,41.992605],[-118.796413,41.992603],[-118.798566,41.992614],[-118.799789,41.992605],[-118.802807,41.992607],[-118.806662,41.992612],[-118.808347,41.992613],[-118.809336,41.992613],[-118.814045,41.992619],[-118.825588,41.992647],[-118.82963,41.992656],[-118.83531,41.992667],[-118.837468,41.992672],[-118.837955,41.992673],[-118.839734,41.992677],[-118.841046,41.992679],[-118.842813,41.992683],[-118.845498,41.992689],[-118.849546,41.992698],[-118.857373,41.992716],[-118.862286,41.992728],[-118.868311,41.992742],[-118.870284,41.992749],[-118.870936,41.992748],[-118.873659,41.992754],[-118.876266,41.992759],[-118.883832,41.992772],[-118.88785,41.992762],[-118.892427,41.992751],[-118.903244,41.992725],[-118.906596,41.992769],[-118.929034,41.993084],[-118.931466,41.993119],[-118.934234,41.993158],[-118.940589,41.993184],[-118.945483,41.993211],[-118.948403,41.993228],[-118.950553,41.99324],[-118.955457,41.993263],[-118.963185,41.993302],[-118.969548,41.993338],[-118.970123,41.993341],[-118.971672,41.99335],[-118.972561,41.993352],[-118.975273,41.993359],[-118.976519,41.993361],[-118.981375,41.993383],[-118.982525,41.993385],[-118.986226,41.993416],[-118.991082,41.993461],[-118.99475,41.993494],[-118.995945,41.99351],[-119.00106,41.993551],[-119.004074,41.99356],[-119.008114,41.99356],[-119.010293,41.993564],[-119.013131,41.99357],[-119.015885,41.993569],[-119.01683,41.99357],[-119.025717,41.993575],[-119.031362,41.993583],[-119.035573,41.993586],[-119.036462,41.993585],[-119.041568,41.993584],[-119.042597,41.99358],[-119.045009,41.993582],[-119.051872,41.993608],[-119.054762,41.993629],[-119.061797,41.993626],[-119.076789,41.993714],[-119.082125,41.993715],[-119.088957,41.993676],[-119.103926,41.993562],[-119.108591,41.993545],[-119.115069,41.993492],[-119.120595,41.993475],[-119.125704,41.993464],[-119.130349,41.993434],[-119.135208,41.993403],[-119.138234,41.993398],[-119.140073,41.993396],[-119.140099,41.993396],[-119.140125,41.993396],[-119.144936,41.993384],[-119.14981,41.993369],[-119.154684,41.993354],[-119.157627,41.993354],[-119.159565,41.993354],[-119.15987,41.993354],[-119.164153,41.99337],[-119.166512,41.993376],[-119.170874,41.993387],[-119.172885,41.993392],[-119.176935,41.993406],[-119.178671,41.993414],[-119.181176,41.993425],[-119.184822,41.993438],[-119.190239,41.99344],[-119.192748,41.993445],[-119.201398,41.993478],[-119.203995,41.993498],[-119.204632,41.993511],[-119.205014,41.99351],[-119.208993,41.993551],[-119.218597,41.99363],[-119.222922,41.993672],[-119.22451,41.993699],[-119.230272,41.993805],[-119.231767,41.993826],[-119.233654,41.993861],[-119.238096,41.993898],[-119.241802,41.993887],[-119.246979,41.993865],[-119.250852,41.993848],[-119.251033,41.993843],[-119.25145,41.993845],[-119.251669,41.993846],[-119.252301,41.993841],[-119.25482,41.99383],[-119.257872,41.993817],[-119.261607,41.993824],[-119.264231,41.993831],[-119.265743,41.993836],[-119.269308,41.993846],[-119.270841,41.993851],[-119.272506,41.993855],[-119.275011,41.993862],[-119.275874,41.993864],[-119.280682,41.99388],[-119.286579,41.9939],[-119.289847,41.993911],[-119.290608,41.993914],[-119.295133,41.993934],[-119.297315,41.993937],[-119.29953,41.993936],[-119.300135,41.993935],[-119.300815,41.993934],[-119.30478,41.993927],[-119.306243,41.993919],[-119.308155,41.993921],[-119.314316,41.993911],[-119.316972,41.993905],[-119.321043,41.993926],[-119.322117,41.993917],[-119.323622,41.993917],[-119.324184,41.993923],[-119.335211,41.993952],[-119.336519,41.993955],[-119.336778,41.993956],[-119.338495,41.993978],[-119.339869,41.993998],[-119.340472,41.994007],[-119.34252,41.994037],[-119.343241,41.994047],[-119.343626,41.994053],[-119.344059,41.994061],[-119.348477,41.994114],[-119.350841,41.994145],[-119.351081,41.994144],[-119.355582,41.994227],[-119.359408,41.99427],[-119.360122,41.994278],[-119.360119,41.994889],[-119.360112,41.996763],[-119.360107,41.997368],[-119.360105,41.99749],[-119.360103,41.997644],[-119.360097,41.998193],[-119.360086,41.999104],[-119.360076,42.000011],[-119.360055,42.001896],[-119.36,42.01007],[-119.35998,42.013154],[-119.359961,42.015756],[-119.359926,42.021512],[-119.359921,42.022591],[-119.359919,42.022907],[-119.359918,42.023228],[-119.359917,42.023401],[-119.359914,42.023569],[-119.359881,42.030078],[-119.359861,42.033453],[-119.359841,42.042611],[-119.359822,42.047841],[-119.359814,42.049618],[-119.359781,42.05606],[-119.359768,42.059693],[-119.359718,42.070766],[-119.359702,42.074222],[-119.3597,42.074704],[-119.359696,42.075735],[-119.359694,42.076151],[-119.359691,42.076458],[-119.359689,42.077973],[-119.359686,42.080785],[-119.359679,42.081912],[-119.359676,42.08516],[-119.359677,42.087827],[-119.359672,42.09165],[-119.35967,42.092705],[-119.359677,42.093308],[-119.359672,42.093699],[-119.359666,42.096226],[-119.359662,42.099192],[-119.359662,42.100398],[-119.359658,42.102461],[-119.359653,42.106118],[-119.359649,42.109736],[-119.359642,42.115109],[-119.359643,42.117248],[-119.359635,42.120378],[-119.359631,42.121074],[-119.359621,42.121911],[-119.359617,42.122258],[-119.359612,42.122735],[-119.359607,42.123169],[-119.359601,42.1235],[-119.359591,42.124579],[-119.359579,42.125623],[-119.359568,42.126612],[-119.359512,42.131424],[-119.359502,42.132305],[-119.359491,42.1333],[-119.359482,42.134044],[-119.359475,42.134683],[-119.359472,42.134988],[-119.359446,42.13723],[-119.360166,42.137235],[-119.36181,42.13723],[-119.362937,42.13723],[-119.363579,42.137231],[-119.363579,42.146121],[-119.363579,42.14869],[-119.363608,42.16464],[-119.363624,42.17155],[-119.363635,42.176701],[-119.363655,42.186117],[-119.363658,42.188776],[-119.363664,42.190714],[-119.363671,42.194587],[-119.363672,42.195962],[-119.363676,42.196902],[-119.363679,42.198364],[-119.363681,42.199],[-119.363681,42.199821],[-119.363684,42.20139],[-119.363688,42.201844],[-119.363688,42.203245],[-119.363695,42.206931],[-119.363697,42.207976],[-119.363696,42.210688],[-119.36366,42.217725],[-119.363648,42.220094],[-119.363635,42.222746],[-119.363627,42.224212],[-119.363627,42.228236],[-119.363627,42.233475],[-119.363627,42.235831],[-119.363624,42.239695],[-119.363627,42.241771],[-119.363627,42.242859],[-119.363627,42.244247],[-119.363627,42.245183],[-119.363627,42.246232],[-119.363627,42.249211],[-119.363627,42.250489],[-119.363627,42.260704],[-119.363627,42.262063],[-119.363627,42.2666],[-119.363626,42.267112],[-119.363627,42.270128],[-119.363627,42.27163],[-119.363627,42.279131],[-119.363627,42.281821],[-119.363627,42.285028],[-119.363627,42.292076],[-119.363617,42.294078],[-119.363648,42.297855],[-119.363712,42.301373],[-119.363794,42.306553],[-119.363859,42.310233],[-119.363892,42.312123],[-119.363868,42.314231],[-119.363847,42.316137],[-119.363827,42.317974],[-119.363814,42.319104],[-119.363778,42.322356],[-119.36374,42.325676],[-119.363722,42.3275],[-119.363718,42.327709],[-119.363689,42.330212],[-119.363673,42.33169],[-119.363629,42.335681],[-119.363616,42.336773],[-119.363597,42.338668],[-119.363567,42.341225],[-119.363621,42.345412],[-119.363805,42.35915],[-119.363868,42.363846],[-119.363872,42.364119],[-119.363874,42.364302],[-119.363876,42.364417],[-119.363877,42.364496],[-119.363892,42.365637],[-119.363905,42.366591],[-119.363917,42.367518],[-119.363931,42.368499],[-119.363941,42.369282],[-119.363953,42.370153],[-119.363957,42.370386],[-119.363964,42.371014],[-119.363983,42.372415],[-119.363988,42.372783],[-119.363994,42.373258],[-119.364,42.373672],[-119.364003,42.373888],[-119.36401,42.374463],[-119.364024,42.375451],[-119.364032,42.376045],[-119.364042,42.376557],[-119.364127,42.383187],[-119.364139,42.385932],[-119.364113,42.389053],[-119.364093,42.391538],[-119.364084,42.393058],[-119.364068,42.39621],[-119.364061,42.397619],[-119.364058,42.398251],[-119.364051,42.399628],[-119.364052,42.399864],[-119.364082,42.401454],[-119.364115,42.403207],[-119.364137,42.404402],[-119.364171,42.406249],[-119.364182,42.406829],[-119.364188,42.407171],[-119.364191,42.40732],[-119.36424,42.410671],[-119.364344,42.417652],[-119.364407,42.42238],[-119.364416,42.424399],[-119.364431,42.426916],[-119.364439,42.4279],[-119.364443,42.428518],[-119.364444,42.428774],[-119.364445,42.429225],[-119.364445,42.432004],[-119.364444,42.438877],[-119.364444,42.440257],[-119.364444,42.443427],[-119.364443,42.4439],[-119.364442,42.444167],[-119.364441,42.444508],[-119.36444,42.444889],[-119.364439,42.445258],[-119.364437,42.446068],[-119.364433,42.447296],[-119.364424,42.450579],[-119.364435,42.456704],[-119.364443,42.458535],[-119.364484,42.462772],[-119.364506,42.464986],[-119.364504,42.466847],[-119.364488,42.47245],[-119.364495,42.474482],[-119.364511,42.479089],[-119.364468,42.485631],[-119.364467,42.485829],[-119.364465,42.486116],[-119.364462,42.486522],[-119.364459,42.48691],[-119.364458,42.487078],[-119.363896,42.487079],[-119.363901,42.488996],[-119.363908,42.491904],[-119.363925,42.49893],[-119.363928,42.499898],[-119.363931,42.501122],[-119.363937,42.502782],[-119.363933,42.503249],[-119.363952,42.50577],[-119.363982,42.512003],[-119.364012,42.514198],[-119.36403,42.52172],[-119.364138,42.5438],[-119.364175,42.551256],[-119.364184,42.553033],[-119.364213,42.559116],[-119.36422,42.560402],[-119.364221,42.560589],[-119.364229,42.561704],[-119.364252,42.56485],[-119.36426,42.565867],[-119.364281,42.568944],[-119.36435,42.577112],[-119.364365,42.57832],[-119.364391,42.5803],[-119.364404,42.581301],[-119.364406,42.581455],[-119.364417,42.582308],[-119.364423,42.582796],[-119.36445,42.584965],[-119.364472,42.586639],[-119.364475,42.586941],[-119.364492,42.588217],[-119.364507,42.589431],[-119.364512,42.589815],[-119.36454,42.592005],[-119.364562,42.593821],[-119.36457,42.594414],[-119.364585,42.595643],[-119.364588,42.595862],[-119.364594,42.59631],[-119.364661,42.601639],[-119.364699,42.605063],[-119.364797,42.618688],[-119.364801,42.623332],[-119.364802,42.625469],[-119.364805,42.629689],[-119.364806,42.631983],[-119.364807,42.632898],[-119.364951,42.639556],[-119.364996,42.641584],[-119.365045,42.64385],[-119.365124,42.647477],[-119.365117,42.64906],[-119.365103,42.651829],[-119.365093,42.653836],[-119.365089,42.654642],[-119.365089,42.654739],[-119.365088,42.654921],[-119.365086,42.655325],[-119.365081,42.656234],[-119.365078,42.656867],[-119.365075,42.657433],[-119.365073,42.657825],[-119.365068,42.658935],[-119.36506,42.660614],[-119.365055,42.66164],[-119.365054,42.661822],[-119.365156,42.661822],[-119.365156,42.662307],[-119.36515,42.663114],[-119.365146,42.663738],[-119.365141,42.664392],[-119.36514,42.664592],[-119.365131,42.66575],[-119.36512,42.667333],[-119.365111,42.668656],[-119.365101,42.670763],[-119.365094,42.672568],[-119.365085,42.674911],[-119.365084,42.67528],[-119.36508,42.676243],[-119.365077,42.678971],[-119.365077,42.679615],[-119.365077,42.67992],[-119.365074,42.683216],[-119.365101,42.689995],[-119.365114,42.692895],[-119.365128,42.695917],[-119.36513,42.696155],[-119.365133,42.696906],[-119.365148,42.69913],[-119.365152,42.699574],[-119.365156,42.699881],[-119.365165,42.700976],[-119.365168,42.701269],[-119.365168,42.701378],[-119.365171,42.70172],[-119.365174,42.701995],[-119.365178,42.702413],[-119.36518,42.702673],[-119.365187,42.703459],[-119.365195,42.704285],[-119.365201,42.704977],[-119.365205,42.705436],[-119.365211,42.706465],[-119.365213,42.706812],[-119.365223,42.708534],[-119.365233,42.710209],[-119.36524,42.711471],[-119.365258,42.715581],[-119.365278,42.720405],[-119.365292,42.723533],[-119.365301,42.72529],[-119.365326,42.729504],[-119.36533,42.729853],[-119.36533,42.730055],[-119.365357,42.733887],[-119.36536,42.737411],[-119.365358,42.741875],[-119.365348,42.745335],[-119.36534,42.747814],[-119.365337,42.748958],[-119.367868,42.74896],[-119.369658,42.748962],[-119.374376,42.748966],[-119.376148,42.748967],[-119.384659,42.748967],[-119.394881,42.748993],[-119.408053,42.749025],[-119.416637,42.749036],[-119.422578,42.749041],[-119.424639,42.749043],[-119.433739,42.749049],[-119.438071,42.749053],[-119.439175,42.749054],[-119.440837,42.749056],[-119.450632,42.749084],[-119.453335,42.749094],[-119.461534,42.749121],[-119.463762,42.749128],[-119.466717,42.749132],[-119.470647,42.749137],[-119.472654,42.749133],[-119.475523,42.749128],[-119.478441,42.749124],[-119.478466,42.749123],[-119.484148,42.749113],[-119.485673,42.749112],[-119.493714,42.749065],[-119.501055,42.749042],[-119.501195,42.749041],[-119.505761,42.749035],[-119.506826,42.749029],[-119.506913,42.749029],[-119.507547,42.749026],[-119.508612,42.74902],[-119.509664,42.749015],[-119.510666,42.74901],[-119.512085,42.749003],[-119.513415,42.748994],[-119.514691,42.748984],[-119.516294,42.748973],[-119.51794,42.748961],[-119.51829,42.748959],[-119.520589,42.748942],[-119.524294,42.748916],[-119.526396,42.748901],[-119.538284,42.74883],[-119.545598,42.748806],[-119.558551,42.748787],[-119.567292,42.748775],[-119.571996,42.748768],[-119.574232,42.748764],[-119.57914,42.748757],[-119.58305,42.748755],[-119.584322,42.748755],[-119.592931,42.748757],[-119.598735,42.748759],[-119.601934,42.748759],[-119.603052,42.74876],[-119.603689,42.74876],[-119.604388,42.74876],[-119.606974,42.748761],[-119.607899,42.748761],[-119.61043,42.748762],[-119.612918,42.748762],[-119.614675,42.748763],[-119.616572,42.748763],[-119.618347,42.748764],[-119.619664,42.748764],[-119.620704,42.748781],[-119.621503,42.748796],[-119.624399,42.748847],[-119.625373,42.748864],[-119.625753,42.748871],[-119.626187,42.748879],[-119.626713,42.748888],[-119.629353,42.748934],[-119.629537,42.748938],[-119.630518,42.748913],[-119.631074,42.7489],[-119.632162,42.748874],[-119.63262,42.748862],[-119.633153,42.74885],[-119.633939,42.748831],[-119.636504,42.748769],[-119.637939,42.748734],[-119.639289,42.748701],[-119.63938,42.748699],[-119.640726,42.748709],[-119.641779,42.748717],[-119.642797,42.748725],[-119.643671,42.748731],[-119.646107,42.74875],[-119.649445,42.748773],[-119.652977,42.748775],[-119.655599,42.748775],[-119.659651,42.748777],[-119.661154,42.748777],[-119.663782,42.748778],[-119.667782,42.748779],[-119.670666,42.74878],[-119.671717,42.74878],[-119.674246,42.748775],[-119.677193,42.748781],[-119.678307,42.748782],[-119.679137,42.748784],[-119.680281,42.748783],[-119.683659,42.748784],[-119.683821,42.748785],[-119.684138,42.748784],[-119.685953,42.748785],[-119.688847,42.748786],[-119.691173,42.748787],[-119.692258,42.748787],[-119.694344,42.748786],[-119.695484,42.748788],[-119.698114,42.748789],[-119.698962,42.748788],[-119.699095,42.748789],[-119.699668,42.748789],[-119.701369,42.74879],[-119.701515,42.74879],[-119.701719,42.748789],[-119.702838,42.74879],[-119.705858,42.748791],[-119.705904,42.748101],[-119.705961,42.747265],[-119.705977,42.747021],[-119.706004,42.746627],[-119.706005,42.746605],[-119.706057,42.746606],[-119.706872,42.746606],[-119.707179,42.746606],[-119.707339,42.746605],[-119.707857,42.746606],[-119.709168,42.746606],[-119.712052,42.746607],[-119.713045,42.746613],[-119.714348,42.746622],[-119.717134,42.746626],[-119.725493,42.746644],[-119.728252,42.746649],[-119.72828,42.746649],[-119.728323,42.746649],[-119.728453,42.746652],[-119.728498,42.746655],[-119.734201,42.746636],[-119.735756,42.746631],[-119.74993,42.746694],[-119.751298,42.746696],[-119.75441,42.746702],[-119.757003,42.746712],[-119.76144,42.746743],[-119.76912,42.746786],[-119.772812,42.746803],[-119.776297,42.746819],[-119.776614,42.74682],[-119.779135,42.746832],[-119.779829,42.746835],[-119.783534,42.746853],[-119.788231,42.746873],[-119.789236,42.746877],[-119.791973,42.746888],[-119.792261,42.74689],[-119.795188,42.746902],[-119.800138,42.746925],[-119.805088,42.746948],[-119.81005,42.746976],[-119.815011,42.747004],[-119.819981,42.747006],[-119.822398,42.747008],[-119.824823,42.747009],[-119.827341,42.746969],[-119.835461,42.746823],[-119.836027,42.746814],[-119.839851,42.746746],[-119.841096,42.746723],[-119.842437,42.746699],[-119.844138,42.746669],[-119.844952,42.746654],[-119.846106,42.74665],[-119.851709,42.746642],[-119.85283,42.746641],[-119.856517,42.746637],[-119.857025,42.746636],[-119.857689,42.746635],[-119.85876,42.746634],[-119.85977,42.746633],[-119.860441,42.746632],[-119.860781,42.746632],[-119.86094,42.746632],[-119.862387,42.74663],[-119.863265,42.746629],[-119.864602,42.746628],[-119.866349,42.74663],[-119.868351,42.746634],[-119.870541,42.746639],[-119.871806,42.746642],[-119.873611,42.746646],[-119.875955,42.746646],[-119.876572,42.746644],[-119.877155,42.746642],[-119.879187,42.746635],[-119.88306,42.746622],[-119.885112,42.746614],[-119.887172,42.746587],[-119.889813,42.746552],[-119.890032,42.74655],[-119.890341,42.746546],[-119.8907,42.746541],[-119.890913,42.746538],[-119.89133,42.746533],[-119.892693,42.746515],[-119.894271,42.746494],[-119.894709,42.746488],[-119.897832,42.746472],[-119.90279,42.746452],[-119.910743,42.746423],[-119.913904,42.746412],[-119.915506,42.7464],[-119.915758,42.746406],[-119.916805,42.746403],[-119.918475,42.746397],[-119.924753,42.746378],[-119.926851,42.746372],[-119.93039,42.746364],[-119.938069,42.74636],[-119.938956,42.746362],[-119.939904,42.746363],[-119.940216,42.746364],[-119.940628,42.746365],[-119.942696,42.746369],[-119.943558,42.746371],[-119.943779,42.746371],[-119.94374,42.747203]]]}}]}