{"type":"FeatureCollection","name":"tl_2025_56_elsd","crs":{"type":"name","properties":{"name":"urn:ogc:def:crs:OGC:1.3:CRS84"}},"features":[{"type":"Feature","properties":{"STATEFP":"56","ELSDLEA":"00960","GEOID":"5600960","GEOIDFQ":"9500000US5600960","NAME":"Fremont County School District 38","LSAD":"00","LOGRADE":"KG","HIGRADE":"12","MTFCC":"G5400","SDTYP":"","FUNCSTAT":"E","ALAND":216377142,"AWATER":1071477,"INTPTLAT":"+43.0070294","INTPTLON":"-108.5488309"},"geometry":{"type":"Polygon","coordinates":[[[-108.696343,43.098567],[-108.686687,43.098313],[-108.686023,43.098324],[-108.684034,43.098359],[-108.683371,43.098372],[-108.682483,43.098368],[-108.679821,43.098356],[-108.678934,43.098353],[-108.678708,43.098352],[-108.678031,43.098349],[-108.677806,43.098349],[-108.677086,43.098357],[-108.676477,43.098364],[-108.676478,43.098131],[-108.67648,43.09509],[-108.668468,43.095057],[-108.667337,43.095035],[-108.66664,43.095029],[-108.666675,43.098413],[-108.655816,43.098442],[-108.655547,43.098441],[-108.655143,43.09844],[-108.654355,43.098438],[-108.652217,43.098432],[-108.652608,43.098101],[-108.652701,43.097918],[-108.652511,43.097559],[-108.65214,43.097335],[-108.651914,43.097323],[-108.651485,43.0973],[-108.650487,43.096237],[-108.649723,43.096156],[-108.649427,43.095951],[-108.649349,43.095768],[-108.648754,43.09508],[-108.646991,43.093045],[-108.646013,43.091914],[-108.645904,43.09172],[-108.64344,43.091501],[-108.642596,43.091462],[-108.642418,43.09148],[-108.64212,43.091545],[-108.6408,43.09116],[-108.640564,43.091202],[-108.640274,43.091255],[-108.639984,43.091309],[-108.639221,43.09145],[-108.638969,43.091843],[-108.638878,43.091976],[-108.638611,43.092079],[-108.638222,43.092232],[-108.637033,43.092387],[-108.636932,43.092396],[-108.635757,43.092239],[-108.633987,43.092014],[-108.632851,43.091587],[-108.631348,43.090885],[-108.630768,43.090786],[-108.630447,43.090733],[-108.629059,43.090164],[-108.628433,43.090057],[-108.627693,43.090038],[-108.626389,43.09008],[-108.625673,43.090082],[-108.625675,43.089784],[-108.625519,43.089741],[-108.625206,43.089577],[-108.625015,43.089451],[-108.624641,43.089195],[-108.624413,43.089073],[-108.624199,43.08902],[-108.623199,43.088882],[-108.622978,43.088833],[-108.622841,43.088791],[-108.622635,43.088684],[-108.622421,43.088543],[-108.622284,43.088383],[-108.622192,43.088234],[-108.622093,43.088009],[-108.622017,43.087646],[-108.621887,43.08733],[-108.621719,43.086964],[-108.62146,43.086555],[-108.621277,43.086353],[-108.621017,43.086155],[-108.620758,43.086018],[-108.620537,43.085938],[-108.620369,43.085903],[-108.619789,43.08588],[-108.619453,43.085915],[-108.618919,43.086067],[-108.618725,43.086153],[-108.618553,43.086239],[-108.618286,43.086403],[-108.618065,43.08651],[-108.617722,43.086628],[-108.617577,43.086662],[-108.617355,43.086689],[-108.617104,43.086704],[-108.616852,43.086697],[-108.616638,43.086658],[-108.61599,43.086494],[-108.615738,43.086399],[-108.615387,43.086201],[-108.615082,43.085957],[-108.615044,43.085938],[-108.614998,43.085918],[-108.61496,43.085899],[-108.614914,43.08588],[-108.613853,43.085533],[-108.613564,43.085423],[-108.613266,43.085297],[-108.612656,43.084995],[-108.612061,43.084629],[-108.611481,43.084232],[-108.611084,43.083942],[-108.610352,43.083305],[-108.609772,43.082722],[-108.609566,43.082508],[-108.609459,43.082359],[-108.60939,43.082211],[-108.609337,43.081902],[-108.609344,43.081562],[-108.609276,43.081234],[-108.609138,43.080956],[-108.60907,43.080711],[-108.609047,43.080544],[-108.609047,43.080273],[-108.609116,43.079906],[-108.609207,43.079643],[-108.609276,43.079411],[-108.609299,43.079212],[-108.609413,43.078915],[-108.609398,43.078655],[-108.609413,43.078606],[-108.609428,43.078583],[-108.609467,43.078556],[-108.609506,43.078497],[-108.609521,43.078417],[-108.609154,43.078308],[-108.607887,43.077692],[-108.607737,43.077549],[-108.606855,43.077029],[-108.606107,43.076844],[-108.602581,43.075728],[-108.601213,43.074768],[-108.600592,43.074592],[-108.59984,43.074378],[-108.598363,43.073945],[-108.598172,43.0738],[-108.598134,43.073771],[-108.597547,43.073326],[-108.59705,43.072238],[-108.596844,43.071605],[-108.59634,43.070864],[-108.594387,43.07072],[-108.593132,43.070676],[-108.591606,43.070904],[-108.590128,43.071291],[-108.589098,43.070707],[-108.588813,43.070489],[-108.588121,43.06996],[-108.587337,43.069383],[-108.587213,43.069291],[-108.586753,43.068921],[-108.586692,43.068872],[-108.586362,43.068378],[-108.5862,43.068136],[-108.584511,43.067543],[-108.583394,43.067256],[-108.583176,43.067254],[-108.582817,43.067251],[-108.581746,43.067575],[-108.581264,43.067423],[-108.581049,43.067355],[-108.580833,43.067287],[-108.580702,43.067246],[-108.580572,43.067205],[-108.580267,43.067109],[-108.575999,43.067206],[-108.574747,43.067164],[-108.574288,43.067176],[-108.573768,43.067189],[-108.572901,43.067067],[-108.572208,43.066879],[-108.571738,43.066736],[-108.571553,43.066613],[-108.571175,43.066361],[-108.570616,43.065918],[-108.569961,43.065399],[-108.569933,43.065377],[-108.568636,43.064035],[-108.568358,43.063782],[-108.567566,43.063611],[-108.567463,43.063589],[-108.566938,43.063696],[-108.566499,43.063691],[-108.565566,43.063678],[-108.565362,43.063675],[-108.56516,43.063173],[-108.564824,43.062359],[-108.564236,43.061821],[-108.563391,43.060951],[-108.563131,43.060247],[-108.56237,43.059744],[-108.562276,43.059682],[-108.562183,43.05962],[-108.561457,43.059135],[-108.561167,43.058974],[-108.560389,43.058541],[-108.56026,43.058433],[-108.55983,43.058076],[-108.559502,43.057735],[-108.559221,43.057443],[-108.558029,43.05694],[-108.557198,43.056774],[-108.555666,43.056497],[-108.555203,43.056413],[-108.553926,43.056139],[-108.553864,43.056126],[-108.552536,43.055611],[-108.552208,43.055481],[-108.551804,43.054756],[-108.551926,43.054295],[-108.551949,43.054199],[-108.552986,43.053581],[-108.554047,43.053127],[-108.554146,43.052795],[-108.553246,43.051792],[-108.552406,43.051224],[-108.551025,43.04966],[-108.550186,43.048992],[-108.54982,43.048286],[-108.549301,43.047241],[-108.54924,43.047127],[-108.548561,43.046753],[-108.547806,43.046513],[-108.546692,43.046173],[-108.546036,43.045521],[-108.545616,43.043861],[-108.5439,43.04274],[-108.543587,43.042538],[-108.542198,43.041393],[-108.54184,43.0411],[-108.540703,43.04034],[-108.540459,43.040215],[-108.539132,43.039544],[-108.538757,43.03915],[-108.538605,43.038994],[-108.537895,43.038242],[-108.537048,43.037548],[-108.533195,43.036148],[-108.532843,43.035817],[-108.532806,43.035778],[-108.532433,43.035423],[-108.532072,43.035084],[-108.531998,43.035007],[-108.529861,43.033947],[-108.529472,43.033756],[-108.528732,43.032722],[-108.527763,43.03199],[-108.527586,43.031855],[-108.527377,43.031698],[-108.527293,43.031653],[-108.527087,43.031545],[-108.526446,43.031341],[-108.525396,43.031006],[-108.524346,43.03067],[-108.523971,43.030563],[-108.522591,43.030712],[-108.522061,43.030897],[-108.520855,43.031406],[-108.520064,43.031733],[-108.518012,43.031717],[-108.51595,43.031501],[-108.515399,43.030986],[-108.514899,43.03023],[-108.514599,43.029777],[-108.51381,43.02896],[-108.513561,43.028697],[-108.513226,43.028343],[-108.512314,43.027859],[-108.51211,43.02775],[-108.51043,43.027393],[-108.509186,43.027189],[-108.508251,43.027097],[-108.507068,43.02658],[-108.506488,43.026374],[-108.505485,43.026063],[-108.504735,43.02569],[-108.504517,43.025582],[-108.504299,43.025473],[-108.503939,43.025294],[-108.50309,43.024975],[-108.503015,43.024947],[-108.50294,43.024919],[-108.5028,43.024866],[-108.501752,43.024604],[-108.500667,43.024397],[-108.500665,43.024453],[-108.500665,43.02454],[-108.500557,43.024472],[-108.500404,43.024456],[-108.500244,43.024406],[-108.499908,43.024509],[-108.499615,43.024724],[-108.49937,43.02493],[-108.499237,43.024994],[-108.498459,43.025291],[-108.497238,43.025295],[-108.497093,43.025326],[-108.496254,43.025513],[-108.494774,43.025616],[-108.494278,43.025517],[-108.493874,43.025284],[-108.49379,43.02507],[-108.493935,43.024769],[-108.494438,43.024113],[-108.494827,43.023552],[-108.494843,43.02346],[-108.494949,43.02309],[-108.494858,43.022724],[-108.494496,43.022256],[-108.493845,43.021761],[-108.493454,43.021652],[-108.492917,43.021667],[-108.492271,43.021973],[-108.491684,43.022572],[-108.491247,43.02328],[-108.491034,43.023679],[-108.490356,43.024197],[-108.489693,43.024341],[-108.488937,43.024319],[-108.488266,43.024239],[-108.487541,43.024261],[-108.486794,43.024574],[-108.486244,43.0247],[-108.485512,43.024746],[-108.483959,43.024459],[-108.48378,43.024418],[-108.482635,43.023964],[-108.482109,43.023502],[-108.481674,43.023151],[-108.481194,43.022964],[-108.480995,43.022892],[-108.480179,43.022499],[-108.479584,43.022282],[-108.478584,43.021748],[-108.47805,43.0215],[-108.477318,43.02103],[-108.476662,43.02034],[-108.47657,43.020241],[-108.475403,43.01902],[-108.47438,43.018612],[-108.474075,43.01849],[-108.472755,43.018623],[-108.471916,43.018803],[-108.470894,43.01902],[-108.469567,43.018921],[-108.469017,43.01897],[-108.46846,43.01902],[-108.468338,43.019032],[-108.467331,43.020103],[-108.466797,43.020348],[-108.465797,43.02037],[-108.464485,43.020191],[-108.463882,43.020058],[-108.463676,43.019943],[-108.463394,43.019791],[-108.462608,43.019501],[-108.462486,43.019451],[-108.462357,43.019402],[-108.462082,43.019287],[-108.461784,43.01926],[-108.461311,43.019135],[-108.46077,43.018879],[-108.460342,43.018726],[-108.460014,43.018635],[-108.459518,43.018505],[-108.459038,43.018414],[-108.457848,43.0182],[-108.456825,43.018017],[-108.455907,43.017919],[-108.455444,43.017902],[-108.455093,43.017891],[-108.454376,43.017807],[-108.454041,43.017635],[-108.45385,43.017532],[-108.453407,43.017181],[-108.452751,43.016933],[-108.451866,43.016792],[-108.450653,43.017162],[-108.449982,43.017342],[-108.449211,43.017075],[-108.448479,43.016609],[-108.448449,43.01651],[-108.446623,43.01546],[-108.445976,43.01516],[-108.445633,43.014935],[-108.445107,43.014725],[-108.443962,43.014759],[-108.443024,43.014965],[-108.442924,43.014988],[-108.442207,43.015209],[-108.441391,43.015316],[-108.440399,43.015469],[-108.440079,43.015526],[-108.439796,43.015575],[-108.4394,43.015518],[-108.438515,43.01516],[-108.437988,43.015316],[-108.437531,43.015507],[-108.437439,43.015484],[-108.436264,43.015198],[-108.435638,43.01506],[-108.434738,43.01482],[-108.433907,43.014606],[-108.433098,43.014389],[-108.431831,43.01387],[-108.430252,43.013325],[-108.429665,43.013107],[-108.429199,43.012936],[-108.428932,43.012604],[-108.428452,43.012157],[-108.428345,43.012058],[-108.427521,43.011803],[-108.426941,43.011681],[-108.426521,43.011593],[-108.425522,43.011429],[-108.425011,43.011448],[-108.424896,43.011494],[-108.424255,43.011734],[-108.424187,43.011765],[-108.422958,43.012348],[-108.421753,43.012924],[-108.419739,43.012497],[-108.416634,43.012451],[-108.415123,43.012424],[-108.414139,43.012405],[-108.41288,43.012592],[-108.41143,43.0126],[-108.409958,43.012379],[-108.409538,43.011917],[-108.409103,43.011372],[-108.408714,43.011189],[-108.408073,43.011147],[-108.407204,43.0112],[-108.406731,43.011448],[-108.406601,43.011948],[-108.406517,43.013283],[-108.405642,43.01332],[-108.405212,43.013355],[-108.404305,43.013454],[-108.403221,43.013504],[-108.402224,43.0131],[-108.402068,43.013028],[-108.401858,43.012942],[-108.401649,43.012855],[-108.401472,43.012782],[-108.401294,43.012708],[-108.400746,43.012482],[-108.399954,43.012023],[-108.399514,43.011698],[-108.398849,43.011206],[-108.398037,43.010534],[-108.397439,43.01043],[-108.397143,43.01076],[-108.397027,43.011398],[-108.396708,43.011704],[-108.396353,43.012046],[-108.394887,43.012541],[-108.392828,43.012491],[-108.392373,43.012227],[-108.391045,43.010823],[-108.390603,43.010756],[-108.389281,43.012336],[-108.389088,43.013139],[-108.388924,43.013569],[-108.388132,43.013807],[-108.38706,43.014151],[-108.38703,43.014161],[-108.386846,43.014233],[-108.386758,43.01422],[-108.38667,43.014208],[-108.385739,43.014043],[-108.385632,43.013968],[-108.385613,43.013914],[-108.385613,43.013901],[-108.385453,43.013793],[-108.385319,43.013628],[-108.385042,43.013101],[-108.38481,43.012774],[-108.384525,43.01237],[-108.384334,43.012371],[-108.384111,43.012159],[-108.384079,43.012108],[-108.383331,43.011612],[-108.382607,43.00988],[-108.381844,43.008949],[-108.381134,43.008553],[-108.380936,43.008587],[-108.380576,43.008655],[-108.380455,43.008679],[-108.380257,43.008713],[-108.379578,43.008835],[-108.379295,43.008884],[-108.37764,43.01022],[-108.376908,43.010312],[-108.375729,43.010002],[-108.375473,43.009846],[-108.374283,43.008968],[-108.373573,43.008404],[-108.372757,43.007328],[-108.371979,43.006538],[-108.370956,43.006332],[-108.370094,43.006371],[-108.36998,43.006374],[-108.369459,43.006689],[-108.368782,43.006855],[-108.367849,43.006889],[-108.366615,43.006718],[-108.365784,43.006741],[-108.365555,43.006744],[-108.3647,43.007046],[-108.363876,43.007473],[-108.363377,43.008188],[-108.362648,43.008778],[-108.362104,43.00905],[-108.360954,43.009293],[-108.360008,43.009323],[-108.359046,43.009603],[-108.357666,43.010132],[-108.357205,43.010173],[-108.356659,43.010078],[-108.356415,43.010067],[-108.354961,43.008775],[-108.355361,43.008731],[-108.355803,43.008488],[-108.355904,43.008141],[-108.356224,43.007819],[-108.356348,43.007163],[-108.356275,43.00669],[-108.356362,43.005911],[-108.356625,43.005219],[-108.356938,43.004767],[-108.35744,43.004374],[-108.357892,43.004046],[-108.358372,43.003769],[-108.358809,43.003318],[-108.359086,43.003041],[-108.359458,43.002473],[-108.359676,43.001839],[-108.359806,43.000914],[-108.359764,42.999953],[-108.359567,42.999101],[-108.359246,42.998322],[-108.35921,42.997834],[-108.359378,42.997557],[-108.359531,42.997167],[-108.360018,42.99697],[-108.360638,42.996716],[-108.36121,42.996613],[-108.361563,42.996635],[-108.362029,42.996701],[-108.362356,42.99681],[-108.362691,42.996963],[-108.363026,42.99716],[-108.36339,42.997333],[-108.3636,42.997399],[-108.363862,42.997537],[-108.364157,42.997784],[-108.364308,42.99807],[-108.364502,42.9983],[-108.364665,42.998383],[-108.36484,42.998383],[-108.365029,42.998529],[-108.365153,42.998565],[-108.36543,42.998515],[-108.36586,42.99858],[-108.366479,42.998667],[-108.366836,42.998718],[-108.367207,42.99885],[-108.367506,42.998893],[-108.367782,42.998901],[-108.368096,42.998908],[-108.368358,42.99909],[-108.368649,42.999206],[-108.36886,42.999439],[-108.369232,42.999585],[-108.369894,42.999731],[-108.370288,42.999847],[-108.37071,42.999804],[-108.371191,42.999709],[-108.37165,42.999498],[-108.371824,42.999177],[-108.371766,42.999039],[-108.371744,42.998791],[-108.371861,42.99858],[-108.372181,42.998449],[-108.372611,42.998267],[-108.372735,42.998128],[-108.373004,42.997925],[-108.37347,42.997735],[-108.373878,42.997626],[-108.374665,42.997509],[-108.375408,42.99756],[-108.375579,42.997654],[-108.375662,42.997649],[-108.376018,42.99762],[-108.376495,42.997688],[-108.376572,42.997356],[-108.376616,42.996651],[-108.376662,42.996272],[-108.37656,42.995901],[-108.376634,42.995534],[-108.376645,42.995284],[-108.376629,42.995178],[-108.376588,42.994892],[-108.376157,42.994253],[-108.375981,42.993858],[-108.376064,42.993634],[-108.376165,42.993363],[-108.377305,42.992988],[-108.378165,42.992931],[-108.378835,42.993153],[-108.379264,42.993488],[-108.379637,42.994116],[-108.379775,42.994705],[-108.379813,42.995531],[-108.379791,42.995668],[-108.379712,42.996169],[-108.379756,42.996539],[-108.380025,42.996816],[-108.380723,42.997093],[-108.381227,42.99725],[-108.382307,42.996873],[-108.382772,42.996207],[-108.382769,42.996169],[-108.382722,42.995302],[-108.381832,42.994141],[-108.381592,42.993708],[-108.381766,42.993023],[-108.382271,42.992583],[-108.382872,42.992445],[-108.383071,42.992399],[-108.383945,42.992609],[-108.383987,42.992649],[-108.38438,42.993023],[-108.385131,42.994027],[-108.385317,42.994097],[-108.385832,42.994292],[-108.386689,42.994692],[-108.387635,42.994916],[-108.38773,42.994914],[-108.388461,42.994899],[-108.389507,42.99465],[-108.390541,42.993936],[-108.391135,42.993285],[-108.391345,42.992731],[-108.391281,42.992337],[-108.391039,42.991928],[-108.390458,42.99113],[-108.390378,42.990725],[-108.390468,42.989846],[-108.390515,42.989397],[-108.390605,42.988793],[-108.391045,42.988352],[-108.39191,42.988193],[-108.392252,42.98813],[-108.393093,42.988137],[-108.393947,42.98824],[-108.394569,42.988456],[-108.39515,42.988873],[-108.395292,42.98934],[-108.395083,42.990452],[-108.395083,42.991125],[-108.395084,42.9912],[-108.395481,42.991756],[-108.396293,42.992083],[-108.397058,42.991982],[-108.397461,42.991647],[-108.39738,42.991253],[-108.39684,42.990242],[-108.396822,42.989909],[-108.397124,42.989655],[-108.398332,42.989421],[-108.399073,42.988915],[-108.399349,42.988505],[-108.399392,42.988257],[-108.399278,42.987886],[-108.398859,42.98746],[-108.398692,42.986827],[-108.398924,42.986321],[-108.399263,42.985949],[-108.399368,42.985883],[-108.399828,42.985593],[-108.401018,42.985014],[-108.401937,42.984714],[-108.402377,42.984641],[-108.402591,42.98463],[-108.402701,42.984625],[-108.403484,42.984868],[-108.404593,42.98487],[-108.405297,42.984793],[-108.405503,42.984771],[-108.40593,42.984709],[-108.40635,42.984648],[-108.407852,42.984349],[-108.408726,42.984345],[-108.410468,42.98448],[-108.410967,42.984446],[-108.410987,42.984444],[-108.411356,42.984144],[-108.411422,42.983337],[-108.411594,42.982711],[-108.412289,42.981575],[-108.412336,42.981231],[-108.411937,42.980028],[-108.411891,42.97989],[-108.411918,42.979629],[-108.412077,42.9793],[-108.412619,42.979122],[-108.413133,42.979217],[-108.414394,42.979828],[-108.415055,42.980259],[-108.416219,42.980677],[-108.417575,42.981315],[-108.418076,42.981551],[-108.418826,42.981794],[-108.419771,42.982041],[-108.421045,42.982545],[-108.422061,42.982627],[-108.422295,42.982537],[-108.422562,42.982436],[-108.4228,42.981788],[-108.422669,42.981441],[-108.42263,42.981411],[-108.422167,42.981049],[-108.419767,42.980009],[-108.419566,42.97979],[-108.419572,42.979256],[-108.419819,42.978774],[-108.420335,42.978429],[-108.421614,42.97803],[-108.422569,42.978004],[-108.423522,42.97805],[-108.424596,42.978312],[-108.425338,42.978364],[-108.426435,42.977866],[-108.427499,42.977189],[-108.427788,42.976839],[-108.427913,42.975024],[-108.428367,42.974606],[-108.429305,42.974235],[-108.42997,42.974191],[-108.430886,42.974342],[-108.431833,42.97491],[-108.432561,42.976102],[-108.43304,42.97742],[-108.434023,42.978298],[-108.434532,42.978499],[-108.435212,42.978491],[-108.436021,42.978105],[-108.436371,42.977483],[-108.436444,42.976879],[-108.43561,42.976111],[-108.43489,42.975525],[-108.434672,42.973785],[-108.433788,42.972078],[-108.433033,42.971562],[-108.432085,42.971398],[-108.431398,42.971573],[-108.430771,42.971856],[-108.430398,42.971883],[-108.430125,42.97183],[-108.429634,42.971581],[-108.429427,42.971315],[-108.429018,42.970236],[-108.428338,42.969484],[-108.428046,42.968717],[-108.428179,42.967865],[-108.428805,42.966809],[-108.429958,42.966336],[-108.431019,42.966479],[-108.432598,42.967418],[-108.432953,42.968233],[-108.432966,42.969199],[-108.432969,42.969398],[-108.433244,42.969785],[-108.43381,42.970178],[-108.435905,42.970391],[-108.437394,42.970377],[-108.437613,42.970272],[-108.437724,42.970218],[-108.438261,42.968994],[-108.438344,42.968544],[-108.438326,42.968211],[-108.438113,42.967874],[-108.437543,42.967576],[-108.436609,42.96746],[-108.436255,42.967428],[-108.435566,42.966866],[-108.434713,42.966372],[-108.434436,42.966033],[-108.434454,42.965606],[-108.434732,42.965136],[-108.435303,42.964626],[-108.435636,42.963636],[-108.435923,42.962953],[-108.436142,42.962364],[-108.436449,42.962111],[-108.436678,42.961925],[-108.437425,42.961846],[-108.438195,42.962006],[-108.438812,42.962315],[-108.439336,42.962578],[-108.439704,42.963062],[-108.439654,42.963488],[-108.439445,42.964624],[-108.43939,42.96517],[-108.439755,42.965724],[-108.440746,42.966032],[-108.441199,42.96603],[-108.442727,42.965458],[-108.444418,42.964866],[-108.445673,42.964264],[-108.445929,42.96413],[-108.447161,42.96349],[-108.448256,42.962825],[-108.448551,42.962535],[-108.448728,42.96217],[-108.44897,42.961807],[-108.449367,42.96159],[-108.44979,42.961528],[-108.450194,42.961537],[-108.450565,42.961581],[-108.450675,42.961636],[-108.450866,42.961731],[-108.451096,42.962045],[-108.451156,42.962533],[-108.451099,42.963126],[-108.450574,42.964493],[-108.450484,42.964716],[-108.450778,42.965044],[-108.451451,42.96519],[-108.452863,42.96509],[-108.454401,42.964912],[-108.454586,42.964891],[-108.455818,42.964431],[-108.456591,42.963747],[-108.456879,42.963029],[-108.456936,42.962448],[-108.456656,42.962157],[-108.455753,42.961887],[-108.455371,42.961748],[-108.454863,42.961499],[-108.454584,42.961208],[-108.454411,42.960693],[-108.454685,42.960342],[-108.455015,42.960172],[-108.455499,42.960206],[-108.455926,42.960453],[-108.45622,42.960781],[-108.456552,42.960954],[-108.457102,42.960966],[-108.458064,42.960394],[-108.458378,42.95983],[-108.458335,42.959307],[-108.458391,42.958345],[-108.458461,42.957824],[-108.459041,42.957493],[-108.459805,42.957403],[-108.460747,42.957697],[-108.461785,42.958409],[-108.462204,42.958858],[-108.462425,42.959564],[-108.46257,42.959995],[-108.463044,42.960267],[-108.463781,42.960426],[-108.464461,42.960417],[-108.464798,42.960092],[-108.464877,42.959737],[-108.464836,42.959166],[-108.464686,42.958093],[-108.464999,42.957553],[-108.465793,42.957131],[-108.466342,42.957057],[-108.466704,42.957009],[-108.467459,42.957156],[-108.468427,42.957606],[-108.46905,42.958202],[-108.46992,42.958684],[-108.470497,42.958816],[-108.471079,42.958805],[-108.471792,42.958381],[-108.472592,42.957424],[-108.473901,42.956479],[-108.474634,42.956341],[-108.475492,42.956324],[-108.476235,42.956352],[-108.476893,42.956498],[-108.477708,42.956729],[-108.477952,42.956929],[-108.47815,42.95709],[-108.478347,42.957251],[-108.478381,42.957279],[-108.478644,42.957594],[-108.478746,42.957845],[-108.478762,42.958262],[-108.478755,42.958423],[-108.478746,42.958642],[-108.478723,42.958819],[-108.478815,42.959288],[-108.478817,42.959297],[-108.479167,42.959827],[-108.479604,42.960229],[-108.480148,42.960372],[-108.480617,42.96037],[-108.48093,42.960223],[-108.481183,42.959979],[-108.481266,42.959541],[-108.481152,42.959146],[-108.481102,42.9588],[-108.481286,42.958451],[-108.481505,42.958037],[-108.481998,42.957656],[-108.48261,42.957313],[-108.482631,42.957311],[-108.482631,42.957073],[-108.482944,42.956862],[-108.483035,42.956802],[-108.484694,42.956256],[-108.485301,42.956217],[-108.48532,42.956182],[-108.485361,42.956114],[-108.485392,42.95609],[-108.485425,42.956067],[-108.485678,42.955883],[-108.486304,42.955549],[-108.487265,42.955039],[-108.489151,42.954403],[-108.490123,42.954119],[-108.490143,42.95411],[-108.490593,42.953915],[-108.490906,42.953501],[-108.49125,42.952729],[-108.491583,42.952239],[-108.492021,42.951724],[-108.492556,42.950983],[-108.492603,42.950896],[-108.493194,42.949809],[-108.493375,42.949634],[-108.493603,42.949601],[-108.494085,42.949713],[-108.494594,42.950018],[-108.494962,42.950371],[-108.495241,42.950799],[-108.495433,42.95162],[-108.495554,42.952076],[-108.495859,42.952479],[-108.496607,42.952917],[-108.497261,42.9535],[-108.49783,42.953819],[-108.498175,42.953896],[-108.498405,42.953812],[-108.498557,42.953477],[-108.498541,42.953132],[-108.498365,42.952745],[-108.498286,42.952551],[-108.498205,42.952198],[-108.498398,42.951283],[-108.498452,42.950486],[-108.498384,42.950173],[-108.49835,42.950011],[-108.498219,42.9496],[-108.49768,42.948962],[-108.496995,42.948385],[-108.496557,42.948031],[-108.496509,42.947934],[-108.496446,42.947773],[-108.49643,42.947517],[-108.49655,42.947124],[-108.496735,42.946893],[-108.497023,42.94653],[-108.497246,42.946251],[-108.497915,42.945621],[-108.498023,42.945588],[-108.498135,42.945555],[-108.498267,42.945526],[-108.498403,42.945593],[-108.498446,42.945635],[-108.498513,42.945699],[-108.498545,42.94573],[-108.498643,42.945946],[-108.498682,42.946032],[-108.498709,42.946092],[-108.498849,42.946484],[-108.499195,42.946754],[-108.49958,42.946896],[-108.500088,42.947022],[-108.500665,42.94706],[-108.500901,42.947052],[-108.501013,42.947096],[-108.501189,42.947242],[-108.50119,42.947286],[-108.501201,42.947526],[-108.501131,42.94785],[-108.500972,42.948114],[-108.500662,42.948362],[-108.500499,42.948462],[-108.500302,42.948611],[-108.500174,42.948761],[-108.500133,42.94892],[-108.500151,42.949125],[-108.50023,42.949305],[-108.500478,42.949623],[-108.500664,42.949768],[-108.500824,42.949805],[-108.500941,42.949733],[-108.501026,42.949593],[-108.501137,42.94937],[-108.50145,42.948951],[-108.502021,42.948729],[-108.50251,42.948715],[-108.502792,42.948763],[-108.503062,42.948836],[-108.503329,42.948983],[-108.503569,42.949231],[-108.503832,42.949462],[-108.504089,42.949576],[-108.504622,42.949613],[-108.505258,42.949627],[-108.505953,42.949468],[-108.506095,42.949436],[-108.506848,42.949077],[-108.507709,42.948862],[-108.508045,42.948719],[-108.508513,42.948378],[-108.508652,42.948168],[-108.508687,42.948113],[-108.508738,42.94804],[-108.508795,42.947952],[-108.508803,42.947942],[-108.508805,42.94789],[-108.508816,42.947634],[-108.50872,42.947473],[-108.508532,42.947344],[-108.508126,42.94726],[-108.507616,42.94724],[-108.506974,42.947246],[-108.50682,42.947248],[-108.505875,42.947286],[-108.505467,42.94726],[-108.505196,42.947087],[-108.505105,42.94681],[-108.505184,42.946528],[-108.505341,42.946297],[-108.505729,42.945989],[-108.506323,42.945618],[-108.506675,42.945358],[-108.5069,42.944845],[-108.507044,42.944648],[-108.507614,42.94446],[-108.507934,42.944409],[-108.508463,42.944546],[-108.508565,42.944591],[-108.508932,42.944756],[-108.509261,42.945039],[-108.509368,42.9455],[-108.509511,42.945896],[-108.509943,42.946164],[-108.510608,42.946295],[-108.511316,42.946316],[-108.512371,42.946322],[-108.512812,42.946349],[-108.51379,42.946578],[-108.514116,42.946627],[-108.514535,42.946644],[-108.515012,42.946646],[-108.515469,42.946565],[-108.515728,42.946312],[-108.51586,42.945865],[-108.51571,42.945628],[-108.51549,42.945057],[-108.5153,42.944686],[-108.515283,42.944544],[-108.515291,42.944353],[-108.515479,42.944182],[-108.51567,42.944066],[-108.515851,42.943957],[-108.516076,42.943737],[-108.516123,42.943396],[-108.51604,42.942944],[-108.515579,42.942126],[-108.515286,42.941803],[-108.514988,42.941588],[-108.514772,42.941325],[-108.514761,42.94105],[-108.515149,42.940692],[-108.516633,42.940183],[-108.516663,42.940153],[-108.516786,42.940036],[-108.516868,42.939696],[-108.516578,42.939148],[-108.516516,42.938714],[-108.516719,42.938185],[-108.51716,42.937653],[-108.51828,42.937144],[-108.519584,42.936872],[-108.519902,42.936854],[-108.520366,42.936872],[-108.520906,42.937126],[-108.521309,42.937268],[-108.521659,42.9373],[-108.522035,42.93725],[-108.522305,42.937031],[-108.522654,42.936514],[-108.523058,42.936048],[-108.523461,42.935898],[-108.523644,42.93586],[-108.523848,42.935873],[-108.52406,42.935961],[-108.524347,42.936434],[-108.524594,42.936772],[-108.524738,42.936859],[-108.524931,42.936855],[-108.5253,42.936713],[-108.525861,42.9363],[-108.52611,42.93603],[-108.526183,42.935615],[-108.526404,42.935062],[-108.526643,42.93475],[-108.52698,42.934533],[-108.527383,42.934391],[-108.527806,42.934292],[-108.528272,42.934277],[-108.528612,42.934285],[-108.528976,42.934251],[-108.529317,42.934225],[-108.529542,42.934263],[-108.529877,42.934404],[-108.530098,42.934542],[-108.530266,42.934604],[-108.530571,42.934635],[-108.531003,42.934603],[-108.531179,42.934448],[-108.531289,42.934286],[-108.531336,42.934218],[-108.531264,42.933742],[-108.531126,42.933222],[-108.530915,42.932843],[-108.530179,42.932385],[-108.52969,42.932142],[-108.529528,42.931922],[-108.52954,42.931622],[-108.529872,42.931262],[-108.530371,42.93099],[-108.530678,42.930963],[-108.531017,42.930995],[-108.531453,42.931155],[-108.531851,42.931122],[-108.532135,42.93082],[-108.532371,42.930033],[-108.532153,42.928855],[-108.532133,42.928745],[-108.532125,42.92837],[-108.532173,42.928029],[-108.532443,42.927802],[-108.532865,42.927759],[-108.533137,42.927733],[-108.533555,42.927767],[-108.533915,42.92785],[-108.534064,42.928087],[-108.534075,42.928387],[-108.534119,42.928688],[-108.534374,42.928843],[-108.534758,42.928877],[-108.535326,42.928864],[-108.535795,42.928757],[-108.536618,42.928292],[-108.53678,42.92817],[-108.537203,42.927854],[-108.537745,42.926919],[-108.537866,42.92671],[-108.538327,42.925687],[-108.538398,42.925322],[-108.538377,42.924997],[-108.538223,42.924585],[-108.537959,42.924104],[-108.53788,42.923795],[-108.538035,42.923331],[-108.53877,42.922955],[-108.539409,42.922853],[-108.539793,42.922886],[-108.540198,42.92297],[-108.540679,42.923122],[-108.541576,42.923657],[-108.542042,42.923909],[-108.542697,42.923981],[-108.543225,42.924109],[-108.543527,42.924358],[-108.543756,42.924587],[-108.543999,42.924751],[-108.54451,42.924832],[-108.544663,42.924857],[-108.544889,42.924887],[-108.545134,42.925],[-108.545332,42.925163],[-108.545464,42.925541],[-108.54548,42.925982],[-108.545808,42.92629],[-108.546291,42.926416],[-108.546824,42.92642],[-108.547374,42.926256],[-108.548019,42.92572],[-108.548647,42.925042],[-108.548964,42.924482],[-108.548899,42.924106],[-108.548772,42.923753],[-108.548395,42.923529],[-108.548117,42.923398],[-108.547997,42.923287],[-108.547915,42.92306],[-108.548096,42.922789],[-108.548535,42.922565],[-108.54916,42.922537],[-108.54997,42.922713],[-108.550799,42.922947],[-108.551488,42.92302],[-108.551862,42.923028],[-108.552184,42.92291],[-108.552442,42.922699],[-108.552566,42.922427],[-108.55246,42.922241],[-108.55215,42.922043],[-108.551699,42.921983],[-108.551364,42.921843],[-108.551147,42.921596],[-108.551128,42.921096],[-108.551148,42.920863],[-108.551257,42.920124],[-108.551283,42.91975],[-108.551538,42.919322],[-108.551994,42.918965],[-108.552408,42.918815],[-108.552796,42.918757],[-108.553294,42.918784],[-108.553911,42.918939],[-108.554572,42.919295],[-108.555207,42.919575],[-108.555456,42.919872],[-108.555648,42.920176],[-108.555924,42.920365],[-108.556371,42.920525],[-108.55639,42.920528],[-108.556777,42.920583],[-108.557366,42.920579],[-108.557676,42.920486],[-108.557868,42.920232],[-108.557973,42.919851],[-108.557901,42.919666],[-108.557585,42.919484],[-108.556786,42.919334],[-108.556511,42.91912],[-108.556427,42.91896],[-108.556423,42.918768],[-108.556534,42.918597],[-108.556556,42.918562],[-108.556778,42.918392],[-108.557008,42.918305],[-108.557304,42.918287],[-108.557597,42.918335],[-108.558541,42.91853],[-108.56005,42.918787],[-108.560311,42.918801],[-108.560483,42.918746],[-108.560637,42.918575],[-108.560727,42.918293],[-108.560785,42.917994],[-108.560768,42.917553],[-108.560833,42.917388],[-108.560932,42.917139],[-108.561424,42.916592],[-108.561938,42.916203],[-108.562601,42.915775],[-108.562854,42.915639],[-108.56318,42.915463],[-108.563673,42.915323],[-108.564267,42.915194],[-108.565023,42.915002],[-108.565488,42.914712],[-108.565983,42.914239],[-108.566327,42.913405],[-108.566705,42.912455],[-108.566978,42.912127],[-108.567523,42.911839],[-108.568033,42.911825],[-108.568821,42.911966],[-108.569216,42.912136],[-108.569234,42.912144],[-108.569412,42.912221],[-108.569586,42.912399],[-108.569641,42.912725],[-108.569613,42.91315],[-108.569351,42.913761],[-108.569318,42.914035],[-108.56939,42.914185],[-108.569788,42.91447],[-108.570337,42.914632],[-108.570833,42.914567],[-108.571359,42.914462],[-108.571567,42.914358],[-108.572017,42.913867],[-108.572665,42.913231],[-108.573092,42.913049],[-108.573525,42.912991],[-108.573929,42.913091],[-108.574274,42.913265],[-108.574413,42.91346],[-108.574451,42.913944],[-108.574376,42.914586],[-108.574366,42.914675],[-108.574392,42.914868],[-108.574472,42.915128],[-108.574841,42.915552],[-108.575189,42.915784],[-108.575448,42.91584],[-108.57581,42.915864],[-108.575972,42.915845],[-108.576163,42.915822],[-108.576442,42.915636],[-108.576863,42.915303],[-108.57751,42.914717],[-108.578006,42.914478],[-108.578477,42.914329],[-108.578732,42.914311],[-108.579125,42.914285],[-108.580059,42.914313],[-108.580627,42.914275],[-108.581256,42.914138],[-108.581785,42.913941],[-108.582296,42.913643],[-108.582714,42.913377],[-108.583105,42.913244],[-108.583767,42.913116],[-108.584689,42.913036],[-108.585191,42.912938],[-108.585513,42.91282],[-108.585724,42.912649],[-108.585793,42.912516],[-108.585853,42.912402],[-108.586106,42.912016],[-108.586429,42.911581],[-108.586811,42.911089],[-108.587112,42.910718],[-108.587176,42.910641],[-108.587338,42.910516],[-108.587441,42.910436],[-108.58765,42.910253],[-108.587811,42.910053],[-108.587944,42.909865],[-108.587976,42.909741],[-108.587967,42.909625],[-108.58794,42.909531],[-108.587887,42.909397],[-108.587811,42.909304],[-108.587717,42.909214],[-108.587615,42.909121],[-108.58749,42.909027],[-108.587414,42.908902],[-108.587387,42.908777],[-108.587427,42.908644],[-108.587458,42.908523],[-108.587516,42.908421],[-108.587579,42.908318],[-108.587668,42.908185],[-108.587784,42.908086],[-108.588187,42.907851],[-108.588413,42.907743],[-108.588586,42.907627],[-108.588787,42.90748],[-108.588912,42.907324],[-108.589059,42.907132],[-108.589206,42.906892],[-108.589309,42.906704],[-108.589402,42.906495],[-108.589438,42.906312],[-108.589452,42.906032],[-108.589431,42.905858],[-108.58933,42.905701],[-108.589285,42.905646],[-108.589185,42.905537],[-108.589063,42.905424],[-108.589002,42.905295],[-108.588969,42.90515],[-108.588995,42.905057],[-108.589027,42.904954],[-108.589076,42.904851],[-108.58916,42.904736],[-108.589234,42.904661],[-108.589372,42.904591],[-108.589559,42.904598],[-108.589627,42.904645],[-108.589656,42.904694],[-108.589714,42.904783],[-108.589752,42.90492],[-108.589817,42.905126],[-108.589894,42.905268],[-108.590068,42.905358],[-108.590293,42.905371],[-108.590442,42.905339],[-108.59057,42.905281],[-108.59086,42.905126],[-108.591505,42.905004],[-108.591711,42.904959],[-108.591878,42.904881],[-108.59193,42.904804],[-108.591994,42.904694],[-108.592007,42.904636],[-108.592014,42.904559],[-108.592014,42.904501],[-108.591917,42.904405],[-108.59178,42.904328],[-108.591382,42.904276],[-108.591086,42.904153],[-108.590951,42.904076],[-108.590854,42.903979],[-108.590848,42.903825],[-108.590854,42.903715],[-108.590906,42.903638],[-108.591054,42.903554],[-108.591241,42.903496],[-108.591479,42.903425],[-108.591685,42.903399],[-108.592174,42.90347],[-108.592432,42.903542],[-108.592859,42.903784],[-108.593816,42.904254],[-108.594468,42.90466],[-108.595372,42.905312],[-108.5959,42.90574],[-108.596318,42.906057],[-108.596338,42.906065],[-108.59671,42.906218],[-108.596897,42.906218],[-108.596968,42.906209],[-108.597066,42.906183],[-108.59712,42.906156],[-108.597182,42.906111],[-108.597209,42.906031],[-108.597177,42.905789],[-108.597048,42.905559],[-108.596977,42.905443],[-108.596941,42.905202],[-108.596941,42.905006],[-108.597031,42.90481],[-108.597182,42.904694],[-108.597396,42.904604],[-108.597601,42.904569],[-108.597905,42.904676],[-108.598252,42.904792],[-108.598743,42.904881],[-108.599073,42.904961],[-108.59942,42.904961],[-108.599652,42.904925],[-108.599777,42.904818],[-108.59992,42.904703],[-108.599937,42.904622],[-108.599929,42.904515],[-108.599911,42.904444],[-108.599848,42.904337],[-108.599693,42.904321],[-108.599447,42.904319],[-108.599242,42.904346],[-108.59901,42.904337],[-108.598841,42.904301],[-108.598716,42.904176],[-108.598671,42.904078],[-108.598662,42.903936],[-108.598725,42.903775],[-108.598926,42.903622],[-108.599385,42.903365],[-108.599492,42.903303],[-108.599625,42.90316],[-108.599661,42.903132],[-108.59983,42.902999],[-108.600152,42.902812],[-108.600366,42.902723],[-108.600544,42.90267],[-108.600687,42.902678],[-108.600901,42.902794],[-108.601065,42.902908],[-108.601204,42.903062],[-108.601373,42.903222],[-108.601525,42.903329],[-108.601792,42.903481],[-108.602229,42.903624],[-108.602514,42.903534],[-108.602675,42.903481],[-108.60288,42.903401],[-108.603192,42.903187],[-108.603477,42.902946],[-108.603629,42.902759],[-108.603736,42.902554],[-108.603781,42.902322],[-108.603709,42.902036],[-108.603674,42.901903],[-108.603611,42.901769],[-108.603522,42.901608],[-108.603335,42.901421],[-108.603139,42.901171],[-108.60313,42.900966],[-108.603156,42.900868],[-108.603344,42.90069],[-108.603727,42.900494],[-108.604145,42.900342],[-108.604446,42.900203],[-108.604744,42.900164],[-108.605163,42.900146],[-108.605689,42.900093],[-108.606144,42.900021],[-108.606437,42.899861],[-108.606434,42.900577],[-108.606432,42.900804],[-108.606429,42.901489],[-108.606428,42.901717],[-108.606425,42.902269],[-108.606416,42.903929],[-108.606414,42.904482],[-108.606412,42.904754],[-108.606408,42.905574],[-108.606407,42.905847],[-108.606388,42.909414],[-108.606339,42.919181],[-108.606334,42.920115],[-108.606316,42.923683],[-108.606323,42.924057],[-108.606345,42.925178],[-108.606353,42.925553],[-108.606344,42.927982],[-108.60632,42.935273],[-108.606312,42.937703],[-108.606307,42.939208],[-108.606292,42.943723],[-108.606287,42.945228],[-108.606268,42.950603],[-108.606215,42.96673],[-108.606197,42.972106],[-108.606191,42.973788],[-108.606174,42.978835],[-108.606169,42.980518],[-108.606168,42.98062],[-108.606167,42.980926],[-108.606167,42.981029],[-108.606171,42.981354],[-108.606184,42.982331],[-108.606189,42.982657],[-108.604785,42.982653],[-108.602733,42.982649],[-108.600676,42.982651],[-108.600573,42.98265],[-108.59917,42.982645],[-108.599042,42.982644],[-108.598818,42.982644],[-108.598726,42.982644],[-108.598658,42.982644],[-108.598628,42.982644],[-108.598531,42.982644],[-108.598421,42.982644],[-108.598311,42.982644],[-108.596979,42.982644],[-108.59514,42.982644],[-108.594457,42.982649],[-108.592409,42.982673],[-108.592323,42.982673],[-108.590772,42.982686],[-108.590703,42.982686],[-108.590498,42.982688],[-108.59043,42.982689],[-108.590284,42.98269],[-108.589847,42.982694],[-108.589702,42.982695],[-108.588608,42.982701],[-108.585915,42.982718],[-108.585326,42.982723],[-108.584233,42.982734],[-108.58372,42.982739],[-108.582829,42.982744],[-108.579575,42.982764],[-108.578618,42.982765],[-108.577215,42.982768],[-108.577178,42.986471],[-108.577071,42.997582],[-108.577069,42.997829],[-108.577033,43.001286],[-108.577029,43.001369],[-108.577018,43.001618],[-108.577015,43.001702],[-108.577028,43.002212],[-108.577069,43.003743],[-108.577083,43.004254],[-108.577077,43.004821],[-108.57707,43.005764],[-108.577037,43.010296],[-108.577027,43.011807],[-108.577023,43.012423],[-108.577014,43.014275],[-108.577011,43.014892],[-108.577009,43.01519],[-108.577004,43.016087],[-108.577003,43.016386],[-108.577003,43.016749],[-108.577003,43.01682],[-108.577096,43.016934],[-108.577096,43.017805],[-108.577097,43.018169],[-108.577087,43.018599],[-108.577061,43.019891],[-108.577052,43.020322],[-108.577052,43.020416],[-108.577052,43.020698],[-108.577052,43.020793],[-108.57705,43.022631],[-108.577047,43.02703],[-108.578162,43.027025],[-108.58,43.027017],[-108.581735,43.027008],[-108.586942,43.026985],[-108.588678,43.026978],[-108.591651,43.026964],[-108.600573,43.026925],[-108.603547,43.026912],[-108.606152,43.0269],[-108.613968,43.026866],[-108.616574,43.026855],[-108.622123,43.026828],[-108.636345,43.026762],[-108.638772,43.02675],[-108.644322,43.026725],[-108.644527,43.026735],[-108.645145,43.026766],[-108.645351,43.026777],[-108.646492,43.026772],[-108.649918,43.026761],[-108.65106,43.026757],[-108.652827,43.02675],[-108.658132,43.026731],[-108.6599,43.026725],[-108.663106,43.026713],[-108.672728,43.026679],[-108.675935,43.026668],[-108.67809,43.02666],[-108.684557,43.026637],[-108.686713,43.02663],[-108.688062,43.026624],[-108.69211,43.02661],[-108.69346,43.026606],[-108.693956,43.026603],[-108.695445,43.026598],[-108.695942,43.026597],[-108.695944,43.030532],[-108.69595,43.04234],[-108.695952,43.046276],[-108.695957,43.047483],[-108.695974,43.051104],[-108.69598,43.052311],[-108.695972,43.054367],[-108.695969,43.055317],[-108.695958,43.058465],[-108.695958,43.060538],[-108.695959,43.062596],[-108.695965,43.064316],[-108.695981,43.068458],[-108.695985,43.069476],[-108.695992,43.071197],[-108.695992,43.07165],[-108.695995,43.073009],[-108.695996,43.073463],[-108.695996,43.073789],[-108.695996,43.074118],[-108.695995,43.07477],[-108.695995,43.075097],[-108.696343,43.098567]]]}}]}