{"type":"FeatureCollection","name":"tl_2025_48_scsd","crs":{"type":"name","properties":{"name":"urn:ogc:def:crs:OGC:1.3:CRS84"}},"features":[{"type":"Feature","properties":{"STATEFP":"48","SCSDLEA":"48285","GEOID":"4848285","GEOIDFQ":"9600000US4848285","NAME":"Hallettsville Independent School District (9-12) in Vysehrad","LSAD":"00","LOGRADE":"09","HIGRADE":"12","MTFCC":"G5410","SDTYP":"A","FUNCSTAT":"F","ALAND":81526232,"AWATER":0,"INTPTLAT":"+29.4381936","INTPTLON":"-097.0250317"},"geometry":{"type":"Polygon","coordinates":[[[-97.107801,29.440715],[-97.102323,29.442018],[-97.102368,29.442164],[-97.102488,29.442529],[-97.102702,29.443184],[-97.102778,29.443423],[-97.102895,29.443795],[-97.103029,29.444219],[-97.103204,29.444794],[-97.098974,29.444577],[-97.098751,29.444565],[-97.088269,29.444041],[-97.088391,29.444171],[-97.089219,29.444865],[-97.088554,29.446998],[-97.087544,29.448],[-97.085846,29.448596],[-97.083959,29.448648],[-97.083763,29.448653],[-97.083378,29.448986],[-97.083135,29.449919],[-97.083203,29.452612],[-97.078052,29.45336],[-97.077494,29.453389],[-97.077681,29.459465],[-97.077629,29.459453],[-97.077487,29.459446],[-97.076846,29.459457],[-97.07561,29.459462],[-97.075297,29.45946],[-97.074347,29.459466],[-97.073814,29.459486],[-97.073751,29.459494],[-97.073756,29.459543],[-97.073647,29.459524],[-97.073581,29.459512],[-97.072272,29.459475],[-97.069094,29.459406],[-97.068471,29.459392],[-97.065283,29.459327],[-97.064122,29.459318],[-97.063448,29.459312],[-97.063456,29.459631],[-97.063453,29.460422],[-97.063453,29.460495],[-97.063495,29.462873],[-97.06351,29.463575],[-97.063526,29.464096],[-97.063549,29.465768],[-97.063554,29.466043],[-97.063559,29.466126],[-97.063545,29.466216],[-97.063563,29.466472],[-97.063562,29.46656],[-97.063581,29.467309],[-97.063589,29.467821],[-97.063595,29.468898],[-97.063598,29.469549],[-97.063604,29.470023],[-97.063607,29.470565],[-97.06361,29.471011],[-97.063621,29.471383],[-97.062948,29.471394],[-97.062859,29.471384],[-97.062214,29.471336],[-97.06212,29.47137],[-97.056541,29.471437],[-97.055614,29.471432],[-97.054905,29.471394],[-97.053753,29.469584],[-97.05357,29.469446],[-97.05302,29.468484],[-97.052942,29.46814],[-97.052654,29.467544],[-97.052209,29.467132],[-97.052051,29.466879],[-97.052156,29.465596],[-97.052132,29.465537],[-97.048731,29.46562],[-97.048889,29.464203],[-97.048694,29.45984],[-97.048293,29.459842],[-97.047854,29.459847],[-97.047708,29.459852],[-97.046866,29.459858],[-97.045546,29.459876],[-97.045213,29.459876],[-97.044899,29.459881],[-97.044562,29.45988],[-97.044102,29.459896],[-97.043124,29.459911],[-97.042572,29.459914],[-97.042275,29.459923],[-97.042082,29.459927],[-97.041885,29.459924],[-97.041776,29.459923],[-97.041311,29.459909],[-97.040989,29.459909],[-97.039674,29.459923],[-97.038634,29.459935],[-97.037228,29.459944],[-97.036434,29.459945],[-97.035799,29.459956],[-97.033743,29.459969],[-97.033431,29.459971],[-97.033118,29.459975],[-97.03267,29.459975],[-97.032234,29.459983],[-97.031951,29.459981],[-97.031257,29.459986],[-97.031113,29.459991],[-97.03068,29.459991],[-97.030223,29.46],[-97.029619,29.460001],[-97.029382,29.460001],[-97.028861,29.460005],[-97.028492,29.460004],[-97.028211,29.460009],[-97.028103,29.460005],[-97.027696,29.460006],[-97.026966,29.460015],[-97.025799,29.460023],[-97.024791,29.460028],[-97.023745,29.46003],[-97.023596,29.460035],[-97.022647,29.460037],[-97.021926,29.460046],[-97.021692,29.460052],[-97.021232,29.460054],[-97.021028,29.460053],[-97.020545,29.460062],[-97.019538,29.460069],[-97.018066,29.460068],[-97.017399,29.460078],[-97.017297,29.460081],[-97.017381,29.460195],[-97.017393,29.460243],[-97.017399,29.460299],[-97.017408,29.460446],[-97.017404,29.460742],[-97.017401,29.461064],[-97.01741,29.461777],[-97.017399,29.461856],[-97.017368,29.461923],[-97.017324,29.461976],[-97.017407,29.462664],[-97.017421,29.463949],[-97.017422,29.464093],[-97.017427,29.464473],[-97.017434,29.464792],[-97.017395,29.465496],[-97.017313,29.466092],[-97.017273,29.466283],[-97.017045,29.467118],[-97.016633,29.468051],[-97.016004,29.469479],[-97.01595,29.46966],[-97.015936,29.469705],[-97.015871,29.469921],[-97.015781,29.47033],[-97.015653,29.471005],[-97.015647,29.471036],[-97.015643,29.471121],[-97.015616,29.471729],[-97.015616,29.471788],[-97.015618,29.472672],[-97.014245,29.472666],[-97.014256,29.473656],[-97.015621,29.473679],[-97.015622,29.474079],[-97.015677,29.47547],[-97.015744,29.477162],[-97.012897,29.477103],[-97.010124,29.477042],[-97.010044,29.478325],[-97.010149,29.479035],[-97.010173,29.481419],[-97.010278,29.481762],[-97.010249,29.482718],[-97.010235,29.483525],[-97.009887,29.483528],[-97.009458,29.483547],[-97.009221,29.483568],[-97.009116,29.483584],[-97.008766,29.483645],[-97.008594,29.483662],[-97.008442,29.48366],[-97.008359,29.48365],[-97.008253,29.483628],[-97.008039,29.483577],[-97.007845,29.483538],[-97.007584,29.483507],[-97.007432,29.483498],[-97.007189,29.483493],[-97.007093,29.483491],[-97.006724,29.483492],[-97.005751,29.483498],[-97.004379,29.483502],[-97.003486,29.483507],[-97.003244,29.483508],[-97.001925,29.483517],[-97.001547,29.483514],[-97.000372,29.483514],[-96.999463,29.483523],[-96.998782,29.483517],[-96.998701,29.483517],[-96.99786,29.483517],[-96.997782,29.483518],[-96.996382,29.483529],[-96.99517,29.483549],[-96.994756,29.483551],[-96.9945,29.483559],[-96.994391,29.483559],[-96.994182,29.48357],[-96.992031,29.483591],[-96.991355,29.483593],[-96.990085,29.483605],[-96.989306,29.483604],[-96.988572,29.483616],[-96.986973,29.48363],[-96.984769,29.483667],[-96.984391,29.483677],[-96.983322,29.48369],[-96.982827,29.483705],[-96.982507,29.483709],[-96.982349,29.483702],[-96.982193,29.483679],[-96.982045,29.483639],[-96.981902,29.483583],[-96.981767,29.483513],[-96.981639,29.483434],[-96.981518,29.483351],[-96.981292,29.483167],[-96.981188,29.483069],[-96.980629,29.482503],[-96.980385,29.482244],[-96.980244,29.48208],[-96.980123,29.481922],[-96.980022,29.481768],[-96.979943,29.481615],[-96.979882,29.481461],[-96.979859,29.481384],[-96.979824,29.481228],[-96.979758,29.480821],[-96.97974,29.480762],[-96.979715,29.480707],[-96.979682,29.480662],[-96.979643,29.480623],[-96.979602,29.480593],[-96.979555,29.480565],[-96.979292,29.48045],[-96.97984,29.479087],[-96.980285,29.478445],[-96.98073,29.477941],[-96.98196,29.476933],[-96.982458,29.476222],[-96.982588,29.475512],[-96.982562,29.474687],[-96.981932,29.472212],[-96.981801,29.472052],[-96.981094,29.470082],[-96.980413,29.469463],[-96.977532,29.468478],[-96.976589,29.467997],[-96.975908,29.467539],[-96.975411,29.466944],[-96.974965,29.465547],[-96.974545,29.463393],[-96.974441,29.463118],[-96.973576,29.45927],[-96.973575,29.458857],[-96.973497,29.458766],[-96.973469,29.458412],[-96.973392,29.457414],[-96.973287,29.457231],[-96.972789,29.456795],[-96.97169,29.4562],[-96.970668,29.455421],[-96.970014,29.4551],[-96.969097,29.454435],[-96.968731,29.454297],[-96.965982,29.454023],[-96.96517,29.453771],[-96.964254,29.453244],[-96.964053,29.453075],[-96.964087,29.450257],[-96.964192,29.441632],[-96.965421,29.441573],[-96.965568,29.437593],[-96.965654,29.435289],[-96.965718,29.424705],[-96.965733,29.423478],[-96.96576,29.418811],[-96.965789,29.416511],[-96.965797,29.415823],[-96.965966,29.401719],[-96.967024,29.401721],[-96.967726,29.401721],[-96.968464,29.401714],[-96.968515,29.401719],[-96.968566,29.401729],[-96.968618,29.401759],[-96.968646,29.401827],[-96.97499,29.401712],[-96.980863,29.401776],[-96.981329,29.40251],[-96.981486,29.403174],[-96.982167,29.404251],[-96.982613,29.40535],[-96.982639,29.405693],[-96.982979,29.40661],[-96.983708,29.407367],[-96.983817,29.40748],[-96.98387,29.407503],[-96.984812,29.408053],[-96.985492,29.408557],[-96.986225,29.408808],[-96.987115,29.409014],[-96.988031,29.409129],[-96.989549,29.409082],[-96.991041,29.408898],[-96.991696,29.408898],[-96.992952,29.409081],[-96.993659,29.409333],[-96.993973,29.409539],[-96.994522,29.409768],[-96.995805,29.409951],[-96.99693,29.409744],[-96.997715,29.409354],[-96.998604,29.408712],[-96.999049,29.408185],[-96.999441,29.407405],[-96.999797,29.407039],[-97.000261,29.406901],[-97.001187,29.406623],[-97.00226,29.406509],[-97.003228,29.406624],[-97.003673,29.406899],[-97.004484,29.406991],[-97.004896,29.407182],[-97.004929,29.407197],[-97.005373,29.407747],[-97.005843,29.408962],[-97.006026,29.40965],[-97.006105,29.409696],[-97.006183,29.410177],[-97.006654,29.410727],[-97.007517,29.410979],[-97.008773,29.41082],[-97.010239,29.410385],[-97.010867,29.410064],[-97.011627,29.4094],[-97.012211,29.408695],[-97.013014,29.407728],[-97.013355,29.407132],[-97.013564,29.406995],[-97.013591,29.406743],[-97.014114,29.405941],[-97.014246,29.405185],[-97.014141,29.404589],[-97.013749,29.403855],[-97.01354,29.40287],[-97.013645,29.402572],[-97.013828,29.402412],[-97.014195,29.402274],[-97.015398,29.402344],[-97.016445,29.402665],[-97.017413,29.403146],[-97.018093,29.403284],[-97.01893,29.403674],[-97.021128,29.404912],[-97.022488,29.406081],[-97.022802,29.406127],[-97.023273,29.406059],[-97.023561,29.405875],[-97.024033,29.405303],[-97.024504,29.404867],[-97.024923,29.404661],[-97.025577,29.404684],[-97.026309,29.404914],[-97.026916,29.405319],[-97.027408,29.405647],[-97.028141,29.405991],[-97.02869,29.406083],[-97.03259,29.405534],[-97.033139,29.405282],[-97.033794,29.404755],[-97.034317,29.404205],[-97.034972,29.403266],[-97.035364,29.402899],[-97.035809,29.402739],[-97.036463,29.402671],[-97.036557,29.402616],[-97.037171,29.402258],[-97.037799,29.402442],[-97.038662,29.403083],[-97.039133,29.403977],[-97.039708,29.405329],[-97.03997,29.405604],[-97.040336,29.406636],[-97.040519,29.408148],[-97.040833,29.408859],[-97.041487,29.40934],[-97.042822,29.409936],[-97.043397,29.410005],[-97.044496,29.409959],[-97.045491,29.409501],[-97.047061,29.408493],[-97.047245,29.40847],[-97.047402,29.408241],[-97.047899,29.407851],[-97.049103,29.407347],[-97.049521,29.407347],[-97.050176,29.407622],[-97.051039,29.408654],[-97.051536,29.410349],[-97.051615,29.410395],[-97.052112,29.411954],[-97.052347,29.412206],[-97.052766,29.412389],[-97.053708,29.412504],[-97.05465,29.412389],[-97.055645,29.412137],[-97.056142,29.411862],[-97.05643,29.411519],[-97.057136,29.410144],[-97.057346,29.409135],[-97.057346,29.407531],[-97.057451,29.407325],[-97.057974,29.406936],[-97.058288,29.406821],[-97.059283,29.40705],[-97.059884,29.407486],[-97.060434,29.408127],[-97.061114,29.409433],[-97.061219,29.409823],[-97.061638,29.410465],[-97.061638,29.410694],[-97.061899,29.411038],[-97.062187,29.411152],[-97.065616,29.411313],[-97.065832,29.411409],[-97.067264,29.412046],[-97.068416,29.411863],[-97.069175,29.411863],[-97.069358,29.411588],[-97.069567,29.409915],[-97.069986,29.409525],[-97.070274,29.409433],[-97.070771,29.409502],[-97.071975,29.410098],[-97.0742,29.411839],[-97.075875,29.412962],[-97.076083,29.413144],[-97.077,29.413947],[-97.078178,29.414703],[-97.07878,29.414978],[-97.080743,29.415505],[-97.081607,29.415849],[-97.082182,29.416376],[-97.082811,29.417476],[-97.082994,29.418163],[-97.083753,29.419401],[-97.083753,29.419492],[-97.085324,29.421554],[-97.085717,29.42215],[-97.086136,29.422585],[-97.086842,29.423135],[-97.087602,29.423501],[-97.087942,29.42357],[-97.088623,29.423478],[-97.090769,29.422241],[-97.092968,29.421393],[-97.094512,29.420705],[-97.095297,29.420453],[-97.096291,29.420613],[-97.096789,29.420819],[-97.097234,29.421185],[-97.097967,29.422056],[-97.098412,29.42217],[-97.098805,29.422102],[-97.099485,29.421551],[-97.099877,29.42146],[-97.100558,29.421643],[-97.101082,29.421964],[-97.101317,29.422238],[-97.102339,29.424575],[-97.102627,29.424987],[-97.104617,29.426132],[-97.104909,29.426188],[-97.104726,29.427676],[-97.103324,29.429981],[-97.103392,29.430163],[-97.105066,29.434521],[-97.105837,29.434189],[-97.107801,29.440715]]]}}]}