{"type":"FeatureCollection","crs":{"type":"name","properties":{"name":"urn:ogc:def:crs:OGC:1.3:CRS84"}},"features":[{"type":"Feature","id":1,"geometry":{"type":"Polygon","coordinates":[[[-116.203813356156,43.7512130483994],[-116.159855154282,43.7186341470448],[-116.159600393644,43.7184451817178],[-116.105653677604,43.6783911268866],[-116.055674972785,43.6404884103146],[-116.055890271831,43.6404171473243],[-116.055984222192,43.6403771624124],[-116.056084486166,43.6403279207811],[-116.056149201517,43.6402935585687],[-116.056237995323,43.6402406514444],[-116.056249361962,43.6402239882068],[-116.056253095349,43.6402073463175],[-116.056261874497,43.6401823745164],[-116.056259790178,43.6401477286091],[-116.056250715358,43.6401144882447],[-116.05622891684,43.6400812819639],[-116.056184010959,43.6400074807444],[-116.056148169295,43.6399650714215],[-116.05609329625,43.6399328779284],[-116.056056319338,43.6399172683863],[-116.056005380228,43.6399081650138],[-116.055890820568,43.639898306729],[-116.055707524313,43.6398821651588],[-116.055458062399,43.6398652749661],[-116.055071201138,43.6398506003682],[-116.055070353068,43.6398505063372],[-116.054760580206,43.6398163157153],[-116.054555546441,43.6397789771379],[-116.054474011752,43.6397579421192],[-116.054388617297,43.6397286000251],[-116.054319750402,43.6396964429391],[-116.054249549116,43.6396522768927],[-116.054193336072,43.6396062259939],[-116.054134511401,43.6395472444009],[-116.05410126793,43.6395149924026],[-116.054074378204,43.6394808750064],[-116.054034777669,43.6394495632414],[-116.053992684452,43.6394284229739],[-116.053948069341,43.6394119088156],[-116.053895882888,43.6394074272381],[-116.053885817644,43.6394065405501],[-116.053844967813,43.6394029431575],[-116.053754522232,43.6393810070641],[-116.053693331096,43.6393571446982],[-116.053658891057,43.6393396800515],[-116.053606222841,43.6393039814162],[-116.053576541237,43.6392830708152],[-116.053538157878,43.6392406683175],[-116.053498484602,43.6391945722554],[-116.053458909046,43.6391678805426],[-116.053415543628,43.6391467434385],[-116.053382385684,43.6391311228928],[-116.053341610759,43.6391192186252],[-116.053290649488,43.6391054937805],[-116.053244791333,43.6390945272083],[-116.053200187207,43.6390798612157],[-116.053144118267,43.6390624537766],[-116.053103213379,43.6390246772374],[-116.053075065773,43.6389933347701],[-116.053049425,43.6389545943984],[-116.05303015868,43.6389186080556],[-116.053019856266,43.6388936870769],[-116.053023552072,43.6388696523367],[-116.045178333517,43.6330912032918],[-116.04524997271,43.6329969414952],[-116.045279971675,43.6329639421734],[-116.045960972643,43.6325979422262],[-116.046319972139,43.6323469414139],[-116.046552971809,43.632197941448],[-116.046853972049,43.6321299414234],[-116.047116972338,43.6320609414399],[-116.047399973711,43.6320289414191],[-116.047784973553,43.6319529412478],[-116.048231973563,43.6318899415698],[-116.048636974052,43.6318059407203],[-116.048912974261,43.6317379402796],[-116.049148973897,43.6316939401344],[-116.049434973786,43.6315709408259],[-116.049731973908,43.631470940693],[-116.049968974039,43.6314149399414],[-116.050158974021,43.6313219402135],[-116.050343973449,43.6312029403478],[-116.050472973852,43.6310549399073],[-116.050663973874,43.6307349404441],[-116.050843974276,43.6305569397961],[-116.050991973417,43.6304189402606],[-116.051152974415,43.6303669402946],[-116.051320974317,43.6303509402249],[-116.051657973856,43.630294940525],[-116.052041974309,43.6302819402112],[-116.052159974566,43.6303299402262],[-116.052309973945,43.6303749396759],[-116.052442973618,43.6304429397467],[-116.052540974098,43.6304779403486],[-116.052569974559,43.6304719401466],[-116.052702974713,43.6307959396632],[-116.052986973844,43.6310479400452],[-116.053647975342,43.6309559395825],[-116.055087975756,43.6299959401154],[-116.055568975888,43.6296759392557],[-116.056482975974,43.6292409393383],[-116.056702975113,43.6289359395567],[-116.056734975967,43.6288979398309],[-116.056733975235,43.6276179387457],[-116.056922974201,43.6273199386239],[-116.056922974692,43.6265659384645],[-116.057614974138,43.6258799384708],[-116.057803974759,43.6254909377055],[-116.05803897443,43.6249029377412],[-116.058399973721,43.6243959382703],[-116.058903973665,43.6239149377726],[-116.060195975051,43.6235039375878],[-116.061171975094,43.6233899372965],[-116.061800975905,43.6230679374155],[-116.062241975163,43.6226339362052],[-116.062997976098,43.6216279363016],[-116.065294976027,43.6201409358355],[-116.065169976072,43.6189519356501],[-116.065294975374,43.6188149355853],[-116.065169975343,43.6186999356567],[-116.065169973822,43.617853935338],[-116.064067973829,43.6167789356455],[-116.063437974356,43.616527935618],[-116.063185974238,43.6163219358822],[-116.062587972558,43.6140589360379],[-116.062241972187,43.6130529353922],[-116.061831971547,43.6125499360482],[-116.061580971584,43.6118179354325],[-116.061233970955,43.6114749351653],[-116.060447970467,43.6099199358494],[-116.060195969874,43.6097139355741],[-116.060352970625,43.6095309348076],[-116.060352969695,43.6093939345134],[-116.060636969797,43.6093479343915],[-116.060950970331,43.6089359340553],[-116.061013969675,43.6079989343157],[-116.061139970008,43.6077929339219],[-116.061268969399,43.607740934617],[-116.061769970536,43.6075409341963],[-116.062965970165,43.6075639340808],[-116.063563970314,43.6071069340638],[-116.063699970422,43.607092933914],[-116.064916970991,43.6070609335898],[-116.06507397111,43.6069459337171],[-116.065325971033,43.6064879335988],[-116.066049970217,43.6058019332536],[-116.066206970332,43.6052309340015],[-116.066930970831,43.604315932744],[-116.066930970534,43.6040639321058],[-116.065986970276,43.6039959323473],[-116.065514969502,43.6038589333148],[-116.065399969838,43.6037449334718],[-116.065199969797,43.6036079338619],[-116.065168969518,43.6032879328628],[-116.065734969895,43.6024639328211],[-116.066206969454,43.602074932036],[-116.067528970161,43.6013659319999],[-116.068063970084,43.6008849318434],[-116.068566970451,43.6007019319363],[-116.06966897026,43.6005189321892],[-116.070800970245,43.6000849320681],[-116.071807970718,43.5988499314209],[-116.073066970863,43.5977979304776],[-116.073758970857,43.5970889301758],[-116.073789970567,43.5966079305421],[-116.073695970005,43.5964259303456],[-116.073254970081,43.5962879303467],[-116.072625970453,43.5963109297907],[-116.072468969701,43.5962199304098],[-116.072468969477,43.5960369305502],[-116.073254970336,43.5954649304155],[-116.074418970363,43.5948479297334],[-116.075173970624,43.5947789300287],[-116.075897970208,43.5945269301121],[-116.076275970431,43.5942529296986],[-116.077188971863,43.5940469293709],[-116.078786971417,43.5940049284433],[-116.078950972053,43.5940009288641],[-116.079422972139,43.5939089283841],[-116.079737972491,43.5936809280928],[-116.079768972006,43.5935429281639],[-116.079674972102,43.5934519278851],[-116.079222971213,43.5933659287151],[-116.078950971206,43.5933149284033],[-116.078918971624,43.593085928555],[-116.079862971381,43.5923309284461],[-116.080869972173,43.5909819276613],[-116.080900971266,43.5905469276001],[-116.080711971642,43.5902499275287],[-116.080727971243,43.5901129281975],[-116.080711970436,43.5899989279378],[-116.081623971974,43.5895639279931],[-116.081906971084,43.5893579273415],[-116.081969971297,43.588717928114],[-116.082504971308,43.588236927777],[-116.082818970339,43.5871169265794],[-116.083195970184,43.586727926004],[-116.083897970539,43.5862089265909],[-116.084004970007,43.5861429264277],[-116.084245969871,43.5860439264578],[-116.084925971815,43.585675926123],[-116.0851469719,43.5854929262587],[-116.085334970315,43.5849439260684],[-116.085680969956,43.5846229258008],[-116.086058971309,43.5845549262361],[-116.08687697134,43.5847149263041],[-116.087725971665,43.584599925446],[-116.088253972435,43.5844419255127],[-116.088537971763,43.5842159254405],[-116.089062972255,43.5833529255958],[-116.088932972017,43.5829219252825],[-116.088838972296,43.5828759255743],[-116.0884519719,43.5819669257301],[-116.08841096977,43.5809219247286],[-116.088565970171,43.580672924502],[-116.089686970414,43.5797199240919],[-116.089872970217,43.5794469244396],[-116.088932970098,43.5793529239789],[-116.088478970233,43.579248923898],[-116.08844697048,43.5791109241835],[-116.089358969915,43.5782879245632],[-116.089396970105,43.5782359239651],[-116.089008969749,43.57525292399],[-116.090177969532,43.5741769235363],[-116.09092097017,43.573689923235],[-116.091017969469,43.5736349238503],[-116.091453969528,43.5729169221744],[-116.091579968011,43.5723309221163],[-116.091598967938,43.5723219224884],[-116.091591968836,43.5720949223554],[-116.09162196827,43.5718609225031],[-116.091635968608,43.5717989223088],[-116.091689968143,43.5717429222751],[-116.091877968774,43.571654922341],[-116.091953969012,43.5716089223971],[-116.092014968934,43.5715809222965],[-116.092078969003,43.5714479225326],[-116.09214696887,43.5713719220672],[-116.092185968381,43.5713439220148],[-116.092289967879,43.5713349225239],[-116.092539968834,43.5713389219409],[-116.092663969552,43.5713319221818],[-116.092772969712,43.5712819223712],[-116.092832969539,43.57124292197],[-116.092894969114,43.5712239224597],[-116.092954969173,43.5712299224899],[-116.09314396999,43.5712609222394],[-116.093186969467,43.5712619217188],[-116.093230969726,43.5712519225162],[-116.093260969592,43.5712249219668],[-116.093287969592,43.5711799222986],[-116.093315969989,43.5711659222019],[-116.093352969361,43.5711559223758],[-116.093392969951,43.5711539222313],[-116.09346796921,43.5711599219383],[-116.09351396914,43.5711679220376],[-116.093591969409,43.5711579222293],[-116.093694969873,43.571130921744],[-116.093799969317,43.5710889218886],[-116.093853969463,43.5710809217755],[-116.093903969702,43.5710569216525],[-116.093983969258,43.5710409218561],[-116.093992969567,43.5726229226264],[-116.094063970481,43.5740359227418],[-116.09432097022,43.5743169223847],[-116.094370969835,43.5743749224112],[-116.094607970105,43.5746359225248],[-116.101253973989,43.5745689218616],[-116.102105973569,43.5745999216029],[-116.102618974373,43.5745959214457],[-116.102617973453,43.5743849218975],[-116.102662974054,43.5744219215541],[-116.102694973609,43.5744839215631],[-116.102729973874,43.5745139215912],[-116.102740973829,43.5745439218635],[-116.102794973723,43.5746019211578],[-116.104184974686,43.574587920124],[-116.104185974659,43.5746639200543],[-116.108145976054,43.5746189196367],[-116.110085976491,43.5745959202599],[-116.110529976349,43.5745909202659],[-116.110645976475,43.574589919937],[-116.111613977541,43.5745779194498],[-116.111874978077,43.5745739194805],[-116.111754283257,43.5746827145579],[-116.111732977462,43.5747019195202],[-116.111586978229,43.574822919576],[-116.111283978161,43.5751019195483],[-116.111237978189,43.5751449198694],[-116.111046977632,43.5753629199844],[-116.110960977343,43.5754519199207],[-116.110780977482,43.5756559202441],[-116.110548977243,43.5759449203468],[-116.110484978104,43.5760519198291],[-116.110376977701,43.5762789202937],[-116.110275977595,43.576441919886],[-116.110242977446,43.5765819200793],[-116.110290977153,43.5767569198632],[-116.110318262513,43.5767845380872],[-116.110372977768,43.5768399198524],[-116.110419977952,43.5769319198809],[-116.110486977403,43.5770079204288],[-116.110544977443,43.5771179199155],[-116.110557977983,43.5771779203079],[-116.110588977539,43.577270920174],[-116.110643977364,43.577492920351],[-116.110669978317,43.5775479200653],[-116.110733978106,43.5777479202987],[-116.110737978458,43.5778349198069],[-116.110774978155,43.5779589203208],[-116.110833978276,43.5780819199325],[-116.110852978498,43.5781349203961],[-116.110850978477,43.5782239205336],[-116.110862977857,43.5783419198217],[-116.110978977529,43.5783879201895],[-116.111047977783,43.5784039203907],[-116.111111977671,43.5784279198425],[-116.111251978536,43.5785259199988],[-116.111319978533,43.5785549203416],[-116.111388978785,43.5786019201753],[-116.111507978822,43.5786659204125],[-116.111602978358,43.5787479199348],[-116.111742978269,43.5788399203892],[-116.111824978771,43.5789229202053],[-116.111948978407,43.5790129200445],[-116.111978978143,43.579050920143],[-116.112090978512,43.5791059198848],[-116.112167979035,43.5791299198645],[-116.112184979034,43.5791449204509],[-116.112190979858,43.579179920473],[-116.112201979375,43.5792089199605],[-116.112235980019,43.5792359197695],[-116.112426979532,43.5793489202103],[-116.112549979225,43.5794009201798],[-116.112579979991,43.5794299196692],[-116.112600979644,43.5794399199601],[-116.11262497957,43.5794459203325],[-116.112762980069,43.5794359205212],[-116.112793980207,43.5794369200976],[-116.113076980066,43.5794869204361],[-116.113106979287,43.579484919958],[-116.113137980198,43.5794749201945],[-116.113349979604,43.5794849200858],[-116.113558979246,43.5795039196689],[-116.113649979273,43.579499919742],[-116.113774979275,43.5794879198632],[-116.113939980038,43.5794569195734],[-116.114109979576,43.5794249203751],[-116.114133979449,43.5794169198382],[-116.114177980496,43.5794019196368],[-116.114331979837,43.5793909202157],[-116.114445980474,43.5793709198605],[-116.114528979614,43.5793819199819],[-116.114553979657,43.5793819203635],[-116.11461797952,43.5793579196725],[-116.114673979974,43.5793169200218],[-116.114790979464,43.5792589199754],[-116.114956980184,43.579213919833],[-116.115056979883,43.5792319200447],[-116.115425979774,43.5793509202331],[-116.115138980091,43.5797909196149],[-116.114962980571,43.5802319201872],[-116.11490098067,43.5805919198484],[-116.114931979994,43.5811479197642],[-116.115131980405,43.5814239199204],[-116.115512981025,43.5815529204388],[-116.115746982078,43.5815079204314],[-116.115802982161,43.581496920217],[-116.116026981386,43.5813469197818],[-116.116364981583,43.5807849199562],[-116.116487981543,43.58077591947],[-116.116645981332,43.5807649194087],[-116.11705898225,43.5807329201314],[-116.117488981777,43.5806489193604],[-116.118147858964,43.580452447255],[-116.118152982214,43.580450919734],[-116.118272927572,43.5805650616163],[-116.118276981872,43.58056891926],[-116.118964791784,43.5807306993561],[-116.118969982576,43.580731920041],[-116.119389472067,43.5809867500313],[-116.119397982497,43.5809919197698],[-116.119987982379,43.5810959194377],[-116.120723589418,43.5812711586483],[-116.120730982242,43.5812729192848],[-116.120966983903,43.581449919905],[-116.121004861082,43.5815878346653],[-116.121005983014,43.5815919195162],[-116.12191008577,43.5817347763816],[-116.12191098418,43.5817349183517],[-116.123223898762,43.5823664717921],[-116.123228984697,43.5823689183629],[-116.124536984565,43.5829499186767],[-116.125401985792,43.583243917934],[-116.125396345754,43.5818383262266],[-116.125384983561,43.5790059175161],[-116.125373983824,43.5779369182344],[-116.125373983342,43.577368918094],[-116.125383983692,43.5773439178133],[-116.12538398405,43.5773025279908],[-116.125383984255,43.5772599178297],[-116.125373983454,43.5770999179988],[-116.125348982777,43.5763009175243],[-116.125382981833,43.5760159179465],[-116.125382982399,43.5758219173398],[-116.125376982365,43.5736009168665],[-116.125387981305,43.573090916509],[-116.125401982121,43.5724329166558],[-116.125406981797,43.5715649164217],[-116.125406981303,43.5714879162123],[-116.125402276925,43.5714533040629],[-116.125392981068,43.5713849163512],[-116.12537798176,43.5712709160077],[-116.125361981053,43.5711519160936],[-116.125361981309,43.5711437858923],[-116.125361981921,43.5711349159262],[-116.125460982095,43.5712479159785],[-116.125529981636,43.5714119159847],[-116.125638981533,43.5715339158866],[-116.125691322423,43.5715722269095],[-116.125693668104,43.571573039961],[-116.12569724986,43.5715765668169],[-116.125732376761,43.5716022774094],[-116.125735981468,43.5716049159323],[-116.125754450042,43.5716114483103],[-116.126538982195,43.5718889162729],[-116.126682981483,43.5719419163887],[-116.12673798183,43.5719609159185],[-116.129593983775,43.5729599160892],[-116.130666983935,43.5733359154785],[-116.131587984445,43.5736579162942],[-116.133604985538,43.5743639157442],[-116.134664985465,43.5747349155678],[-116.135704986071,43.5750989155592],[-116.13670698615,43.5754399156577],[-116.137622987435,43.5757699149208],[-116.137705987429,43.5757989144187],[-116.138744988356,43.5761619145131],[-116.139785987583,43.5765259143732],[-116.141179834281,43.5770140904786],[-116.141245129149,43.5770389802868],[-116.144270447611,43.578097706339],[-116.144404929877,43.5781270885769],[-116.144450287086,43.5781369989871],[-116.144736995385,43.5782149570463],[-116.144831995568,43.5782419570208],[-116.145340995421,43.5783479577032],[-116.145756157577,43.5784109427746],[-116.147003780477,43.5781044961504],[-116.148925963785,43.5772600239233],[-116.152033123551,43.5758796903227],[-116.154147681449,43.5751301653932],[-116.156125887872,43.5731659959128],[-116.156397233174,43.5732339160732],[-116.156664304628,43.5732786121458],[-116.157568079426,43.5734298576741],[-116.159230021628,43.5737086856676],[-116.161341316554,43.5740407376003],[-116.162096234687,43.5740906492584],[-116.163435809594,43.5741195864149],[-116.163433404384,43.574377767025],[-116.163432991596,43.5744220103081],[-116.163431191169,43.5746153415591],[-116.163424017723,43.5753853896598],[-116.163469818567,43.5757952245658],[-116.163788034576,43.5760605706018],[-116.163853228856,43.5761149330812],[-116.163873739167,43.5761697155775],[-116.163893211786,43.5762217290658],[-116.163906979943,43.5762585035698],[-116.16389594387,43.5769000159392],[-116.16395375617,43.5772739996625],[-116.163975258001,43.5774130880844],[-116.163896225213,43.577613207342],[-116.163850221285,43.5777035772228],[-116.163765617562,43.5778697693625],[-116.163619036712,43.5781577056278],[-116.163612205658,43.5782965537148],[-116.163598819514,43.5785686430632],[-116.163621598973,43.5786238844484],[-116.163614324529,43.5786619770367],[-116.163724493485,43.5788734033711],[-116.163843674927,43.5791021237883],[-116.163802047408,43.5792109736454],[-116.163478037476,43.580058197397],[-116.163468175432,43.5800839834523],[-116.162639963161,43.5807841710661],[-116.162900367188,43.5809818426481],[-116.163243050883,43.5812419709436],[-116.164021478944,43.5816791582805],[-116.164414405182,43.5819336995475],[-116.164515666683,43.5819567015485],[-116.164584697811,43.5819954705394],[-116.165671305695,43.5822422944182],[-116.16578085669,43.5822440910444],[-116.165859682701,43.58226199601],[-116.168827340174,43.5822940167057],[-116.170761457975,43.5826004812116],[-116.171819065479,43.5829711950683],[-116.172466417813,43.5833926343149],[-116.173018744205,43.5840151831336],[-116.173380276189,43.5849347977761],[-116.173401522447,43.5860527796118],[-116.175464983269,43.5860725567962],[-116.176880180499,43.5860860993725],[-116.177859752618,43.586095463474],[-116.178510492498,43.5861016792983],[-116.178510490966,43.5861014633153],[-116.178495323691,43.5845463442591],[-116.178466303624,43.5815703712603],[-116.178464210609,43.5813557113121],[-116.178461658943,43.5810940043845],[-116.178454727712,43.5803831648224],[-116.178438920627,43.5787618594655],[-116.179162343438,43.5787791539406],[-116.183515373587,43.5788831237627],[-116.188189482674,43.5789251226351],[-116.190232770785,43.5789434228679],[-116.191092475036,43.5789511111513],[-116.19219453604,43.5789609579775],[-116.193628531007,43.5789737544225],[-116.193620738308,43.5748561491618],[-116.193620569702,43.5747672495807],[-116.193627687859,43.5746494646719],[-116.193641855569,43.5744150146557],[-116.193823891661,43.5714026065821],[-116.193933521126,43.5711441511454],[-116.194120069403,43.5707043527846],[-116.194424974678,43.569985505627],[-116.195487238999,43.5683571520761],[-116.196675553748,43.5665354595283],[-116.196867521475,43.5664573275378],[-116.197069549107,43.5663751006843],[-116.197350825186,43.5662606185716],[-116.197779715214,43.566086052617],[-116.209056750795,43.5694425202442],[-116.213389519059,43.5702796746867],[-116.215065691824,43.5706034861071],[-116.215402231893,43.5710378605798],[-116.215506803909,43.5711728304105],[-116.215661597816,43.5711932949848],[-116.219214643887,43.5716629637672],[-116.219968780945,43.5717626356869],[-116.220380533649,43.5718646531729],[-116.220792993846,43.5718715635067],[-116.221125710801,43.5719155335558],[-116.224059074445,43.5719262299697],[-116.230090050908,43.5719479862258],[-116.230203548292,43.571949760353],[-116.235511205819,43.5720325826249],[-116.236958437546,43.5723530445901],[-116.238126271504,43.5726116234169],[-116.240170424221,43.5734621813478],[-116.244170848063,43.5755216993417],[-116.244203322435,43.5754424547798],[-116.244476650888,43.5747754605499],[-116.244639754584,43.5743774394779],[-116.244712368204,43.5742002374231],[-116.244754952699,43.5740963171815],[-116.244771591417,43.5740817910051],[-116.244799963745,43.5740570211588],[-116.245548677524,43.5734033613116],[-116.245584911188,43.5733717274368],[-116.245588772589,43.5733748290413],[-116.246496826897,43.5741041550981],[-116.246703856598,43.5742704322832],[-116.24674779989,43.5743057256663],[-116.247300472224,43.5747496023146],[-116.247323493406,43.5747680916337],[-116.247428652092,43.5748525475452],[-116.247523364538,43.5748822262947],[-116.247526808427,43.5748833056522],[-116.248644488575,43.5752335276808],[-116.249644058631,43.5752440902547],[-116.252058814512,43.5752695708707],[-116.253646270812,43.5752862943251],[-116.254670677231,43.5753051244047],[-116.257189587511,43.5753513864426],[-116.258650609199,43.5753781938516],[-116.261117779562,43.5754234205768],[-116.265022735422,43.5754948943316],[-116.268657355672,43.575561300342],[-116.268715702335,43.5755623657618],[-116.273390679306,43.5756587065174],[-116.274071021633,43.5756727105843],[-116.274074001679,43.57567277162],[-116.274084106858,43.5756729799842],[-116.274104484349,43.5756733995436],[-116.289220954937,43.5756717233847],[-116.289213654925,43.5757944521431],[-116.289155538541,43.5784527559146],[-116.289067514132,43.582478715909],[-116.289056678625,43.5829742567691],[-116.294224101443,43.5829956139786],[-116.294139842083,43.5866673975071],[-116.29414152974,43.5866674146731],[-116.294105983699,43.597327573112],[-116.292241170528,43.5972981980188],[-116.291567232022,43.5973436416712],[-116.291033291793,43.5973796425713],[-116.289962213977,43.5974518517808],[-116.289450068614,43.597845622082],[-116.289428087295,43.5978625224796],[-116.289194872782,43.5980418299647],[-116.288127333674,43.5983307898622],[-116.285248049275,43.6002442386919],[-116.283703364281,43.6012706898958],[-116.283152009013,43.6016418658626],[-116.27854263909,43.6047446379185],[-116.278331204211,43.6048869514272],[-116.278331038003,43.604887063789],[-116.28124191519,43.6049556855755],[-116.288998164889,43.6049310132746],[-116.289172099202,43.604922090834],[-116.294154318406,43.6049143209794],[-116.294153793674,43.605879802598],[-116.294151221739,43.6106176523378],[-116.294151029457,43.6109730132041],[-116.29414891149,43.6148796045344],[-116.294148370944,43.6158766907162],[-116.294147261152,43.6179266963311],[-116.294146430931,43.6194602697582],[-116.294162524488,43.6206289516448],[-116.294173284125,43.6214102684935],[-116.294183217488,43.6221315267263],[-116.294191802539,43.6227549130954],[-116.294211226878,43.6241652491521],[-116.294220938991,43.6248703594529],[-116.29422882375,43.6254427831042],[-116.294245212724,43.6266326020855],[-116.294251117538,43.6266326261702],[-116.294256199346,43.6273776492099],[-116.294256891124,43.6274777981914],[-116.294256966909,43.6274901792856],[-116.294257748942,43.6276063720697],[-116.294259115312,43.6278088821715],[-116.294259788819,43.6279075535214],[-116.294260611459,43.6280281072409],[-116.294272582111,43.6297817220984],[-116.294274774879,43.6301006415324],[-116.294279018781,43.6307245570672],[-116.294283709245,43.6314115304708],[-116.294283793543,43.6314238917172],[-116.294297919558,43.6334929358718],[-116.294300852746,43.6339225303914],[-116.294297889375,43.6346074708816],[-116.294284905201,43.637608799916],[-116.294273837569,43.6401669418175],[-116.294273033818,43.6403527228533],[-116.29426941292,43.6411898011924],[-116.294269343123,43.6412059546143],[-116.294268279527,43.6412973363612],[-116.294265289516,43.6415499341867],[-116.294240205434,43.6436691604308],[-116.294222747908,43.6451448291139],[-116.294220764729,43.6453080090338],[-116.294220761649,43.6453082169353],[-116.294217511239,43.6455755118926],[-116.294208846984,43.646288055083],[-116.294204471815,43.6466479378704],[-116.29420070144,43.6472613667333],[-116.294200584276,43.6472805108733],[-116.294199218394,43.6475026007439],[-116.294324130015,43.6483964023202],[-116.294351088315,43.6483966789237],[-116.294359036394,43.6485019496546],[-116.294356036075,43.648592949034],[-116.29440203525,43.6498249491759],[-116.294422035048,43.6509699494602],[-116.294477036149,43.6519219495306],[-116.294508035523,43.6520849496614],[-116.294546036922,43.6521799492061],[-116.294772036191,43.6525859503373],[-116.294216061477,43.6543857840995],[-116.294203036144,43.6544279498792],[-116.294166036605,43.6545959498293],[-116.294161036198,43.6546229502825],[-116.294113037174,43.65474494986],[-116.294221857982,43.65477372943],[-116.294221865061,43.6547742387632],[-116.29209364008,43.6542156869989],[-116.295081509437,43.6550010714918],[-116.299025834373,43.6560457479902],[-116.302954805319,43.6570861866684],[-116.303698534336,43.6572831151118],[-116.303697914541,43.6572844608261],[-116.302160713056,43.6606393073814],[-116.30182524436,43.6613713937627],[-116.300950425406,43.6632804038708],[-116.299201188468,43.6669181441461],[-116.299226582234,43.6669296106615],[-116.299204039209,43.6669769505042],[-116.299159040353,43.6670749505333],[-116.299146039092,43.6670999503191],[-116.299101038811,43.6671979503302],[-116.29908703944,43.667219950005],[-116.298940039841,43.6674579511915],[-116.298874039974,43.6675639507195],[-116.298890039401,43.6675709510193],[-116.299364040272,43.6677459512719],[-116.299649039272,43.6678489508132],[-116.300691039729,43.6682259500767],[-116.300782040737,43.6682589506878],[-116.302332040036,43.6688229503417],[-116.303789040152,43.6693769509986],[-116.304937041598,43.6697889508365],[-116.305173041238,43.6698739497579],[-116.306179041782,43.6702349503539],[-116.306246041352,43.6702589505956],[-116.306310041341,43.6702819502649],[-116.306567042317,43.670373950008],[-116.30690004244,43.6704939504152],[-116.306950041426,43.6705009504241],[-116.306968041493,43.6705129498015],[-116.306985041722,43.670523949716],[-116.307657041007,43.6707659499096],[-116.307997322997,43.6708880741381],[-116.308294228071,43.6710219959289],[-116.30907951156,43.6714153098712],[-116.310595675849,43.6721746618648],[-116.311124900365,43.6724187536996],[-116.313648453231,43.6735826225886],[-116.314128371832,43.673803950132],[-116.314079722039,43.678129623064],[-116.314073905635,43.678646776687],[-116.314067838319,43.6791862580535],[-116.314066346777,43.6793188982171],[-116.314062147437,43.6796922031395],[-116.314052855425,43.6805183132903],[-116.314049667905,43.6808017525974],[-116.314042230686,43.6814629318368],[-116.314039716879,43.6816864580525],[-116.314030333535,43.6825207235958],[-116.3140301683,43.6825353825864],[-116.32010432839,43.6846054165226],[-116.319493366328,43.6856555644481],[-116.319471814207,43.6857352460122],[-116.319413805786,43.6858388639079],[-116.319137316806,43.6869719964673],[-116.319134271303,43.6881272850095],[-116.319222977918,43.6935574623658],[-116.319066707632,43.7009949321878],[-116.318950548993,43.7065224363162],[-116.318854499429,43.711726132842],[-116.31889273881,43.7122204653027],[-116.318886621875,43.7128233433336],[-116.319048904983,43.7142391943898],[-116.319108705788,43.7150121794473],[-116.319206074396,43.7156103545143],[-116.319810443408,43.7190271741981],[-116.319808548672,43.7190516545763],[-116.319826790683,43.7191558422769],[-116.319836521506,43.7192847152233],[-116.319840248344,43.7194784203494],[-116.319830735572,43.7196718486002],[-116.319806090521,43.7198648384208],[-116.319768195844,43.7200565227826],[-116.319716101082,43.7202463925492],[-116.319650748696,43.7204342702178],[-116.319572131323,43.7206191289811],[-116.319504379545,43.7207425564488],[-116.319374143806,43.7209789323164],[-116.319297713641,43.721095377123],[-116.319214643703,43.7212096249135],[-116.319126826564,43.7213218390368],[-116.319032366751,43.7214316860449],[-116.318934103187,43.7215391526904],[-116.318878848314,43.7215953161218],[-116.318776732504,43.721695428668],[-116.318607955127,43.7218454184575],[-116.318488783922,43.7219418448762],[-116.318365799947,43.7220352042656],[-116.318239004059,43.7221253247225],[-116.318106504034,43.7222122165393],[-116.317971134732,43.7222956928227],[-116.31783100394,43.7223757647629],[-116.317713871504,43.7224373502153],[-116.317711873222,43.722438745134],[-116.312537174205,43.725174190303],[-116.312351260008,43.725256623544],[-116.309014941614,43.7270103588787],[-116.306772639635,43.7281889115073],[-116.306756768929,43.7281972537723],[-116.306676344559,43.7282395228368],[-116.306493978088,43.7283389613102],[-116.306316888361,43.7284432946253],[-116.306145325932,43.7285523766985],[-116.305979532603,43.7286660533903],[-116.305819741434,43.7287841643045],[-116.30566617923,43.7289065427762],[-116.305612269097,43.7289582736379],[-116.305477888205,43.7290872198915],[-116.305222343498,43.7293324306979],[-116.305024003444,43.7295812085579],[-116.304660785096,43.7300367847058],[-116.304450573215,43.730468473161],[-116.304378649135,43.7306259227505],[-116.304315706046,43.7307853823751],[-116.304261850741,43.7309465824527],[-116.304242535236,43.7310479370914],[-116.304155051958,43.7315070049529],[-116.304141386328,43.7315787118936],[-116.304138895199,43.7316033091444],[-116.30413153274,43.7317690866472],[-116.304126016751,43.7355158280351],[-116.304080175472,43.7364129975952],[-116.304048598703,43.7366209280042],[-116.304009711426,43.7368282062864],[-116.303963540868,43.7370346973131],[-116.303910114265,43.7372402668543],[-116.303871387088,43.7373199875162],[-116.303842841033,43.7374439902115],[-116.303768473148,43.7376464124017],[-116.303687056514,43.7378474035992],[-116.303598645738,43.7380468357347],[-116.303503295424,43.738244579838],[-116.303401067649,43.7384405096014],[-116.303311790874,43.73859933732],[-116.303292026976,43.7386344987042],[-116.303181599486,43.7388087040843],[-116.303064631712,43.7389806506826],[-116.302991416027,43.7390812371526],[-116.30294121179,43.7391502093631],[-116.302919823252,43.7391777381481],[-116.302811430367,43.7393172536766],[-116.30267538554,43.7394816571376],[-116.302144562832,43.7401007328678],[-116.301883545177,43.7404051414783],[-116.301311006825,43.7410728424875],[-116.30003948664,43.7425429532895],[-116.299779073954,43.7428440270301],[-116.299091772967,43.7436439172355],[-116.299071058607,43.7436680250163],[-116.299052977176,43.7436857630567],[-116.298198044354,43.7445244370577],[-116.298128032112,43.7445988467653],[-116.298113311177,43.7446144924059],[-116.298073718296,43.7446463957121],[-116.297891475918,43.7447932448867],[-116.297383516374,43.7452025475952],[-116.296137989368,43.7462061337533],[-116.296137930218,43.7462061817321],[-116.295900740541,43.7463972930771],[-116.295832161778,43.7464525485585],[-116.294279180125,43.747696679244],[-116.293231447911,43.7485359968327],[-116.291407893177,43.7500008955921],[-116.29007205641,43.7510825324048],[-116.28971859379,43.7513604479833],[-116.289553281035,43.7514909168946],[-116.289439986601,43.7515803320012],[-116.289426982799,43.7515893881392],[-116.289076372252,43.7518335707063],[-116.288617837486,43.7520995881874],[-116.288356118806,43.7522447419597],[-116.288265396108,43.7522950584634],[-116.288110005405,43.7523610483155],[-116.287892013108,43.7524536239328],[-116.287540850174,43.7526098869583],[-116.287523216672,43.7526177335528],[-116.284781265254,43.7537901939824],[-116.28348071117,43.7543519419633],[-116.282400082752,43.7548168483534],[-116.281870231428,43.7550447943836],[-116.28169502909,43.7551419367228],[-116.281528321469,43.7552432140441],[-116.281525972675,43.7552446414505],[-116.281363399306,43.7553527045432],[-116.281207629881,43.7554659112542],[-116.279743891409,43.7567185018578],[-116.27962632005,43.7568183220301],[-116.279543902003,43.7568824618486],[-116.279502905626,43.7569143660638],[-116.279373879969,43.7570064546811],[-116.279319183305,43.7570422532673],[-116.279239483665,43.7570944148632],[-116.279099967313,43.7571780825449],[-116.278960926936,43.7572543747618],[-116.278955592767,43.7572573017085],[-116.278806628153,43.7573319235075],[-116.278523854669,43.7574557131367],[-116.278236180561,43.7575734214182],[-116.277705381503,43.7577664641142],[-116.27688669874,43.7580641981603],[-116.275606635971,43.7585297072853],[-116.275544961256,43.7585619310457],[-116.275257496025,43.7586674602597],[-116.275197699641,43.7586947256101],[-116.275089220853,43.7587441880737],[-116.27492554374,43.7588259728005],[-116.274805245654,43.758891651936],[-116.274766750211,43.7589126691608],[-116.274613123256,43.7590041255881],[-116.274464933354,43.7591001788755],[-116.274322442244,43.759200659557],[-116.274185901683,43.7593053919136],[-116.274117165518,43.7593565385178],[-116.274013824812,43.7594334340156],[-116.273836424014,43.7595576008804],[-116.273653867149,43.759677777424],[-116.273520121541,43.7597605541942],[-116.27346632334,43.7597938503567],[-116.27327396797,43.75990571176],[-116.273076982665,43.7600132572873],[-116.273026278136,43.7600365706112],[-116.272905436739,43.7600921341619],[-116.272728948914,43.7601650587767],[-116.272547911409,43.7602318682292],[-116.27236272651,43.7602924139715],[-116.272173807808,43.7603465618051],[-116.271981573975,43.7603941901096],[-116.271786456256,43.7604351943081],[-116.271588884757,43.7604694815307],[-116.271389303394,43.7604969759459],[-116.27118815374,43.7605176170344],[-116.270985884941,43.7605313586445],[-116.270434096057,43.7605364958006],[-116.269636773613,43.7605439131708],[-116.269445630727,43.7605465854868],[-116.269254823554,43.7605551999637],[-116.269064700801,43.7605697397208],[-116.268875613585,43.7605901797694],[-116.268687911659,43.7606164807306],[-116.268501938503,43.7606485951567],[-116.268336926119,43.7606853649277],[-116.268299022762,43.7606938107288],[-116.268136541848,43.7607300008778],[-116.267957806343,43.7607791720856],[-116.267947060971,43.7607826260975],[-116.267894344479,43.7607995702905],[-116.267767423089,43.7608403647841],[-116.267581229669,43.7609079915545],[-116.267399639457,43.7609819020581],[-116.267223057023,43.7610619315994],[-116.267051871933,43.7611479029537],[-116.26690993355,43.7612266116761],[-116.266886466187,43.761239624533],[-116.266727206794,43.76133689312],[-116.266616793085,43.7614110511152],[-116.266574448237,43.7614394920556],[-116.26653438295,43.7614687848064],[-116.266439814163,43.7615379268314],[-116.266311225162,43.7616405205905],[-116.266188927901,43.7617470787552],[-116.266073151587,43.7618573969276],[-116.265964119192,43.7619712671379],[-116.265871232464,43.7620861901753],[-116.265784493343,43.7622036087819],[-116.265704027034,43.762323351421],[-116.265629953733,43.7624452411781],[-116.265562382449,43.7625690993886],[-116.265501410985,43.762694743838],[-116.265443730582,43.7628437642566],[-116.265393799559,43.7629942480727],[-116.265351686917,43.763145981703],[-116.265325701126,43.7632619434871],[-116.265317452979,43.7632987534017],[-116.265291145626,43.7634523478779],[-116.265281353906,43.7635852083145],[-116.265296484725,43.763671909939],[-116.265279687087,43.7637182516992],[-116.265286146723,43.7638512188468],[-116.26530072317,43.7639838479214],[-116.265323384456,43.7641158798858],[-116.265458284103,43.7647286259797],[-116.265491724829,43.7648805165084],[-116.265491736445,43.7648805677517],[-116.265567371608,43.7652241147398],[-116.266159881056,43.7677607261432],[-116.266172945241,43.7678166514189],[-116.266189718712,43.7678884570984],[-116.26621288921,43.7680169119971],[-116.266227224311,43.768129199164],[-116.266228055224,43.7681357126606],[-116.266229357417,43.7681459092174],[-116.266239101845,43.7682752652748],[-116.266242107195,43.7684047948557],[-116.266239856155,43.7686006248738],[-116.266228342063,43.7687962843419],[-116.266207577751,43.7689915428188],[-116.266177589707,43.7691861697995],[-116.266138411906,43.7693799383425],[-116.2658329874,43.7709074518947],[-116.265601227164,43.7720840919907],[-116.265387753812,43.7730019929856],[-116.265373276631,43.7730588101269],[-116.265311426829,43.7733015328202],[-116.264955627193,43.775149491495],[-116.264869369092,43.7755974846469],[-116.264855767054,43.775668128669],[-116.264765254416,43.7761382105737],[-116.264518061411,43.7773369650284],[-116.264517814573,43.7773381612368],[-116.263523432206,43.782213127507],[-116.263340899762,43.783227129783],[-116.263212204919,43.7838675583064],[-116.263202573436,43.783915484581],[-116.263203575856,43.7839899719853],[-116.263191988263,43.7840543405086],[-116.263188004133,43.7841933773737],[-116.263187601833,43.7847267176339],[-116.263187262049,43.7851780639305],[-116.263186786211,43.7858111175045],[-116.263204677552,43.7894861190885],[-116.263209803292,43.7916359368621],[-116.263211073252,43.7921678929433],[-116.263219403002,43.7924276067146],[-116.263230728994,43.7927807691269],[-116.263246686423,43.7929308347443],[-116.263256087104,43.7930192321781],[-116.263289113877,43.7932572018136],[-116.263346249407,43.7935330028734],[-116.26341277189,43.793807698018],[-116.263413188527,43.7938092017125],[-116.263488642743,43.7940811191192],[-116.26357381468,43.794353098086],[-116.263668236718,43.7946234704418],[-116.263771850417,43.794892071741],[-116.263884593591,43.7951587357534],[-116.264006396639,43.7954233016795],[-116.261513095078,43.7935695632124],[-116.235517582643,43.7742320730557],[-116.203813356156,43.7512130483994]]]},"properties":{"commissioner":"Ryan Davidson","district":1,"objectid":1,"Shape__Area":3469317071.096924,"Shape__Length":292627.9170332318}},{"type":"Feature","id":2,"geometry":{"type":"Polygon","coordinates":[[[-116.413723410478,43.6339269156916],[-116.413729377839,43.6339269251413],[-116.421511608806,43.6339384656888],[-116.423703359905,43.6339416201803],[-116.424823782527,43.6339432162992],[-116.42529856872,43.6339438890037],[-116.425311415385,43.6339439076064],[-116.425556021888,43.6339387941516],[-116.427126230217,43.6339059569122],[-116.431542225269,43.6339520126126],[-116.433120026482,43.633972490922],[-116.433687911691,43.6339798565387],[-116.433691419936,43.6339799003524],[-116.433700406937,43.6339799158977],[-116.449576214558,43.6340544023547],[-116.45356742451,43.634072776867],[-116.466244470191,43.6341013951292],[-116.471984135678,43.6341138653957],[-116.472646865624,43.6341152871042],[-116.473505127845,43.6341171216746],[-116.481257151353,43.6341334034231],[-116.499552519684,43.6341697434362],[-116.513148463011,43.634194852917],[-116.512969428161,43.6486860306326],[-116.512790566117,43.6631601007135],[-116.512891493865,43.6631605349838],[-116.512767822758,43.6864637784827],[-116.512717582315,43.6959321233181],[-116.512707676043,43.6983572004249],[-116.512699508679,43.7003568793914],[-116.512702792087,43.7003568817802],[-116.512698604268,43.7018608561796],[-116.512697468073,43.7022686752948],[-116.512696956761,43.7024522108962],[-116.512690950028,43.7024522743757],[-116.51268658292,43.7035213608557],[-116.512684888669,43.7039363317378],[-116.512677765949,43.7041643194465],[-116.512627858432,43.7068127449563],[-116.512610951679,43.7092054909883],[-116.51258760973,43.7125092320954],[-116.512577081189,43.7132483946842],[-116.512566872822,43.7136988483382],[-116.512605547743,43.7139237817131],[-116.512641875372,43.7140032272711],[-116.512662622029,43.7140485983235],[-116.512671715629,43.7141196618497],[-116.512718326803,43.7146563473975],[-116.512719652074,43.7149936405468],[-116.512729621894,43.7175305130298],[-116.51308795546,43.7213863400178],[-116.512556072041,43.7236057133907],[-116.512571195673,43.7314008227014],[-116.512583235183,43.7375999077227],[-116.512588023141,43.7400636390795],[-116.512594679388,43.7434872800582],[-116.512624631069,43.7588697622107],[-116.512909061626,43.8071234548012],[-116.483856582203,43.807232087004],[-116.43442689751,43.8074064462098],[-116.400302634322,43.807395250528],[-116.279914997626,43.8073684625851],[-116.264006396639,43.7954233016795],[-116.263884593591,43.7951587357534],[-116.263771850417,43.794892071741],[-116.263668236718,43.7946234704418],[-116.26357381468,43.794353098086],[-116.263488642743,43.7940811191192],[-116.26341277189,43.793807698018],[-116.263346249407,43.7935330028734],[-116.263289113877,43.7932572018136],[-116.263256087104,43.7930192321781],[-116.263230728994,43.7927807691269],[-116.263211073252,43.7921678929433],[-116.263209803292,43.7916359368621],[-116.263204677552,43.7894861190885],[-116.263186786211,43.7858111175045],[-116.263187601833,43.7847267176339],[-116.263188004133,43.7841933773737],[-116.263191988263,43.7840543405086],[-116.263203575856,43.7839899719853],[-116.263202573436,43.783915484581],[-116.263340899762,43.783227129783],[-116.263523432206,43.782213127507],[-116.264517830733,43.7773381629639],[-116.264765254416,43.7761382105737],[-116.264855767054,43.775668128669],[-116.264869369092,43.7755974846469],[-116.265311426829,43.7733015328202],[-116.265387753812,43.7730019929856],[-116.265601227164,43.7720840919907],[-116.2658329874,43.7709074518947],[-116.266138411906,43.7693799383425],[-116.266177589707,43.7691861697995],[-116.266207577751,43.7689915428188],[-116.266228342063,43.7687962843419],[-116.266239856155,43.7686006248738],[-116.266242107195,43.7684047948557],[-116.266239101845,43.7682752652748],[-116.266229357417,43.7681459092174],[-116.26621288921,43.7680169119971],[-116.266189718712,43.7678884570984],[-116.266159881056,43.7677607261432],[-116.265567371608,43.7652241147398],[-116.265323384456,43.7641158798858],[-116.26530072317,43.7639838479214],[-116.265286146723,43.7638512188468],[-116.265279687087,43.7637182516992],[-116.265296484725,43.763671909939],[-116.265281353906,43.7635852083145],[-116.265291145626,43.7634523478779],[-116.265317452979,43.7632987534017],[-116.265351686917,43.763145981703],[-116.265393799559,43.7629942480727],[-116.265443730582,43.7628437642566],[-116.265501410985,43.762694743838],[-116.265562382449,43.7625690993886],[-116.265629953733,43.7624452411781],[-116.265704027034,43.762323351421],[-116.265784493343,43.7622036087819],[-116.265871232464,43.7620861901753],[-116.265964119192,43.7619712671379],[-116.266073151587,43.7618573969276],[-116.266188927901,43.7617470787552],[-116.266311225162,43.7616405205905],[-116.266439814163,43.7615379268314],[-116.266574448237,43.7614394920556],[-116.266727206794,43.76133689312],[-116.266886466187,43.761239624533],[-116.267051871933,43.7611479029537],[-116.267223057023,43.7610619315994],[-116.267399639457,43.7609819020581],[-116.267581229669,43.7609079915545],[-116.267767423089,43.7608403647841],[-116.267957806343,43.7607791720856],[-116.268136549422,43.7607300152423],[-116.268299022762,43.7606938107288],[-116.268318038728,43.7606864629982],[-116.268336926119,43.7606853649277],[-116.268501938503,43.7606485951567],[-116.268687911659,43.7606164807306],[-116.268875613585,43.7605901797694],[-116.269064700801,43.7605697397208],[-116.269254823554,43.7605551999637],[-116.269445630727,43.7605465854868],[-116.269636773613,43.7605439131708],[-116.270434096057,43.7605364958006],[-116.270985884941,43.7605313586445],[-116.27118815374,43.7605176170344],[-116.271389303394,43.7604969759459],[-116.271588884757,43.7604694815307],[-116.271786456256,43.7604351943081],[-116.271981573975,43.7603941901096],[-116.272173807808,43.7603465618051],[-116.27236272651,43.7602924139715],[-116.272547911409,43.7602318682292],[-116.272728948914,43.7601650587767],[-116.272905436739,43.7600921341619],[-116.273076982665,43.7600132572873],[-116.27327396797,43.75990571176],[-116.27346632334,43.7597938503567],[-116.273653867149,43.759677777424],[-116.273836424014,43.7595576008804],[-116.274013824812,43.7594334340156],[-116.274185901683,43.7593053919136],[-116.274322442244,43.759200659557],[-116.274464933354,43.7591001788755],[-116.274613123256,43.7590041255881],[-116.274766750211,43.7589126691608],[-116.27492554374,43.7588259728005],[-116.275089220853,43.7587441880737],[-116.275257496025,43.7586674602597],[-116.275544961256,43.7585619310457],[-116.275606635971,43.7585297072853],[-116.277705381503,43.7577664641142],[-116.278236180561,43.7575734214182],[-116.278523854669,43.7574557131367],[-116.278806628153,43.7573319235075],[-116.278955592767,43.7572573017085],[-116.279099967313,43.7571780825449],[-116.279239483665,43.7570944148632],[-116.279373879969,43.7570064546811],[-116.279502905626,43.7569143660638],[-116.27962632005,43.7568183220301],[-116.279743891409,43.7567185018578],[-116.281207629881,43.7554659112542],[-116.281363399306,43.7553527045432],[-116.281525972675,43.7552446414505],[-116.28169502909,43.7551419367228],[-116.281870231428,43.7550447943836],[-116.282400082752,43.7548168483534],[-116.28348071117,43.7543519419633],[-116.284781265254,43.7537901939824],[-116.287523216672,43.7526177335528],[-116.287892013108,43.7524536239328],[-116.288265396108,43.7522950584634],[-116.288617837486,43.7520995881874],[-116.289076372252,43.7518335707063],[-116.289439986601,43.7515803320012],[-116.28971859379,43.7513604479833],[-116.29007205641,43.7510825324048],[-116.291407893177,43.7500008955921],[-116.29323145041,43.7485359986206],[-116.294279180125,43.747696679244],[-116.295832161778,43.7464525485585],[-116.298073718296,43.7446463957121],[-116.298113311177,43.7446144924059],[-116.298198044354,43.7445244370577],[-116.299071058607,43.7436680250163],[-116.299779073954,43.7428440270301],[-116.301311006825,43.7410728424875],[-116.30267538554,43.7394816571376],[-116.302811430367,43.7393172536766],[-116.30294121179,43.7391502093631],[-116.303064631712,43.7389806506826],[-116.303181599486,43.7388087040843],[-116.303292026976,43.7386344987042],[-116.303401067649,43.7384405096014],[-116.303503295424,43.738244579838],[-116.303598645738,43.7380468357347],[-116.303687056514,43.7378474035992],[-116.303768473148,43.7376464124017],[-116.303842841033,43.7374439902115],[-116.303871387088,43.7373199875162],[-116.303910114265,43.7372402668543],[-116.303963540868,43.7370346973131],[-116.304009711426,43.7368282062864],[-116.304048598703,43.7366209280042],[-116.304080175472,43.7364129975952],[-116.304126016751,43.7355158280351],[-116.30413153274,43.7317690866472],[-116.304138895199,43.7316033091444],[-116.304141386328,43.7315787118936],[-116.304242535236,43.7310479370914],[-116.304261850741,43.7309465824527],[-116.304315706046,43.7307853823751],[-116.304378649135,43.7306259227505],[-116.304450573215,43.730468473161],[-116.304660785096,43.7300367847058],[-116.305222343498,43.7293324306979],[-116.30566617923,43.7289065427762],[-116.305819741434,43.7287841643045],[-116.305979532603,43.7286660533903],[-116.306145325932,43.7285523766985],[-116.306316888361,43.7284432946253],[-116.306493978088,43.7283389613102],[-116.306676344559,43.7282395228368],[-116.306756768929,43.7281972537723],[-116.309014941614,43.7270103588787],[-116.312351260008,43.725256623544],[-116.312537174205,43.725174190303],[-116.317711873222,43.722438745134],[-116.31783100394,43.7223757647629],[-116.317971134732,43.7222956928227],[-116.318106504034,43.7222122165393],[-116.318239004059,43.7221253247225],[-116.318365799947,43.7220352042656],[-116.318488783922,43.7219418448762],[-116.318607955127,43.7218454184575],[-116.318776732504,43.721695428668],[-116.318878848314,43.7215953161218],[-116.318934103187,43.7215391526904],[-116.319032366751,43.7214316860449],[-116.319126826564,43.7213218390368],[-116.319214643703,43.7212096249135],[-116.319297713641,43.721095377123],[-116.319374143806,43.7209789323164],[-116.319504379545,43.7207425564488],[-116.319572131323,43.7206191289811],[-116.319650748696,43.7204342702178],[-116.319716101082,43.7202463925492],[-116.319768195844,43.7200565227826],[-116.319806090521,43.7198648384208],[-116.319830735572,43.7196718486002],[-116.319840248344,43.7194784203494],[-116.319836521506,43.7192847152233],[-116.319826790683,43.7191558422769],[-116.319808548672,43.7190516545763],[-116.319810443408,43.7190271741981],[-116.319206074396,43.7156103545143],[-116.319108705788,43.7150121794473],[-116.319048904983,43.7142391943898],[-116.318886621875,43.7128233433336],[-116.31889273881,43.7122204653027],[-116.318854499429,43.711726132842],[-116.318950548993,43.7065224363162],[-116.319066707632,43.7009949321878],[-116.319222977918,43.6935574623658],[-116.319134271303,43.6881272850095],[-116.319137316806,43.6869719964673],[-116.319413805786,43.6858388639079],[-116.319471814207,43.6857352460122],[-116.319493366328,43.6856555644481],[-116.32010432839,43.6846054165226],[-116.319739365318,43.6844747592122],[-116.3140301683,43.6825353825864],[-116.314039716879,43.6816864580525],[-116.314042230686,43.6814629318368],[-116.314049667905,43.6808017525974],[-116.314062147437,43.6796922031395],[-116.314128371832,43.673803950132],[-116.313648453231,43.6735826225886],[-116.311124900365,43.6724187536996],[-116.310595675849,43.6721746618648],[-116.30907951156,43.6714153098712],[-116.308294228071,43.6710219959289],[-116.307997322997,43.6708880741381],[-116.307657041007,43.6707659499096],[-116.306985041722,43.670523949716],[-116.306968041493,43.6705129498015],[-116.306950041426,43.6705009504241],[-116.30690004244,43.6704939504152],[-116.306567042317,43.670373950008],[-116.306310041341,43.6702819502649],[-116.306246041352,43.6702589505956],[-116.306179041782,43.6702349503539],[-116.305173041238,43.6698739497579],[-116.304937041598,43.6697889508365],[-116.303789040152,43.6693769509986],[-116.302332040036,43.6688229503417],[-116.300782040737,43.6682589506878],[-116.300691039729,43.6682259500767],[-116.299649039272,43.6678489508132],[-116.299364040272,43.6677459512719],[-116.298890039401,43.6675709510193],[-116.298874039974,43.6675639507195],[-116.298940039841,43.6674579511915],[-116.29908703944,43.667219950005],[-116.299101038811,43.6671979503302],[-116.299146039092,43.6670999503191],[-116.299159040353,43.6670749505333],[-116.299204039209,43.6669769505042],[-116.299226582234,43.6669296106615],[-116.299201188468,43.6669181441461],[-116.299928310117,43.6654060667678],[-116.300950425406,43.6632804038708],[-116.30182524436,43.6613713937627],[-116.302160713056,43.6606393073814],[-116.303309528461,43.6581321240196],[-116.303690357457,43.6573009537539],[-116.303697914541,43.6572844608261],[-116.303698534336,43.6572831151118],[-116.302954805319,43.6570861866684],[-116.300061489781,43.6563200182482],[-116.299025834373,43.6560457479902],[-116.295081508214,43.6550010732975],[-116.29508103857,43.6550009495451],[-116.295075103391,43.6549993831497],[-116.294221865061,43.6547742387632],[-116.294221857982,43.65477372943],[-116.294113037174,43.65474494986],[-116.294161036198,43.6546229502825],[-116.294166036605,43.6545959498293],[-116.294203036144,43.6544279498792],[-116.294216061477,43.6543857840995],[-116.294772036191,43.6525859503373],[-116.294546036922,43.6521799492061],[-116.294508035523,43.6520849496614],[-116.294477036149,43.6519219495306],[-116.294422035048,43.6509699494602],[-116.29440203525,43.6498249491759],[-116.294356036075,43.648592949034],[-116.294359036394,43.6485019496546],[-116.294351088315,43.6483966789237],[-116.294324130015,43.6483964023202],[-116.294199218394,43.6475026007439],[-116.29420070144,43.6472613667333],[-116.294204471815,43.6466479378704],[-116.294208846984,43.646288055083],[-116.294217511239,43.6455755118926],[-116.294222747908,43.6451448291139],[-116.294240205434,43.6436691604308],[-116.294268279527,43.6412973363612],[-116.294269343123,43.6412059546143],[-116.294273837569,43.6401669418175],[-116.294284905201,43.637608799916],[-116.294297889375,43.6346074708816],[-116.294300852746,43.6339225303914],[-116.294297919558,43.6334929358718],[-116.294283793543,43.6314238917172],[-116.294283709245,43.6314115304708],[-116.294279018781,43.6307245570672],[-116.294274774879,43.6301006415324],[-116.294272582111,43.6297817220984],[-116.294260611459,43.6280281072409],[-116.294259788819,43.6279075535214],[-116.294259115312,43.6278088821715],[-116.294257748942,43.6276063720697],[-116.294256855197,43.6274777983624],[-116.294245212724,43.6266326020855],[-116.29422882375,43.6254427831042],[-116.294220938991,43.6248703594529],[-116.294211226878,43.6241652491521],[-116.294191802539,43.6227549130954],[-116.294183217488,43.6221315267263],[-116.294173284125,43.6214102684935],[-116.294162524488,43.6206289516448],[-116.294146430931,43.6194602697582],[-116.294147261152,43.6179266963311],[-116.294148370944,43.6158766907162],[-116.29414891149,43.6148796045344],[-116.294151029457,43.6109730132041],[-116.294151221739,43.6106176523378],[-116.294153793674,43.605879802598],[-116.294154318406,43.6049143209794],[-116.294154031089,43.604914321447],[-116.289172099202,43.604922090834],[-116.288998164889,43.6049310132746],[-116.288648634746,43.6049321360306],[-116.281543657646,43.6049547356733],[-116.28124191519,43.6049556855755],[-116.278331038003,43.604887063789],[-116.278331204211,43.6048869514272],[-116.27854263909,43.6047446379185],[-116.283152009013,43.6016418658626],[-116.283703364281,43.6012706898958],[-116.285248049275,43.6002442386919],[-116.288127333674,43.5983307898622],[-116.289194872782,43.5980418299647],[-116.289428087295,43.5978625224796],[-116.289450068614,43.597845622082],[-116.289962213977,43.5974518517808],[-116.291033291793,43.5973796425713],[-116.291567232022,43.5973436416712],[-116.292241170528,43.5972981980188],[-116.294105983699,43.597327573112],[-116.298527570603,43.5974313943703],[-116.298786497501,43.5974374692192],[-116.299618820748,43.5974342788942],[-116.314060299138,43.5973779620894],[-116.31405843082,43.5971779564246],[-116.314066093307,43.5971779474164],[-116.315569115381,43.5971761408845],[-116.33437065593,43.5971518682443],[-116.349568281679,43.5969873188375],[-116.349561086251,43.5970028114189],[-116.349739567071,43.5969854529414],[-116.351186729358,43.5967711800806],[-116.354773864951,43.5962399678051],[-116.356084591099,43.5959025844489],[-116.356813357494,43.5957149900541],[-116.362686344274,43.5942029925369],[-116.364101751991,43.593807150491],[-116.364527145922,43.5936881770206],[-116.365985403515,43.5936416652962],[-116.367083437666,43.5936066302204],[-116.367504655798,43.5935931874144],[-116.374559236517,43.5933678189391],[-116.381754258198,43.5934123599991],[-116.38976440224,43.5934614136789],[-116.393720974367,43.5934854366138],[-116.393719522401,43.593616628751],[-116.393709341587,43.594536285851],[-116.393698694474,43.5954980567914],[-116.393684838341,43.5967496096971],[-116.393676177213,43.5975319191129],[-116.393663801961,43.5986496785389],[-116.393656289971,43.5993281585594],[-116.393643298537,43.60050152447],[-116.393640262079,43.6007757848967],[-116.393635729165,43.6011852126004],[-116.393597065146,43.6046773156249],[-116.393581543362,43.6060791411901],[-116.393570721226,43.6070565009846],[-116.393560195493,43.6080070800889],[-116.393579835303,43.6086207988836],[-116.393580588389,43.6086208045434],[-116.39357782634,43.6089186173754],[-116.393555223534,43.6101262478496],[-116.393556339958,43.6110489228282],[-116.393557416335,43.6119384366201],[-116.393558531604,43.6128599206849],[-116.393559613981,43.6137541426874],[-116.393560664658,43.6146217964927],[-116.393571013773,43.6146218129266],[-116.394753999245,43.614623161001],[-116.398333162618,43.6146271782431],[-116.398305996053,43.6192496437036],[-116.403713845262,43.6192254751775],[-116.406624885376,43.6192229044088],[-116.40678045927,43.6192227648532],[-116.413614796599,43.6192164277437],[-116.413623513527,43.6224090324502],[-116.413625337307,43.6230768795986],[-116.413625736603,43.6232230923333],[-116.413625764723,43.6232333065519],[-116.413625780244,43.6232388843242],[-116.413627755605,43.623962276028],[-116.413628905251,43.624383453694],[-116.4136337125,43.6261432758556],[-116.413651658819,43.6275996875987],[-116.41366405469,43.6286055901],[-116.413671213934,43.6291865393023],[-116.41369388707,43.6310263063184],[-116.413702208182,43.6317014960872],[-116.413709249619,43.6324406288349],[-116.41372312304,43.6338967467424],[-116.413723410478,43.6339269156916]]]},"properties":{"commissioner":"Rod Beck","district":2,"objectid":2,"Shape__Area":4040673750.7698975,"Shape__Length":295086.0588804408}},{"type":"Feature","id":3,"geometry":{"type":"Polygon","coordinates":[[[-116.431542225269,43.6339520126126],[-116.427126230217,43.6339059569122],[-116.425556021888,43.6339387941516],[-116.425311415385,43.6339439076064],[-116.42529856872,43.6339438890037],[-116.424823782527,43.6339432162992],[-116.423703359905,43.6339416201803],[-116.421511608806,43.6339384656888],[-116.413729377839,43.6339269251413],[-116.413723410478,43.6339269156916],[-116.41372312304,43.6338967467424],[-116.413709249619,43.6324406288349],[-116.413702208182,43.6317014960872],[-116.41369388707,43.6310263063184],[-116.413671213934,43.6291865393023],[-116.41366405469,43.6286055901],[-116.413651658819,43.6275996875987],[-116.4136337125,43.6261432758556],[-116.413628905251,43.624383453694],[-116.413627755605,43.623962276028],[-116.413625780244,43.6232388843242],[-116.413625626355,43.6232230929734],[-116.413625337307,43.6230768795986],[-116.413623513527,43.6224090324502],[-116.413614796599,43.6192164277437],[-116.40678045927,43.6192227648532],[-116.406624885376,43.6192229044088],[-116.403713845262,43.6192254751775],[-116.398305996053,43.6192496437036],[-116.398333162618,43.6146271782431],[-116.394753999245,43.614623161001],[-116.393571013773,43.6146218129266],[-116.393560664658,43.6146217964927],[-116.393559613981,43.6137541426874],[-116.393558531604,43.6128599206849],[-116.393557416335,43.6119384366201],[-116.393556339958,43.6110489228282],[-116.393555223534,43.6101262478496],[-116.39357782634,43.6089186173754],[-116.393578782961,43.6087767189955],[-116.393579835303,43.6086207988836],[-116.393560195493,43.6080070800889],[-116.393570721226,43.6070565009846],[-116.393581543362,43.6060791411901],[-116.393597065146,43.6046773156249],[-116.393635729165,43.6011852126004],[-116.393640262079,43.6007757848967],[-116.393643298537,43.60050152447],[-116.393656289971,43.5993281585594],[-116.393663801961,43.5986496785389],[-116.393676177213,43.5975319191129],[-116.393684838341,43.5967496096971],[-116.393698694474,43.5954980567914],[-116.393709341587,43.594536285851],[-116.393719522401,43.593616628751],[-116.393720974367,43.5934854366138],[-116.38976440224,43.5934614136789],[-116.381754258198,43.5934123599991],[-116.379433450922,43.5933980423913],[-116.374559236517,43.5933678189391],[-116.367504655798,43.5935931874144],[-116.367083437666,43.5936066302204],[-116.365985403515,43.5936416652962],[-116.364527145922,43.5936881770206],[-116.364101751991,43.593807150491],[-116.362686344274,43.5942029925369],[-116.356813357494,43.5957149900541],[-116.356084591099,43.5959025844489],[-116.354773864951,43.5962399678051],[-116.351186729358,43.5967711800806],[-116.349739567071,43.5969854529414],[-116.349561086251,43.5970028114189],[-116.349568281679,43.5969873188375],[-116.33437065593,43.5971518682443],[-116.324385036673,43.5971651450769],[-116.314066093307,43.5971779474164],[-116.314060299138,43.5973779620894],[-116.298786497501,43.5974374692192],[-116.294105983699,43.597327573112],[-116.29414152974,43.5866674146731],[-116.294139965109,43.5866674482188],[-116.294139842083,43.5866673975071],[-116.294224101443,43.5829956139786],[-116.289056678625,43.5829742567691],[-116.289067514132,43.582478715909],[-116.289155538541,43.5784527559146],[-116.289213654925,43.5757944521431],[-116.289220954937,43.5756717233847],[-116.274104484349,43.5756733995436],[-116.274084106858,43.5756729799842],[-116.268715702335,43.5755623657618],[-116.265022735422,43.5754948943316],[-116.261117779562,43.5754234205768],[-116.258650609199,43.5753781938516],[-116.257189587511,43.5753513864426],[-116.254670677231,43.5753051244047],[-116.253646270812,43.5752862943251],[-116.252058814512,43.5752695708707],[-116.249644058631,43.5752440902547],[-116.248644488575,43.5752335276808],[-116.247526808427,43.5748833056522],[-116.247428652092,43.5748525475452],[-116.247300472224,43.5747496023146],[-116.24674779989,43.5743057256663],[-116.246496826897,43.5741041550981],[-116.245588772589,43.5733748290413],[-116.245584911188,43.5733717274368],[-116.245548677524,43.5734033613116],[-116.244799963745,43.5740570211588],[-116.244754952699,43.5740963171815],[-116.244639754584,43.5743774394779],[-116.244476650888,43.5747754605499],[-116.244203322435,43.5754424547798],[-116.244170848063,43.5755216993417],[-116.240170424221,43.5734621813478],[-116.238126271504,43.5726116234169],[-116.236958437546,43.5723530445901],[-116.235511205819,43.5720325826249],[-116.230203548292,43.571949760353],[-116.230090050908,43.5719479862258],[-116.224059074445,43.5719262299697],[-116.221125710801,43.5719155335558],[-116.220792993846,43.5718715635067],[-116.220380533649,43.5718646531729],[-116.219968780945,43.5717626356869],[-116.219214643887,43.5716629637672],[-116.215661597816,43.5711932949848],[-116.215506803909,43.5711728304105],[-116.215402231893,43.5710378605798],[-116.215065691824,43.5706034861071],[-116.213389519059,43.5702796746867],[-116.209056750795,43.5694425202442],[-116.197779715214,43.566086052617],[-116.197350825186,43.5662606185716],[-116.197069549107,43.5663751006843],[-116.196867521475,43.5664573275378],[-116.196675553748,43.5665354595283],[-116.195487238999,43.5683571520761],[-116.194424974678,43.569985505627],[-116.194120069403,43.5707043527846],[-116.193933521126,43.5711441511454],[-116.193823891661,43.5714026065821],[-116.193641855569,43.5744150146557],[-116.193627687859,43.5746494646719],[-116.193620569702,43.5747672495807],[-116.193620738308,43.5748561491618],[-116.193628531007,43.5789737544225],[-116.19219453604,43.5789609579775],[-116.191092475036,43.5789511111513],[-116.190232770785,43.5789434228679],[-116.188189482674,43.5789251226351],[-116.183515373587,43.5788831237627],[-116.179162343438,43.5787791539406],[-116.178438920627,43.5787618594655],[-116.178454727712,43.5803831648224],[-116.178461658943,43.5810940043845],[-116.178464210609,43.5813557113121],[-116.178466303624,43.5815703712603],[-116.178495323691,43.5845463442591],[-116.178510490966,43.5861014633153],[-116.178510492498,43.5861016792983],[-116.177859752618,43.586095463474],[-116.176880180499,43.5860860993725],[-116.175464983269,43.5860725567962],[-116.173401522447,43.5860527796118],[-116.173380276189,43.5849347977761],[-116.173018744205,43.5840151831336],[-116.172466417813,43.5833926343149],[-116.171819065479,43.5829711950683],[-116.170761457975,43.5826004812116],[-116.168827340174,43.5822940167057],[-116.165859682701,43.58226199601],[-116.16578085669,43.5822440910444],[-116.165671305695,43.5822422944182],[-116.164584697811,43.5819954705394],[-116.164515666683,43.5819567015485],[-116.164414405182,43.5819336995475],[-116.164021478944,43.5816791582805],[-116.163243050883,43.5812419709436],[-116.162900367188,43.5809818426481],[-116.162639963161,43.5807841710661],[-116.163468175432,43.5800839834523],[-116.163478037476,43.580058197397],[-116.163802047408,43.5792109736454],[-116.163843674927,43.5791021237883],[-116.163724493485,43.5788734033711],[-116.163614324529,43.5786619770367],[-116.163621598973,43.5786238844484],[-116.163598819514,43.5785686430632],[-116.163612205658,43.5782965537148],[-116.163619036712,43.5781577056278],[-116.163765617562,43.5778697693625],[-116.163850221285,43.5777035772228],[-116.163896225213,43.577613207342],[-116.163975258001,43.5774130880844],[-116.16395375617,43.5772739996625],[-116.16389594387,43.5769000159392],[-116.163906979943,43.5762585035698],[-116.163893211786,43.5762217290658],[-116.163873739167,43.5761697155775],[-116.163853228856,43.5761149330812],[-116.163788034576,43.5760605706018],[-116.163469818567,43.5757952245658],[-116.163424017723,43.5753853896598],[-116.163431191169,43.5746153415591],[-116.163432991596,43.5744220103081],[-116.163433404384,43.574377767025],[-116.163435809594,43.5741195864149],[-116.162096234687,43.5740906492584],[-116.161341316554,43.5740407376003],[-116.159230021628,43.5737086856676],[-116.157568079426,43.5734298576741],[-116.156664304628,43.5732786121458],[-116.156397233174,43.5732339160732],[-116.156125887872,43.5731659959128],[-116.154147681449,43.5751301653932],[-116.152033123551,43.5758796903227],[-116.148925963785,43.5772600239233],[-116.147003780477,43.5781044961504],[-116.145756157577,43.5784109427746],[-116.145340995421,43.5783479577032],[-116.144831995568,43.5782419570208],[-116.144736995385,43.5782149570463],[-116.144450287086,43.5781369989871],[-116.144404929877,43.5781270885769],[-116.144270447611,43.578097706339],[-116.141245129149,43.5770389802868],[-116.141179834281,43.5770140904786],[-116.139785987583,43.5765259143732],[-116.138744988356,43.5761619145131],[-116.137705987429,43.5757989144187],[-116.137622987435,43.5757699149208],[-116.13670698615,43.5754399156577],[-116.135704986071,43.5750989155592],[-116.134664985465,43.5747349155678],[-116.133604985538,43.5743639157442],[-116.131587984445,43.5736579162942],[-116.130666983935,43.5733359154785],[-116.129593983775,43.5729599160892],[-116.12673798183,43.5719609159185],[-116.126682981483,43.5719419163887],[-116.126538982195,43.5718889162729],[-116.125754450042,43.5716114483103],[-116.125735981468,43.5716049159323],[-116.12569724986,43.5715765668169],[-116.125693668104,43.571573039961],[-116.125691322423,43.5715722269095],[-116.125638981533,43.5715339158866],[-116.125529981636,43.5714119159847],[-116.125460982095,43.5712479159785],[-116.125361981921,43.5711349159262],[-116.125361981053,43.5711519160936],[-116.12537798176,43.5712709160077],[-116.125392981068,43.5713849163512],[-116.125402276925,43.5714533040629],[-116.125406981303,43.5714879162123],[-116.125406981797,43.5715649164217],[-116.125401982121,43.5724329166558],[-116.125387981305,43.573090916509],[-116.125376982365,43.5736009168665],[-116.125382982399,43.5758219173398],[-116.125382981833,43.5760159179465],[-116.125348982777,43.5763009175243],[-116.125373983454,43.5770999179988],[-116.125383984255,43.5772599178297],[-116.12538398405,43.5773025279908],[-116.125383983692,43.5773439178133],[-116.125373983342,43.577368918094],[-116.125373983824,43.5779369182344],[-116.125384983561,43.5790059175161],[-116.125396345754,43.5818383262266],[-116.125401985792,43.583243917934],[-116.124536984565,43.5829499186767],[-116.123228984697,43.5823689183629],[-116.12191098418,43.5817349183517],[-116.121005983014,43.5815919195162],[-116.120966983903,43.581449919905],[-116.120730982242,43.5812729192848],[-116.119987982379,43.5810959194377],[-116.119397982497,43.5809919197698],[-116.118969982576,43.580731920041],[-116.118276981872,43.58056891926],[-116.118152982214,43.580450919734],[-116.117488981777,43.5806489193604],[-116.11705898225,43.5807329201314],[-116.116645981332,43.5807649194087],[-116.116487981543,43.58077591947],[-116.116364981583,43.5807849199562],[-116.116026981386,43.5813469197818],[-116.115802982161,43.581496920217],[-116.115746982078,43.5815079204314],[-116.115512981025,43.5815529204388],[-116.115131980405,43.5814239199204],[-116.114931979994,43.5811479197642],[-116.11490098067,43.5805919198484],[-116.114962980571,43.5802319201872],[-116.115138980091,43.5797909196149],[-116.115425979774,43.5793509202331],[-116.115056979883,43.5792319200447],[-116.114956980184,43.579213919833],[-116.114790979464,43.5792589199754],[-116.114673979974,43.5793169200218],[-116.11461797952,43.5793579196725],[-116.114553979657,43.5793819203635],[-116.114528979614,43.5793819199819],[-116.114445980474,43.5793709198605],[-116.114331979837,43.5793909202157],[-116.114177980496,43.5794019196368],[-116.114133979449,43.5794169198382],[-116.114109979576,43.5794249203751],[-116.113939980038,43.5794569195734],[-116.113774979275,43.5794879198632],[-116.113649979273,43.579499919742],[-116.113558979246,43.5795039196689],[-116.113349979604,43.5794849200858],[-116.113137980198,43.5794749201945],[-116.113106979287,43.579484919958],[-116.113076980066,43.5794869204361],[-116.112793980207,43.5794369200976],[-116.112762980069,43.5794359205212],[-116.11262497957,43.5794459203325],[-116.112600979644,43.5794399199601],[-116.112579979991,43.5794299196692],[-116.112549979225,43.5794009201798],[-116.112426979532,43.5793489202103],[-116.112235980019,43.5792359197695],[-116.112201979375,43.5792089199605],[-116.112190979858,43.579179920473],[-116.112184979034,43.5791449204509],[-116.112167979035,43.5791299198645],[-116.112090978512,43.5791059198848],[-116.111978978143,43.579050920143],[-116.111948978407,43.5790129200445],[-116.111824978771,43.5789229202053],[-116.111742978269,43.5788399203892],[-116.111602978358,43.5787479199348],[-116.111507978822,43.5786659204125],[-116.111388978785,43.5786019201753],[-116.111319978533,43.5785549203416],[-116.111251978536,43.5785259199988],[-116.111111977671,43.5784279198425],[-116.111047977783,43.5784039203907],[-116.110978977529,43.5783879201895],[-116.110862977857,43.5783419198217],[-116.110850978477,43.5782239205336],[-116.110852978498,43.5781349203961],[-116.110833978276,43.5780819199325],[-116.110774978155,43.5779589203208],[-116.110737978458,43.5778349198069],[-116.110733978106,43.5777479202987],[-116.110669978317,43.5775479200653],[-116.110643977364,43.577492920351],[-116.110588977539,43.577270920174],[-116.110557977983,43.5771779203079],[-116.110544977443,43.5771179199155],[-116.110486977403,43.5770079204288],[-116.110419977952,43.5769319198809],[-116.110372977768,43.5768399198524],[-116.110318262513,43.5767845380872],[-116.110290977153,43.5767569198632],[-116.110242977446,43.5765819200793],[-116.110275977595,43.576441919886],[-116.110376977701,43.5762789202937],[-116.110484978104,43.5760519198291],[-116.110548977243,43.5759449203468],[-116.110780977482,43.5756559202441],[-116.110960977343,43.5754519199207],[-116.111046977632,43.5753629199844],[-116.111237978189,43.5751449198694],[-116.111283978161,43.5751019195483],[-116.111586978229,43.574822919576],[-116.111732977462,43.5747019195202],[-116.111754283257,43.5746827145579],[-116.111874978077,43.5745739194805],[-116.111613977541,43.5745779194498],[-116.110645976475,43.574589919937],[-116.110529976349,43.5745909202659],[-116.110085976491,43.5745959202599],[-116.108145976054,43.5746189196367],[-116.104185974659,43.5746639200543],[-116.104184974686,43.574587920124],[-116.102794973723,43.5746019211578],[-116.102740973829,43.5745439218635],[-116.102729973874,43.5745139215912],[-116.102694973609,43.5744839215631],[-116.102662974054,43.5744219215541],[-116.102617973453,43.5743849218975],[-116.102618974373,43.5745959214457],[-116.102105973569,43.5745999216029],[-116.101253973989,43.5745689218616],[-116.094607970105,43.5746359225248],[-116.094370969835,43.5743749224112],[-116.09432097022,43.5743169223847],[-116.094063970481,43.5740359227418],[-116.093992969567,43.5726229226264],[-116.093983969258,43.5710409218561],[-116.093903969702,43.5710569216525],[-116.093853969463,43.5710809217755],[-116.093799969317,43.5710889218886],[-116.093694969873,43.571130921744],[-116.093591969409,43.5711579222293],[-116.09351396914,43.5711679220376],[-116.09346796921,43.5711599219383],[-116.093392969951,43.5711539222313],[-116.093352969361,43.5711559223758],[-116.093315969989,43.5711659222019],[-116.093287969592,43.5711799222986],[-116.093260969592,43.5712249219668],[-116.093230969726,43.5712519225162],[-116.093186969467,43.5712619217188],[-116.09314396999,43.5712609222394],[-116.092954969173,43.5712299224899],[-116.092894969114,43.5712239224597],[-116.092832969539,43.57124292197],[-116.092772969712,43.5712819223712],[-116.092663969552,43.5713319221818],[-116.092539968834,43.5713389219409],[-116.092289967879,43.5713349225239],[-116.092185968381,43.5713439220148],[-116.09214696887,43.5713719220672],[-116.092078969003,43.5714479225326],[-116.092014968934,43.5715809222965],[-116.091953969012,43.5716089223971],[-116.091877968774,43.571654922341],[-116.091689968143,43.5717429222751],[-116.091635968608,43.5717989223088],[-116.09162196827,43.5718609225031],[-116.091591968836,43.5720949223554],[-116.091598967938,43.5723219224884],[-116.091579968011,43.5723309221163],[-116.091453969528,43.5729169221744],[-116.091017969469,43.5736349238503],[-116.09092097017,43.573689923235],[-116.090177969532,43.5741769235363],[-116.089008969749,43.57525292399],[-116.089396970105,43.5782359239651],[-116.089358969915,43.5782879245632],[-116.08844697048,43.5791109241835],[-116.088478970233,43.579248923898],[-116.088932970098,43.5793529239789],[-116.089872970217,43.5794469244396],[-116.089686970414,43.5797199240919],[-116.088565970171,43.580672924502],[-116.08841096977,43.5809219247286],[-116.0884519719,43.5819669257301],[-116.088838972296,43.5828759255743],[-116.088932972017,43.5829219252825],[-116.089062972255,43.5833529255958],[-116.088537971763,43.5842159254405],[-116.088253972435,43.5844419255127],[-116.087725971665,43.584599925446],[-116.08687697134,43.5847149263041],[-116.086058971309,43.5845549262361],[-116.085680969956,43.5846229258008],[-116.085334970315,43.5849439260684],[-116.0851469719,43.5854929262587],[-116.084925971815,43.585675926123],[-116.084245969871,43.5860439264578],[-116.084004970007,43.5861429264277],[-116.083897970539,43.5862089265909],[-116.083195970184,43.586727926004],[-116.082818970339,43.5871169265794],[-116.082504971308,43.588236927777],[-116.081969971297,43.588717928114],[-116.081906971084,43.5893579273415],[-116.081623971974,43.5895639279931],[-116.080711970436,43.5899989279378],[-116.080727971243,43.5901129281975],[-116.080711971642,43.5902499275287],[-116.080900971266,43.5905469276001],[-116.080869972173,43.5909819276613],[-116.079862971381,43.5923309284461],[-116.078918971624,43.593085928555],[-116.078950971206,43.5933149284033],[-116.079222971213,43.5933659287151],[-116.079674972102,43.5934519278851],[-116.079768972006,43.5935429281639],[-116.079737972491,43.5936809280928],[-116.079422972139,43.5939089283841],[-116.078950972053,43.5940009288641],[-116.078786971417,43.5940049284433],[-116.077188971863,43.5940469293709],[-116.076275970431,43.5942529296986],[-116.075897970208,43.5945269301121],[-116.075173970624,43.5947789300287],[-116.074418970363,43.5948479297334],[-116.073254970336,43.5954649304155],[-116.072468969477,43.5960369305502],[-116.072468969701,43.5962199304098],[-116.072625970453,43.5963109297907],[-116.073254970081,43.5962879303467],[-116.073695970005,43.5964259303456],[-116.073789970567,43.5966079305421],[-116.073758970857,43.5970889301758],[-116.073066970863,43.5977979304776],[-116.071807970718,43.5988499314209],[-116.070800970245,43.6000849320681],[-116.06966897026,43.6005189321892],[-116.068566970451,43.6007019319363],[-116.068063970084,43.6008849318434],[-116.067528970161,43.6013659319999],[-116.066206969454,43.602074932036],[-116.065734969895,43.6024639328211],[-116.065168969518,43.6032879328628],[-116.065199969797,43.6036079338619],[-116.065399969838,43.6037449334718],[-116.065514969502,43.6038589333148],[-116.065986970276,43.6039959323473],[-116.066930970534,43.6040639321058],[-116.066930970831,43.604315932744],[-116.066206970332,43.6052309340015],[-116.066049970217,43.6058019332536],[-116.065325971033,43.6064879335988],[-116.06507397111,43.6069459337171],[-116.064916970991,43.6070609335898],[-116.063699970422,43.607092933914],[-116.063563970314,43.6071069340638],[-116.062965970165,43.6075639340808],[-116.061769970536,43.6075409341963],[-116.061268969399,43.607740934617],[-116.061139970008,43.6077929339219],[-116.061013969675,43.6079989343157],[-116.060950970331,43.6089359340553],[-116.060636969797,43.6093479343915],[-116.060352969695,43.6093939345134],[-116.060352970625,43.6095309348076],[-116.060195969874,43.6097139355741],[-116.060447970467,43.6099199358494],[-116.061233970955,43.6114749351653],[-116.061580971584,43.6118179354325],[-116.061831971547,43.6125499360482],[-116.062241972187,43.6130529353922],[-116.062587972558,43.6140589360379],[-116.063185974238,43.6163219358822],[-116.063437974356,43.616527935618],[-116.064067973829,43.6167789356455],[-116.065169973822,43.617853935338],[-116.065169975343,43.6186999356567],[-116.065294975374,43.6188149355853],[-116.065169976072,43.6189519356501],[-116.065294976027,43.6201409358355],[-116.062997976098,43.6216279363016],[-116.062241975163,43.6226339362052],[-116.061800975905,43.6230679374155],[-116.061171975094,43.6233899372965],[-116.060195975051,43.6235039375878],[-116.058903973665,43.6239149377726],[-116.058399973721,43.6243959382703],[-116.05803897443,43.6249029377412],[-116.057803974759,43.6254909377055],[-116.057614974138,43.6258799384708],[-116.056922974692,43.6265659384645],[-116.056922974201,43.6273199386239],[-116.056733975235,43.6276179387457],[-116.056734975967,43.6288979398309],[-116.056702975113,43.6289359395567],[-116.056482975974,43.6292409393383],[-116.055568975888,43.6296759392557],[-116.055087975756,43.6299959401154],[-116.053647975342,43.6309559395825],[-116.052986973844,43.6310479400452],[-116.052702974713,43.6307959396632],[-116.052569974559,43.6304719401466],[-116.052540974098,43.6304779403486],[-116.052442973618,43.6304429397467],[-116.052309973945,43.6303749396759],[-116.052159974566,43.6303299402262],[-116.052041974309,43.6302819402112],[-116.051657973856,43.630294940525],[-116.051320974317,43.6303509402249],[-116.051152974415,43.6303669402946],[-116.050991973417,43.6304189402606],[-116.050843974276,43.6305569397961],[-116.050663973874,43.6307349404441],[-116.050472973852,43.6310549399073],[-116.050343973449,43.6312029403478],[-116.050158974021,43.6313219402135],[-116.049968974039,43.6314149399414],[-116.049731973908,43.631470940693],[-116.049434973786,43.6315709408259],[-116.049148973897,43.6316939401344],[-116.048912974261,43.6317379402796],[-116.048636974052,43.6318059407203],[-116.048231973563,43.6318899415698],[-116.047784973553,43.6319529412478],[-116.047399973711,43.6320289414191],[-116.047116972338,43.6320609414399],[-116.046853972049,43.6321299414234],[-116.046552971809,43.632197941448],[-116.046319972139,43.6323469414139],[-116.045960972643,43.6325979422262],[-116.045279971675,43.6329639421734],[-116.04524997271,43.6329969414952],[-116.045178333517,43.6330912032918],[-115.99513592029,43.5961931371663],[-115.986093108942,43.5895183522671],[-115.976121842691,43.5842060783492],[-115.975563172563,43.4822894242388],[-115.975481031121,43.4672644862625],[-115.975055667138,43.3892933119272],[-115.974632613795,43.3647499328052],[-115.974624518636,43.3642800500393],[-115.974912360032,43.2925631621749],[-115.975165518354,43.2294201784973],[-115.975223963705,43.214833840364],[-115.97563521719,43.1121007538586],[-116.261772752076,43.111904170748],[-116.268011093704,43.1178605354134],[-116.276196955721,43.1198179954113],[-116.28363121651,43.1206902981046],[-116.297738276835,43.1202609467343],[-116.306669692605,43.1223939995929],[-116.308693039586,43.1270991383828],[-116.311477727747,43.1337953088438],[-116.311269929444,43.138148627174],[-116.316762761343,43.1430178833182],[-116.321745939542,43.1462573104029],[-116.329935556599,43.1480295473639],[-116.333423461453,43.1501879602347],[-116.332955704961,43.1530918683412],[-116.332986732465,43.156355923369],[-116.336007548158,43.1614181516858],[-116.339002732583,43.1637602550378],[-116.343482772352,43.1659132417054],[-116.350173236636,43.166059686749],[-116.355138567844,43.1671216003729],[-116.359404122746,43.172539298856],[-116.366651061064,43.178666179617],[-116.36717584484,43.1815648582991],[-116.371168085386,43.1842634154902],[-116.375151424754,43.1860551604169],[-116.381639338458,43.1903717806082],[-116.385653491611,43.1950644882242],[-116.385687373453,43.1983284872262],[-116.383743917048,43.2021474849773],[-116.382290380553,43.2054197110541],[-116.381323141485,43.2077825168779],[-116.382160473542,43.2168450558337],[-116.379011895883,43.2241161302732],[-116.375100067161,43.229577856345],[-116.374163637242,43.2350232484241],[-116.375722191951,43.2419057465259],[-116.38224799915,43.2493048952573],[-116.38850266635,43.2543477299661],[-116.39548161437,43.2573913733044],[-116.401468814854,43.260440242055],[-116.40176528323,43.2649720939391],[-116.401328963051,43.2705961641211],[-116.400859713236,43.2731376130596],[-116.403399527677,43.2785633693503],[-116.407746209829,43.2838717672911],[-116.412422293033,43.2874344749592],[-116.42088824488,43.2917354096208],[-116.431155865941,43.295966895639],[-116.440788748422,43.296410574841],[-116.445490046543,43.2937466675081],[-116.461769896405,43.2909545044534],[-116.473361571683,43.2915464027027],[-116.486318064139,43.2890889914255],[-116.496587588004,43.2846246061814],[-116.499883634317,43.2828963871378],[-116.505116984107,43.2856855735333],[-116.508380706255,43.2885976653017],[-116.5104676496,43.2913731327604],[-116.511981233468,43.2936433351373],[-116.512815576872,43.3719883199094],[-116.51320370277,43.4083193065104],[-116.513279299649,43.4153872323409],[-116.513514601659,43.4373692573852],[-116.513448407148,43.4593145392711],[-116.498525106303,43.4592823094997],[-116.496799578917,43.4592784572949],[-116.493655886216,43.4592713725242],[-116.473609869215,43.4592241608971],[-116.473577436712,43.4628577869736],[-116.473480155781,43.4737561863601],[-116.473351130275,43.4882092843658],[-116.473352211447,43.4883005025753],[-116.473402507948,43.4925421741269],[-116.473526067861,43.5029585270747],[-116.473420246125,43.5029584253977],[-116.473443050177,43.5069433719736],[-116.4735038095,43.5175551566859],[-116.473571800876,43.5294205019193],[-116.473591105895,43.5327876422324],[-116.4735910377,43.5340785401539],[-116.473590394723,43.5466880084458],[-116.473589954142,43.5557661930362],[-116.473589698751,43.5612099191581],[-116.473589180883,43.5726742825719],[-116.473588167987,43.597221159456],[-116.473655815243,43.6194490736164],[-116.473593232547,43.6255405878469],[-116.47356844269,43.6279534102504],[-116.473505118636,43.6341163540813],[-116.471303990194,43.6341118675794],[-116.466244470191,43.6341013951292],[-116.455278537346,43.6340767693827],[-116.453812784915,43.634073398439],[-116.453591428695,43.6340728874087],[-116.45356742451,43.634072776867],[-116.449576214579,43.6340544041545],[-116.449101230602,43.6340520426177],[-116.44795644297,43.6340463425259],[-116.443638010522,43.634024735512],[-116.441486689749,43.6340139108054],[-116.4392094522,43.6340024081326],[-116.438190111348,43.6339972442334],[-116.435254970328,43.6339823257552],[-116.434975007178,43.6339818932926],[-116.433691419956,43.6339799021521],[-116.433687911691,43.6339798565387],[-116.433120026482,43.633972490922],[-116.431542225269,43.6339520126126]]]},"properties":{"commissioner":"Tom Dayley","district":3,"objectid":3,"Shape__Area":22081170310.578735,"Shape__Length":707508.3394745446}}]}