{"type":"FeatureCollection","name":"tl_2025_36_scsd","crs":{"type":"name","properties":{"name":"urn:ogc:def:crs:OGC:1.3:CRS84"}},"features":[{"type":"Feature","properties":{"STATEFP":"36","SCSDLEA":"19020","GEOID":"3619020","GEOIDFQ":"9600000US3619020","NAME":"Bellmore-Merrick Central High School District","LSAD":"00","LOGRADE":"07","HIGRADE":"12","MTFCC":"G5410","SDTYP":"","FUNCSTAT":"E","ALAND":36287757,"AWATER":34450244,"INTPTLAT":"+40.6189827","INTPTLON":"-073.5460502"},"geometry":{"type":"Polygon","coordinates":[[[-73.576721,40.694335],[-73.576111,40.694461],[-73.575946,40.694497],[-73.575456,40.694597],[-73.574993,40.694657],[-73.574812,40.694681],[-73.574533,40.694799],[-73.574474,40.694829],[-73.574191,40.694924],[-73.57403,40.694982],[-73.57357,40.695146],[-73.571859,40.69576],[-73.571311,40.695957],[-73.570509,40.696248],[-73.569612,40.696573],[-73.569004,40.696796],[-73.568758,40.696887],[-73.568054,40.697148],[-73.567817,40.697236],[-73.567288,40.697434],[-73.567094,40.697497],[-73.566984,40.697536],[-73.566897,40.697568],[-73.566167,40.697765],[-73.565087,40.697948],[-73.564763,40.698],[-73.563485,40.698216],[-73.563156,40.698267],[-73.562449,40.698396],[-73.56214,40.698484],[-73.561144,40.698749],[-73.56061,40.698904],[-73.560429,40.698957],[-73.560088,40.699066],[-73.559617,40.699041],[-73.558447,40.699051],[-73.558133,40.699069],[-73.557881,40.699123],[-73.557582,40.699201],[-73.557084,40.699368],[-73.556787,40.699467],[-73.555702,40.69983],[-73.555153,40.699993],[-73.554335,40.700228],[-73.553963,40.700329],[-73.553177,40.70056],[-73.552752,40.70078],[-73.552539,40.700905],[-73.55234,40.701045],[-73.552139,40.701198],[-73.551917,40.701376],[-73.551639,40.701531],[-73.551586,40.701571],[-73.551369,40.701675],[-73.549768,40.702348],[-73.549555,40.702444],[-73.549416,40.702507],[-73.549197,40.702606],[-73.548682,40.702849],[-73.547043,40.703631],[-73.54684,40.703751],[-73.546622,40.703944],[-73.54635,40.704197],[-73.545206,40.705304],[-73.545105,40.705391],[-73.544729,40.705639],[-73.544488,40.705752],[-73.544371,40.705789],[-73.544236,40.705831],[-73.543976,40.70588],[-73.543772,40.705888],[-73.543565,40.705901],[-73.543208,40.70591],[-73.542089,40.705948],[-73.540974,40.706005],[-73.540831,40.706013],[-73.539576,40.706056],[-73.538315,40.706086],[-73.538055,40.706082],[-73.536764,40.706152],[-73.535861,40.706187],[-73.53496,40.70622],[-73.534625,40.706233],[-73.534061,40.706272],[-73.533932,40.706285],[-73.533159,40.706319],[-73.53188,40.706379],[-73.531632,40.705894],[-73.531482,40.705359],[-73.531129,40.703651],[-73.530777,40.701974],[-73.530737,40.701786],[-73.530692,40.701579],[-73.530577,40.701134],[-73.530491,40.700792],[-73.530379,40.700564],[-73.530204,40.69994],[-73.530128,40.699677],[-73.529772,40.698578],[-73.529066,40.697238],[-73.528164,40.695556],[-73.527794,40.694861],[-73.527084,40.693536],[-73.526732,40.692894],[-73.526148,40.691816],[-73.526076,40.691679],[-73.525572,40.690713],[-73.525384,40.690357],[-73.524699,40.689072],[-73.524153,40.68805],[-73.523406,40.68668],[-73.523092,40.686091],[-73.522277,40.684609],[-73.521836,40.683789],[-73.521099,40.682435],[-73.5216,40.682322],[-73.522103,40.682184],[-73.52236,40.682051],[-73.52346,40.68108],[-73.524092,40.680525],[-73.523689,40.680014],[-73.52317,40.679358],[-73.523114,40.678974],[-73.522622,40.679019],[-73.522325,40.678131],[-73.522168,40.678056],[-73.521776,40.676972],[-73.52144,40.675507],[-73.52126,40.67496],[-73.521397,40.674517],[-73.521384,40.674201],[-73.521404,40.673667],[-73.520816,40.672499],[-73.520982,40.670641],[-73.52105,40.670175],[-73.521025,40.670046],[-73.520879,40.669294],[-73.521211,40.668308],[-73.520961,40.667453],[-73.521232,40.665607],[-73.52105,40.664379],[-73.520981,40.663739],[-73.520625,40.660765],[-73.520055,40.660352],[-73.519966,40.659414],[-73.519396,40.658956],[-73.518838,40.658992],[-73.518938,40.65888],[-73.518969,40.658796],[-73.519032,40.65868],[-73.519014,40.658591],[-73.518929,40.658441],[-73.518269,40.657751],[-73.518342,40.656993],[-73.517356,40.655786],[-73.517434,40.655543],[-73.517506,40.65551],[-73.518039,40.655267],[-73.518526,40.655355],[-73.518929,40.65517],[-73.519032,40.655067],[-73.51969,40.654407],[-73.519963,40.653557],[-73.519498,40.651801],[-73.518882,40.651047],[-73.518787,40.649744],[-73.518042,40.648324],[-73.518049,40.647757],[-73.518064,40.646656],[-73.518261,40.646248],[-73.519092,40.644528],[-73.518639,40.643803],[-73.516964,40.643086],[-73.516803,40.64302],[-73.516178,40.643831],[-73.515876,40.643014],[-73.516507,40.64187],[-73.51687,40.641501],[-73.517067,40.640652],[-73.517313,40.639591],[-73.51817,40.635901],[-73.51337,40.630801],[-73.511364,40.62879],[-73.511458,40.622027],[-73.511431,40.621169],[-73.511392,40.618977],[-73.511299,40.616876],[-73.511328,40.61631],[-73.511437,40.615926],[-73.511452,40.613985],[-73.511456,40.612366],[-73.511482,40.609544],[-73.511508,40.605551],[-73.511426,40.604247],[-73.51146,40.604201],[-73.511501,40.601555],[-73.511493,40.60078],[-73.511479,40.599886],[-73.511501,40.596314],[-73.511508,40.596281],[-73.511523,40.596239],[-73.511519,40.596195],[-73.511499,40.596161],[-73.511418,40.596123],[-73.511421,40.596106],[-73.511513,40.592922],[-73.511522,40.586586],[-73.511549,40.584954],[-73.512174,40.551072],[-73.512378,40.522818],[-73.517844,40.523306],[-73.52933,40.525153],[-73.55008,40.528492],[-73.549573,40.551276],[-73.549273,40.576051],[-73.549121,40.584814],[-73.549163,40.589033],[-73.54918,40.589344],[-73.548067,40.589911],[-73.548074,40.590528],[-73.54773,40.593317],[-73.549549,40.600496],[-73.553157,40.608835],[-73.553197,40.608929],[-73.55338,40.610884],[-73.553543,40.613461],[-73.553571,40.613898],[-73.553612,40.614436],[-73.553652,40.614975],[-73.553654,40.615061],[-73.553829,40.617597],[-73.55432,40.617987],[-73.55652,40.619858],[-73.557463,40.62113],[-73.557975,40.623213],[-73.557887,40.623503],[-73.558452,40.626808],[-73.558603,40.627711],[-73.558905,40.627742],[-73.559133,40.627763],[-73.559492,40.627687],[-73.55993,40.62772],[-73.559729,40.628886],[-73.559786,40.630169],[-73.559925,40.630882],[-73.560179,40.631505],[-73.560953,40.633402],[-73.561704,40.635239],[-73.561712,40.635419],[-73.561722,40.635524],[-73.561962,40.635989],[-73.563194,40.638373],[-73.56385,40.639508],[-73.564507,40.640642],[-73.564506,40.641009],[-73.565076,40.641581],[-73.566307,40.642451],[-73.566501,40.642697],[-73.56779,40.643519],[-73.567477,40.64371],[-73.567477,40.644007],[-73.567055,40.645265],[-73.567055,40.645607],[-73.566364,40.645699],[-73.565994,40.646252],[-73.565791,40.646283],[-73.565597,40.646312],[-73.564632,40.647687],[-73.564678,40.649843],[-73.564738,40.650137],[-73.565644,40.652903],[-73.56532,40.653591],[-73.565725,40.653805],[-73.565835,40.653856],[-73.566115,40.65386],[-73.565717,40.654039],[-73.565626,40.654112],[-73.565568,40.654197],[-73.565553,40.654263],[-73.565567,40.654384],[-73.565606,40.654472],[-73.565749,40.654656],[-73.565842,40.654736],[-73.565935,40.654792],[-73.565942,40.654904],[-73.565839,40.655436],[-73.565799,40.655639],[-73.565748,40.655904],[-73.565753,40.655936],[-73.565992,40.657274],[-73.566115,40.657969],[-73.566251,40.659306],[-73.566254,40.659358],[-73.566264,40.659525],[-73.566326,40.659936],[-73.566521,40.660375],[-73.566582,40.660493],[-73.566872,40.660511],[-73.566974,40.660621],[-73.567131,40.660571],[-73.567104,40.660653],[-73.567079,40.660736],[-73.567532,40.661229],[-73.56765,40.661357],[-73.56807,40.661814],[-73.568204,40.661897],[-73.568337,40.661981],[-73.5684,40.662019],[-73.568552,40.662116],[-73.568962,40.662654],[-73.568961,40.66302],[-73.569051,40.663066],[-73.569051,40.663409],[-73.569411,40.663752],[-73.569531,40.663775],[-73.569384,40.664369],[-73.569351,40.664513],[-73.569416,40.665123],[-73.569435,40.665304],[-73.56944,40.665353],[-73.569681,40.665767],[-73.5698,40.665972],[-73.569799,40.666227],[-73.57235,40.668205],[-73.573169,40.669061],[-73.573705,40.670976],[-73.573587,40.671596],[-73.573054,40.673607],[-73.572261,40.67576],[-73.572316,40.67605],[-73.572871,40.676401],[-73.573006,40.676788],[-73.57341,40.678001],[-73.573037,40.678378],[-73.572209,40.679246],[-73.572225,40.679469],[-73.572242,40.679975],[-73.572261,40.680452],[-73.572322,40.681089],[-73.572412,40.681671],[-73.572493,40.682078],[-73.572633,40.68266],[-73.572845,40.683374],[-73.573066,40.684014],[-73.5731,40.684111],[-73.573359,40.68476],[-73.57365,40.685427],[-73.5737,40.68554],[-73.57384,40.685827],[-73.574222,40.68688],[-73.574317,40.687201],[-73.574436,40.687728],[-73.574506,40.688215],[-73.574566,40.688799],[-73.574673,40.689546],[-73.574747,40.689865],[-73.574825,40.690094],[-73.574714,40.690379],[-73.574813,40.690617],[-73.57487,40.690832],[-73.575003,40.691287],[-73.575221,40.691432],[-73.576045,40.69198],[-73.576637,40.692585],[-73.576721,40.694335]]]}},{"type":"Feature","properties":{"STATEFP":"36","SCSDLEA":"26520","GEOID":"3626520","GEOIDFQ":"9600000US3626520","NAME":"Sewanhaka Central High School District","LSAD":"00","LOGRADE":"07","HIGRADE":"12","MTFCC":"G5410","SDTYP":"","FUNCSTAT":"E","ALAND":29863752,"AWATER":199433,"INTPTLAT":"+40.7142717","INTPTLON":"-073.6937605"},"geometry":{"type":"Polygon","coordinates":[[[-73.729885,40.722393],[-73.729648,40.722518],[-73.729503,40.722595],[-73.729234,40.722705],[-73.728783,40.722876],[-73.728261,40.723063],[-73.728175,40.723092],[-73.728066,40.723129],[-73.727985,40.723159],[-73.727497,40.723343],[-73.727331,40.723407],[-73.727213,40.723453],[-73.726932,40.723569],[-73.726465,40.723751],[-73.726453,40.723756],[-73.726032,40.723912],[-73.725683,40.724025],[-73.725526,40.724076],[-73.72508,40.724196],[-73.724848,40.724259],[-73.72472,40.724298],[-73.724551,40.72435],[-73.724404,40.724395],[-73.724141,40.724469],[-73.724026,40.724501],[-73.723745,40.724575],[-73.723431,40.724649],[-73.722929,40.724784],[-73.722909,40.72479],[-73.722576,40.724879],[-73.7225,40.7249],[-73.722051,40.725026],[-73.721341,40.725225],[-73.721196,40.725265],[-73.720919,40.725341],[-73.720387,40.725487],[-73.719988,40.725597],[-73.718288,40.726043],[-73.717854,40.726157],[-73.717527,40.726242],[-73.717267,40.726301],[-73.716899,40.726387],[-73.716494,40.726454],[-73.715947,40.72653],[-73.715865,40.726541],[-73.714972,40.726647],[-73.714879,40.726658],[-73.714141,40.726751],[-73.714075,40.72676],[-73.713446,40.726842],[-73.712764,40.726931],[-73.712403,40.726978],[-73.71178,40.727059],[-73.710913,40.727173],[-73.710499,40.727227],[-73.710485,40.72723],[-73.710311,40.727266],[-73.709941,40.727345],[-73.70976,40.727382],[-73.709679,40.7274],[-73.70912,40.727519],[-73.708575,40.727635],[-73.707939,40.727771],[-73.707902,40.727837],[-73.707747,40.72805],[-73.707165,40.728933],[-73.706691,40.729666],[-73.706543,40.729883],[-73.70586,40.730917],[-73.705304,40.731756],[-73.705179,40.73193],[-73.704674,40.732714],[-73.704565,40.732897],[-73.704021,40.733732],[-73.703725,40.734165],[-73.703512,40.734489],[-73.703461,40.734566],[-73.70337,40.734711],[-73.703116,40.735087],[-73.703028,40.735226],[-73.702738,40.735665],[-73.702699,40.735723],[-73.702334,40.736266],[-73.702235,40.736415],[-73.702202,40.736464],[-73.702102,40.736619],[-73.702069,40.73667],[-73.701829,40.737022],[-73.701586,40.737403],[-73.701487,40.737555],[-73.701267,40.737905],[-73.701032,40.738264],[-73.70095,40.738391],[-73.700848,40.738534],[-73.700715,40.738711],[-73.700639,40.738828],[-73.700531,40.738992],[-73.700506,40.739061],[-73.700384,40.73919],[-73.7003,40.739239],[-73.70002,40.73939],[-73.699879,40.739473],[-73.699744,40.739558],[-73.699009,40.740027],[-73.698971,40.740052],[-73.698942,40.74007],[-73.698346,40.74045],[-73.697529,40.740959],[-73.696766,40.741413],[-73.696052,40.741833],[-73.695924,40.741911],[-73.695334,40.74226],[-73.694622,40.742686],[-73.694341,40.742866],[-73.693768,40.743198],[-73.693715,40.743229],[-73.693139,40.744922],[-73.692979,40.745445],[-73.692369,40.746089],[-73.692592,40.747333],[-73.692045,40.748612],[-73.691707,40.749348],[-73.691489,40.749412],[-73.691519,40.749695],[-73.691134,40.749769],[-73.691164,40.75005],[-73.690905,40.750092],[-73.690797,40.750143],[-73.690524,40.750867],[-73.690835,40.751515],[-73.690658,40.752086],[-73.690448,40.752876],[-73.689581,40.753654],[-73.689127,40.754325],[-73.688996,40.754652],[-73.688886,40.754666],[-73.688684,40.754688],[-73.68852,40.75471],[-73.688252,40.754737],[-73.687776,40.754786],[-73.687685,40.754802],[-73.687085,40.754902],[-73.686183,40.754971],[-73.686143,40.754975],[-73.685854,40.754976],[-73.685252,40.75498],[-73.685095,40.75498],[-73.684105,40.755001],[-73.682373,40.755046],[-73.682113,40.755043],[-73.681666,40.755006],[-73.68142,40.75497],[-73.681175,40.754925],[-73.680976,40.754877],[-73.68073,40.754748],[-73.680485,40.754702],[-73.680032,40.754673],[-73.678956,40.754027],[-73.677548,40.753177],[-73.676502,40.752513],[-73.676218,40.752331],[-73.674569,40.751384],[-73.674448,40.751307],[-73.673142,40.750478],[-73.672807,40.750275],[-73.67082,40.749067],[-73.670397,40.748488],[-73.670209,40.748284],[-73.669921,40.748026],[-73.669232,40.747478],[-73.669034,40.747333],[-73.66801,40.746614],[-73.667708,40.746405],[-73.666985,40.745899],[-73.666783,40.745747],[-73.666212,40.745386],[-73.666035,40.745275],[-73.664866,40.744599],[-73.663466,40.743789],[-73.663207,40.743648],[-73.662776,40.743441],[-73.661975,40.743057],[-73.661572,40.742894],[-73.661356,40.742827],[-73.661125,40.742772],[-73.660344,40.742646],[-73.659971,40.742589],[-73.659859,40.742572],[-73.659962,40.742515],[-73.65995,40.742358],[-73.659976,40.74215],[-73.660088,40.741516],[-73.660264,40.740533],[-73.660391,40.739782],[-73.660524,40.739031],[-73.660654,40.738279],[-73.66079,40.737499],[-73.660926,40.736717],[-73.661014,40.736192],[-73.660992,40.736092],[-73.660969,40.735993],[-73.6609,40.735707],[-73.660886,40.735648],[-73.661419,40.735558],[-73.662155,40.735426],[-73.663261,40.735249],[-73.663467,40.735203],[-73.663752,40.73516],[-73.664049,40.73512],[-73.664306,40.735085],[-73.664591,40.735045],[-73.664735,40.735026],[-73.664957,40.734973],[-73.665613,40.734877],[-73.665837,40.734844],[-73.665903,40.734834],[-73.66661,40.734706],[-73.666718,40.734695],[-73.666807,40.734685],[-73.667402,40.734596],[-73.667654,40.734541],[-73.667771,40.734515],[-73.668487,40.734418],[-73.668586,40.734403],[-73.668816,40.734367],[-73.669366,40.734279],[-73.669474,40.734262],[-73.669844,40.734206],[-73.669998,40.734182],[-73.670358,40.734113],[-73.670445,40.734096],[-73.670745,40.734049],[-73.671087,40.733995],[-73.671182,40.734005],[-73.671289,40.734016],[-73.671133,40.733387],[-73.671081,40.733171],[-73.670967,40.733185],[-73.670959,40.733091],[-73.672023,40.732897],[-73.673152,40.732632],[-73.674893,40.732226],[-73.676306,40.731865],[-73.677774,40.731504],[-73.679145,40.731168],[-73.679833,40.731009],[-73.67996,40.730978],[-73.679903,40.730697],[-73.679798,40.730141],[-73.679718,40.729713],[-73.679705,40.729637],[-73.67945,40.729667],[-73.679049,40.729714],[-73.679061,40.729404],[-73.679071,40.729193],[-73.679243,40.729138],[-73.679243,40.728847],[-73.679626,40.728782],[-73.67977,40.728753],[-73.679651,40.728407],[-73.679606,40.728277],[-73.679609,40.728194],[-73.679616,40.728003],[-73.67963,40.727654],[-73.679632,40.727619],[-73.679659,40.727619],[-73.680083,40.727625],[-73.680102,40.727268],[-73.68035,40.727268],[-73.680356,40.726919],[-73.680575,40.726919],[-73.680614,40.725821],[-73.681074,40.725812],[-73.681177,40.72581],[-73.681559,40.725815],[-73.681559,40.725768],[-73.681553,40.725206],[-73.68141,40.725205],[-73.68142,40.7249],[-73.681329,40.724833],[-73.681678,40.724834],[-73.68208,40.724835],[-73.682534,40.724835],[-73.682534,40.724454],[-73.682602,40.724455],[-73.682631,40.72314],[-73.682655,40.723011],[-73.682746,40.721608],[-73.682831,40.719332],[-73.682843,40.719277],[-73.682864,40.718818],[-73.682906,40.717679],[-73.682918,40.717333],[-73.68293,40.71699],[-73.682935,40.716945],[-73.682924,40.716673],[-73.682907,40.71655],[-73.682594,40.716534],[-73.682481,40.716522],[-73.682353,40.716508],[-73.682176,40.716512],[-73.681628,40.716525],[-73.681538,40.716526],[-73.681053,40.716529],[-73.680326,40.716535],[-73.679635,40.716539],[-73.67816,40.716557],[-73.677963,40.716555],[-73.677521,40.716543],[-73.676806,40.71657],[-73.676147,40.716579],[-73.675129,40.716594],[-73.674618,40.716601],[-73.674124,40.716607],[-73.673393,40.716617],[-73.672997,40.716622],[-73.672406,40.71663],[-73.672326,40.716644],[-73.672284,40.716651],[-73.671817,40.716633],[-73.671104,40.716609],[-73.670748,40.717647],[-73.67017,40.717638],[-73.67004,40.717636],[-73.669334,40.717626],[-73.66892,40.717619],[-73.668364,40.71761],[-73.667782,40.717601],[-73.667054,40.717591],[-73.665416,40.717556],[-73.664695,40.717539],[-73.664499,40.717518],[-73.664117,40.717574],[-73.663694,40.717572],[-73.662792,40.717569],[-73.661893,40.717567],[-73.66099,40.717556],[-73.660994,40.717401],[-73.6601,40.717349],[-73.660073,40.71737],[-73.660017,40.717373],[-73.659782,40.717369],[-73.659214,40.717354],[-73.6592,40.717331],[-73.659174,40.716511],[-73.659117,40.716511],[-73.65896,40.716519],[-73.658552,40.716564],[-73.65829,40.716594],[-73.658226,40.716601],[-73.658006,40.716625],[-73.657615,40.716667],[-73.657604,40.716618],[-73.657207,40.716662],[-73.657215,40.716704],[-73.656853,40.716746],[-73.65675,40.71675],[-73.656655,40.716754],[-73.656028,40.716821],[-73.655421,40.71686],[-73.652921,40.717152],[-73.652216,40.71722],[-73.652042,40.717242],[-73.651927,40.717166],[-73.65191,40.717154],[-73.651797,40.717072],[-73.651772,40.717042],[-73.651625,40.71695],[-73.651366,40.716777],[-73.651197,40.716645],[-73.651132,40.716554],[-73.651074,40.7164],[-73.651314,40.716317],[-73.651553,40.716233],[-73.652372,40.715967],[-73.652642,40.715878],[-73.653229,40.715684],[-73.653526,40.71558],[-73.654137,40.715386],[-73.65479,40.715169],[-73.655039,40.715097],[-73.655226,40.715031],[-73.655414,40.714966],[-73.655555,40.712385],[-73.655668,40.710399],[-73.65567,40.710369],[-73.655728,40.710375],[-73.656553,40.710473],[-73.657449,40.710573],[-73.657383,40.710518],[-73.657409,40.710401],[-73.657474,40.710133],[-73.657518,40.709941],[-73.657748,40.708895],[-73.657796,40.708639],[-73.657837,40.708369],[-73.657556,40.708233],[-73.656278,40.707615],[-73.655673,40.707317],[-73.656541,40.706536],[-73.657046,40.70608],[-73.657324,40.705829],[-73.657476,40.705658],[-73.657623,40.705677],[-73.657834,40.704971],[-73.658021,40.704304],[-73.658239,40.703602],[-73.658431,40.702955],[-73.658609,40.702417],[-73.658643,40.70228],[-73.658996,40.700876],[-73.659054,40.700649],[-73.659112,40.700368],[-73.659153,40.700149],[-73.65926,40.700018],[-73.659666,40.699519],[-73.659767,40.699364],[-73.659883,40.699127],[-73.65966,40.697033],[-73.660048,40.696948],[-73.660041,40.696428],[-73.660051,40.695857],[-73.660096,40.695671],[-73.660148,40.695467],[-73.662885,40.695499],[-73.662985,40.693448],[-73.664542,40.692879],[-73.665541,40.692435],[-73.666344,40.692151],[-73.666532,40.692045],[-73.666627,40.691957],[-73.666667,40.691894],[-73.666754,40.691873],[-73.666773,40.69177],[-73.667671,40.691803],[-73.667662,40.691938],[-73.667609,40.692289],[-73.66759,40.692344],[-73.667987,40.692386],[-73.668214,40.692369],[-73.668363,40.692297],[-73.668659,40.69205],[-73.668638,40.692007],[-73.668642,40.691985],[-73.66879,40.691764],[-73.669163,40.691572],[-73.669275,40.691528],[-73.669463,40.691488],[-73.669636,40.691466],[-73.671108,40.691361],[-73.671484,40.69132],[-73.671901,40.691311],[-73.672663,40.690761],[-73.672666,40.690681],[-73.672958,40.690608],[-73.673175,40.690579],[-73.673506,40.690572],[-73.673867,40.690594],[-73.674141,40.690642],[-73.674431,40.690704],[-73.674363,40.690843],[-73.674327,40.690964],[-73.67428,40.691233],[-73.674871,40.691183],[-73.674936,40.691176],[-73.675018,40.691194],[-73.683572,40.693228],[-73.683664,40.693064],[-73.684486,40.693332],[-73.684702,40.693403],[-73.685067,40.693522],[-73.685318,40.693599],[-73.685538,40.693667],[-73.685782,40.69375],[-73.685838,40.69377],[-73.686139,40.693872],[-73.686825,40.694092],[-73.686882,40.694114],[-73.686918,40.694144],[-73.686932,40.694202],[-73.686927,40.694212],[-73.686892,40.694292],[-73.686522,40.694952],[-73.686453,40.695063],[-73.686636,40.695123],[-73.687462,40.695389],[-73.687918,40.695175],[-73.689251,40.694551],[-73.689792,40.694298],[-73.690214,40.693964],[-73.691097,40.693443],[-73.691984,40.692922],[-73.692363,40.692722],[-73.693202,40.692278],[-73.693967,40.691833],[-73.694152,40.691491],[-73.694758,40.691312],[-73.694848,40.69116],[-73.695178,40.691242],[-73.695512,40.69077],[-73.695656,40.690841],[-73.696052,40.690682],[-73.696233,40.690255],[-73.696626,40.690309],[-73.696751,40.690063],[-73.696846,40.690032],[-73.696925,40.69002],[-73.69699,40.690037],[-73.697192,40.689722],[-73.697893,40.689543],[-73.698111,40.689582],[-73.698285,40.689227],[-73.698397,40.689245],[-73.698577,40.688946],[-73.698688,40.68891],[-73.698799,40.688944],[-73.698886,40.688706],[-73.699001,40.688663],[-73.699185,40.688557],[-73.699345,40.688545],[-73.699523,40.688602],[-73.699642,40.688282],[-73.700015,40.688384],[-73.7001,40.688183],[-73.700174,40.688197],[-73.7003,40.687922],[-73.700362,40.687812],[-73.70042,40.687743],[-73.700503,40.687678],[-73.700693,40.687592],[-73.700875,40.687506],[-73.700987,40.687418],[-73.701052,40.687339],[-73.701098,40.687224],[-73.701751,40.686665],[-73.702124,40.68617],[-73.702229,40.686146],[-73.704136,40.685724],[-73.704876,40.685561],[-73.706101,40.68366],[-73.7063,40.683751],[-73.706421,40.683803],[-73.706814,40.683971],[-73.707116,40.684101],[-73.707667,40.683762],[-73.707848,40.683659],[-73.708534,40.683271],[-73.70936,40.682957],[-73.710436,40.682666],[-73.710676,40.682379],[-73.710745,40.682311],[-73.711115,40.682118],[-73.71185,40.681703],[-73.711979,40.681551],[-73.712316,40.681088],[-73.712395,40.680904],[-73.712611,40.680593],[-73.712303,40.680468],[-73.712605,40.679944],[-73.712923,40.679268],[-73.713257,40.67862],[-73.714025,40.678973],[-73.714062,40.678921],[-73.714124,40.678808],[-73.714158,40.678818],[-73.714887,40.677565],[-73.715649,40.677953],[-73.717179,40.678707],[-73.717789,40.679121],[-73.718374,40.679494],[-73.719066,40.679765],[-73.719291,40.679864],[-73.719441,40.679922],[-73.720034,40.680255],[-73.720762,40.680661],[-73.721489,40.681067],[-73.722215,40.681472],[-73.722942,40.681878],[-73.723669,40.682283],[-73.724395,40.682689],[-73.725121,40.683093],[-73.725725,40.683429],[-73.725783,40.683335],[-73.725861,40.683223],[-73.725843,40.683575],[-73.725821,40.68395],[-73.725798,40.684354],[-73.725878,40.685514],[-73.725911,40.686085],[-73.725918,40.686099],[-73.725926,40.686225],[-73.725941,40.686399],[-73.725996,40.686932],[-73.726089,40.687774],[-73.726158,40.68847],[-73.726175,40.68865],[-73.7262,40.688984],[-73.726217,40.689306],[-73.726231,40.68966],[-73.726239,40.689815],[-73.726259,40.690269],[-73.726258,40.690611],[-73.726263,40.690773],[-73.726503,40.696886],[-73.726509,40.697522],[-73.726511,40.697781],[-73.726525,40.698258],[-73.726544,40.698983],[-73.726654,40.701112],[-73.726713,40.701448],[-73.726738,40.701588],[-73.726783,40.701987],[-73.726751,40.70208],[-73.726728,40.702146],[-73.726746,40.702473],[-73.726762,40.702768],[-73.726767,40.702872],[-73.726772,40.702954],[-73.726779,40.703082],[-73.726781,40.703145],[-73.726835,40.704406],[-73.726871,40.705237],[-73.726895,40.7058],[-73.727047,40.709497],[-73.726896,40.709976],[-73.7269,40.709997],[-73.726971,40.710715],[-73.727086,40.711259],[-73.727094,40.711293],[-73.727165,40.711588],[-73.727317,40.712216],[-73.727332,40.712272],[-73.727364,40.712392],[-73.727511,40.712951],[-73.727698,40.713662],[-73.728064,40.715051],[-73.728188,40.715524],[-73.728313,40.715998],[-73.728418,40.716391],[-73.728501,40.716706],[-73.728554,40.716898],[-73.728576,40.71698],[-73.72894,40.718306],[-73.729176,40.719167],[-73.729255,40.719381],[-73.729433,40.719865],[-73.729661,40.720483],[-73.729695,40.720571],[-73.730326,40.722157],[-73.729885,40.722393]]]}},{"type":"Feature","properties":{"STATEFP":"36","SCSDLEA":"29520","GEOID":"3629520","GEOIDFQ":"9600000US3629520","NAME":"Valley Stream Central High School District","LSAD":"00","LOGRADE":"07","HIGRADE":"12","MTFCC":"G5410","SDTYP":"","FUNCSTAT":"E","ALAND":16417258,"AWATER":44613,"INTPTLAT":"+40.6696221","INTPTLON":"-073.7009502"},"geometry":{"type":"Polygon","coordinates":[[[-73.728331,40.663044],[-73.728085,40.663071],[-73.727814,40.663224],[-73.727763,40.663985],[-73.727815,40.66469],[-73.727823,40.664806],[-73.72784,40.665053],[-73.727954,40.665344],[-73.728031,40.665519],[-73.728224,40.665965],[-73.728272,40.66644],[-73.728264,40.666606],[-73.728222,40.667314],[-73.728264,40.668073],[-73.728178,40.668719],[-73.728095,40.669442],[-73.728,40.670112],[-73.727937,40.670546],[-73.727941,40.670809],[-73.727905,40.67084],[-73.727887,40.67105],[-73.727855,40.671261],[-73.72784,40.671389],[-73.727833,40.671445],[-73.727829,40.671474],[-73.727813,40.671612],[-73.727789,40.671788],[-73.727726,40.67228],[-73.727681,40.672646],[-73.727632,40.673032],[-73.727577,40.673476],[-73.727528,40.673871],[-73.727547,40.674084],[-73.727557,40.674101],[-73.727542,40.67416],[-73.727441,40.674429],[-73.727301,40.674739],[-73.727141,40.675096],[-73.726945,40.675552],[-73.726851,40.675769],[-73.726713,40.67609],[-73.726543,40.676487],[-73.726456,40.676748],[-73.726355,40.676973],[-73.726198,40.677381],[-73.726011,40.678078],[-73.725903,40.678507],[-73.725841,40.678753],[-73.725788,40.678962],[-73.72563,40.679588],[-73.725687,40.68025],[-73.725714,40.680529],[-73.725754,40.680946],[-73.725796,40.68136],[-73.725824,40.681636],[-73.725907,40.682657],[-73.725861,40.683223],[-73.725783,40.683335],[-73.725725,40.683429],[-73.725121,40.683093],[-73.724395,40.682689],[-73.723669,40.682283],[-73.722942,40.681878],[-73.722215,40.681472],[-73.721489,40.681067],[-73.720762,40.680661],[-73.720034,40.680255],[-73.719441,40.679922],[-73.719291,40.679864],[-73.719066,40.679765],[-73.718374,40.679494],[-73.717789,40.679121],[-73.717179,40.678707],[-73.715649,40.677953],[-73.714887,40.677565],[-73.714158,40.678818],[-73.714124,40.678808],[-73.714062,40.678921],[-73.714025,40.678973],[-73.713257,40.67862],[-73.712923,40.679268],[-73.712605,40.679944],[-73.712303,40.680468],[-73.712611,40.680593],[-73.712395,40.680904],[-73.712316,40.681088],[-73.711979,40.681551],[-73.71185,40.681703],[-73.711115,40.682118],[-73.710745,40.682311],[-73.710676,40.682379],[-73.710436,40.682666],[-73.70936,40.682957],[-73.708534,40.683271],[-73.707848,40.683659],[-73.707667,40.683762],[-73.707116,40.684101],[-73.706814,40.683971],[-73.706421,40.683803],[-73.7063,40.683751],[-73.706101,40.68366],[-73.704876,40.685561],[-73.704136,40.685724],[-73.702229,40.686146],[-73.702124,40.68617],[-73.701751,40.686665],[-73.701098,40.687224],[-73.701052,40.687339],[-73.700987,40.687418],[-73.700875,40.687506],[-73.700693,40.687592],[-73.700503,40.687678],[-73.70042,40.687743],[-73.700362,40.687812],[-73.7003,40.687922],[-73.700174,40.688197],[-73.7001,40.688183],[-73.700015,40.688384],[-73.699642,40.688282],[-73.699523,40.688602],[-73.699345,40.688545],[-73.699185,40.688557],[-73.699001,40.688663],[-73.698886,40.688706],[-73.698799,40.688944],[-73.698688,40.68891],[-73.698577,40.688946],[-73.698397,40.689245],[-73.698285,40.689227],[-73.698111,40.689582],[-73.697893,40.689543],[-73.697192,40.689722],[-73.69699,40.690037],[-73.696925,40.69002],[-73.696846,40.690032],[-73.696751,40.690063],[-73.696626,40.690309],[-73.696233,40.690255],[-73.696052,40.690682],[-73.695656,40.690841],[-73.695512,40.69077],[-73.695178,40.691242],[-73.694848,40.69116],[-73.694758,40.691312],[-73.694152,40.691491],[-73.693967,40.691833],[-73.693202,40.692278],[-73.692363,40.692722],[-73.691984,40.692922],[-73.691097,40.693443],[-73.690214,40.693964],[-73.689792,40.694298],[-73.689251,40.694551],[-73.687918,40.695175],[-73.687462,40.695389],[-73.686636,40.695123],[-73.686453,40.695063],[-73.686522,40.694952],[-73.686892,40.694292],[-73.686927,40.694212],[-73.686932,40.694202],[-73.686918,40.694144],[-73.686882,40.694114],[-73.686825,40.694092],[-73.686139,40.693872],[-73.685838,40.69377],[-73.685782,40.69375],[-73.685538,40.693667],[-73.685318,40.693599],[-73.685067,40.693522],[-73.684702,40.693403],[-73.684486,40.693332],[-73.683664,40.693064],[-73.683572,40.693228],[-73.675018,40.691194],[-73.674936,40.691176],[-73.674871,40.691183],[-73.67428,40.691233],[-73.674327,40.690964],[-73.674363,40.690843],[-73.674431,40.690704],[-73.674141,40.690642],[-73.673867,40.690594],[-73.673506,40.690572],[-73.673175,40.690579],[-73.672958,40.690608],[-73.672666,40.690681],[-73.672663,40.690761],[-73.671901,40.691311],[-73.671484,40.69132],[-73.671108,40.691361],[-73.669636,40.691466],[-73.669463,40.691488],[-73.669275,40.691528],[-73.669163,40.691572],[-73.66879,40.691764],[-73.668642,40.691985],[-73.668638,40.692007],[-73.668659,40.69205],[-73.668363,40.692297],[-73.668214,40.692369],[-73.667987,40.692386],[-73.66759,40.692344],[-73.667609,40.692289],[-73.667662,40.691938],[-73.667671,40.691803],[-73.66773,40.690965],[-73.667848,40.689291],[-73.667936,40.687967],[-73.668032,40.686428],[-73.668092,40.685739],[-73.66815,40.685138],[-73.668158,40.684896],[-73.668138,40.684567],[-73.668098,40.68425],[-73.668017,40.683573],[-73.667964,40.683419],[-73.66787,40.683323],[-73.667383,40.683155],[-73.667153,40.682928],[-73.667224,40.682841],[-73.667296,40.682755],[-73.667703,40.682261],[-73.667935,40.682217],[-73.668733,40.682052],[-73.668774,40.681934],[-73.669478,40.681805],[-73.669614,40.681881],[-73.669666,40.681767],[-73.669867,40.681749],[-73.669888,40.68201],[-73.670341,40.681878],[-73.670521,40.681865],[-73.670607,40.681843],[-73.670679,40.681808],[-73.671073,40.681562],[-73.671356,40.681372],[-73.6717,40.68113],[-73.671826,40.681026],[-73.671949,40.680908],[-73.672248,40.680619],[-73.672605,40.680279],[-73.672752,40.68012],[-73.672836,40.680048],[-73.673415,40.679526],[-73.674071,40.678967],[-73.675091,40.67808],[-73.67412,40.677776],[-73.67363,40.677624],[-73.673983,40.676789],[-73.674548,40.675246],[-73.674389,40.675198],[-73.674288,40.675181],[-73.674202,40.675186],[-73.674092,40.675227],[-73.674191,40.674967],[-73.674728,40.674163],[-73.675022,40.674291],[-73.67556,40.673372],[-73.675596,40.673186],[-73.675222,40.673023],[-73.67502,40.672913],[-73.674972,40.672874],[-73.674733,40.672723],[-73.674401,40.672444],[-73.674277,40.672334],[-73.674491,40.672207],[-73.67551,40.671606],[-73.676033,40.671297],[-73.676616,40.670956],[-73.680018,40.668995],[-73.680542,40.668711],[-73.683677,40.667016],[-73.687753,40.664561],[-73.689195,40.663728],[-73.690847,40.662782],[-73.69032,40.662619],[-73.689594,40.662382],[-73.6888,40.662129],[-73.688325,40.661977],[-73.687967,40.661863],[-73.688008,40.661671],[-73.688185,40.661202],[-73.688406,40.660628],[-73.688696,40.659904],[-73.688929,40.659338],[-73.689258,40.658539],[-73.689496,40.657894],[-73.689568,40.657717],[-73.689659,40.657493],[-73.689768,40.657294],[-73.689668,40.65727],[-73.689622,40.657248],[-73.688936,40.657028],[-73.688158,40.656778],[-73.68732,40.656513],[-73.686689,40.65631],[-73.685164,40.655822],[-73.684152,40.655501],[-73.683684,40.655349],[-73.683583,40.655307],[-73.683439,40.655216],[-73.682819,40.654758],[-73.682071,40.654209],[-73.681491,40.653784],[-73.681373,40.653704],[-73.682209,40.653351],[-73.683059,40.652996],[-73.684181,40.652499],[-73.68509,40.652039],[-73.68539,40.651858],[-73.686026,40.651507],[-73.686037,40.65149],[-73.686141,40.651453],[-73.686276,40.65137],[-73.686568,40.651215],[-73.686818,40.651092],[-73.686875,40.651064],[-73.687222,40.650909],[-73.688067,40.650561],[-73.688825,40.65032],[-73.689134,40.650231],[-73.689368,40.650171],[-73.689663,40.650068],[-73.689862,40.649978],[-73.689999,40.650083],[-73.690217,40.650261],[-73.690326,40.650334],[-73.690436,40.650406],[-73.690564,40.650453],[-73.690824,40.650449],[-73.691037,40.650417],[-73.691174,40.650373],[-73.691526,40.65021],[-73.691619,40.650125],[-73.691781,40.650013],[-73.69193,40.649939],[-73.69202,40.649906],[-73.692175,40.649871],[-73.692247,40.64986],[-73.692373,40.649847],[-73.693066,40.649851],[-73.693971,40.649856],[-73.694889,40.649864],[-73.695804,40.649871],[-73.696698,40.649876],[-73.696755,40.649886],[-73.696777,40.649875],[-73.697611,40.649879],[-73.698513,40.649886],[-73.699415,40.649889],[-73.700316,40.649895],[-73.700651,40.649902],[-73.701271,40.649898],[-73.701325,40.650581],[-73.701589,40.650442],[-73.701661,40.650415],[-73.701755,40.650352],[-73.701797,40.650346],[-73.70236,40.65026],[-73.702365,40.650127],[-73.702924,40.649888],[-73.703725,40.649545],[-73.704335,40.649281],[-73.704534,40.649217],[-73.704737,40.649188],[-73.705087,40.649094],[-73.705392,40.64902],[-73.706,40.648869],[-73.706254,40.648811],[-73.707374,40.648537],[-73.707492,40.648701],[-73.707819,40.649134],[-73.708273,40.649745],[-73.708345,40.649845],[-73.708422,40.649986],[-73.708676,40.649996],[-73.708956,40.650033],[-73.709451,40.650098],[-73.711197,40.650324],[-73.711385,40.650346],[-73.711557,40.65038],[-73.71173,40.650432],[-73.711964,40.650534],[-73.712365,40.65075],[-73.712457,40.6508],[-73.712476,40.650811],[-73.712925,40.651056],[-73.713189,40.651201],[-73.713271,40.651243],[-73.713568,40.651395],[-73.713701,40.651448],[-73.713974,40.651558],[-73.714399,40.651641],[-73.714615,40.651677],[-73.714874,40.651705],[-73.715112,40.651714],[-73.715401,40.651712],[-73.716165,40.651648],[-73.716307,40.651644],[-73.716569,40.651625],[-73.716799,40.651625],[-73.717051,40.651643],[-73.717376,40.651665],[-73.717965,40.651748],[-73.718499,40.651819],[-73.718701,40.651836],[-73.718811,40.651856],[-73.720704,40.652107],[-73.721251,40.652179],[-73.721418,40.652215],[-73.721561,40.652235],[-73.721964,40.652338],[-73.722504,40.652523],[-73.722741,40.652619],[-73.723065,40.65275],[-73.723706,40.65301],[-73.724063,40.653154],[-73.724165,40.653194],[-73.724597,40.653364],[-73.724874,40.653447],[-73.724787,40.654001],[-73.725335,40.655324],[-73.725759,40.656998],[-73.725882,40.657537],[-73.725927,40.657731],[-73.726027,40.657996],[-73.726211,40.658479],[-73.726444,40.659162],[-73.72681,40.659795],[-73.727208,40.660422],[-73.727592,40.661094],[-73.727931,40.661749],[-73.728153,40.662454],[-73.728331,40.663044]]]}}]}