{"type":"FeatureCollection","name":"tl_2025_21_elsd","crs":{"type":"name","properties":{"name":"urn:ogc:def:crs:OGC:1.3:CRS84"}},"features":[{"type":"Feature","properties":{"STATEFP":"21","ELSDLEA":"00090","GEOID":"2100090","GEOIDFQ":"9500000US2100090","NAME":"Anchorage Independent School District","LSAD":"00","LOGRADE":"KG","HIGRADE":"08","MTFCC":"G5400","SDTYP":"","FUNCSTAT":"E","ALAND":7746298,"AWATER":39589,"INTPTLAT":"+38.2697855","INTPTLON":"-085.5376327"},"geometry":{"type":"Polygon","coordinates":[[[-85.555913,38.266521],[-85.555875,38.266666],[-85.555619,38.267098],[-85.555567,38.267219],[-85.55555,38.267238],[-85.554275,38.26692],[-85.552432,38.266467],[-85.552432,38.266522],[-85.552411,38.26665],[-85.552275,38.26703],[-85.551962,38.267928],[-85.551595,38.269007],[-85.551524,38.269191],[-85.551511,38.269225],[-85.551463,38.269348],[-85.55218,38.269555],[-85.552347,38.269604],[-85.551936,38.27048],[-85.551645,38.271111],[-85.55161,38.271186],[-85.551406,38.27177],[-85.55136,38.272707],[-85.551672,38.27457],[-85.549585,38.275229],[-85.549915,38.275905],[-85.547639,38.276488],[-85.547044,38.276634],[-85.546481,38.276781],[-85.545907,38.276925],[-85.545615,38.276998],[-85.545941,38.277695],[-85.546187,38.278209],[-85.546429,38.27867],[-85.546577,38.278952],[-85.546587,38.278971],[-85.546595,38.278986],[-85.546611,38.27898],[-85.546628,38.279033],[-85.546635,38.279062],[-85.546707,38.27931],[-85.546398,38.279403],[-85.546118,38.279481],[-85.546036,38.279491],[-85.545952,38.279507],[-85.545872,38.279528],[-85.545788,38.279562],[-85.545472,38.279659],[-85.54393,38.280115],[-85.542429,38.280543],[-85.542278,38.280589],[-85.54209,38.280655],[-85.541641,38.280818],[-85.541223,38.280961],[-85.540878,38.281065],[-85.538824,38.281662],[-85.538571,38.28173],[-85.538523,38.281736],[-85.538476,38.281733],[-85.538451,38.281727],[-85.537092,38.28215],[-85.537048,38.282194],[-85.53609,38.282461],[-85.527055,38.285275],[-85.52667,38.28539],[-85.522706,38.286581],[-85.522092,38.286755],[-85.521925,38.286497],[-85.520839,38.284647],[-85.519257,38.283867],[-85.519069,38.283732],[-85.518152,38.283067],[-85.51825,38.28258],[-85.518355,38.282065],[-85.519945,38.281654],[-85.519909,38.281558],[-85.520052,38.281556],[-85.519666,38.280723],[-85.519503,38.280356],[-85.519294,38.279856],[-85.519278,38.279849],[-85.518844,38.278672],[-85.518331,38.27799],[-85.518301,38.277897],[-85.518284,38.277865],[-85.518254,38.277826],[-85.518491,38.277486],[-85.519902,38.27546],[-85.521118,38.27377],[-85.521462,38.27327],[-85.521547,38.273148],[-85.521434,38.273113],[-85.521546,38.272955],[-85.522586,38.271437],[-85.522667,38.271328],[-85.525031,38.267919],[-85.525522,38.267217],[-85.526128,38.266358],[-85.526236,38.266207],[-85.526518,38.265804],[-85.526681,38.26557],[-85.526841,38.265342],[-85.52702,38.265109],[-85.52716,38.26495],[-85.527215,38.264895],[-85.526472,38.264048],[-85.526297,38.261727],[-85.525352,38.2615],[-85.523892,38.261151],[-85.52346,38.260981],[-85.523542,38.260931],[-85.523584,38.260917],[-85.523628,38.260908],[-85.523663,38.260907],[-85.523774,38.260912],[-85.523764,38.260843],[-85.523748,38.260716],[-85.523522,38.259364],[-85.523725,38.259342],[-85.523901,38.260446],[-85.524457,38.260492],[-85.526148,38.260633],[-85.526076,38.260068],[-85.526052,38.259776],[-85.525868,38.258506],[-85.525798,38.258017],[-85.526685,38.257663],[-85.526826,38.257612],[-85.52684,38.257601],[-85.526864,38.2576],[-85.527032,38.25755],[-85.527033,38.257525],[-85.527037,38.257481],[-85.527035,38.257469],[-85.527023,38.257336],[-85.526997,38.257231],[-85.526938,38.25704],[-85.526813,38.256733],[-85.526796,38.25669],[-85.526739,38.256565],[-85.526722,38.256536],[-85.529331,38.255996],[-85.529221,38.255916],[-85.529008,38.255234],[-85.530635,38.254433],[-85.530948,38.254283],[-85.531532,38.253998],[-85.531743,38.253886],[-85.532059,38.253735],[-85.532431,38.253586],[-85.532615,38.253495],[-85.533465,38.253142],[-85.533533,38.253293],[-85.53376,38.2538],[-85.533885,38.253768],[-85.534033,38.253736],[-85.535138,38.25346],[-85.537426,38.252882],[-85.538012,38.252726],[-85.538424,38.252627],[-85.539724,38.252303],[-85.541024,38.251979],[-85.541913,38.251753],[-85.542287,38.251659],[-85.542315,38.251725],[-85.542339,38.251781],[-85.542395,38.251914],[-85.542632,38.252478],[-85.543015,38.253395],[-85.543915,38.255611],[-85.54457,38.255411],[-85.545893,38.255026],[-85.546046,38.254971],[-85.546206,38.254913],[-85.546339,38.254878],[-85.54739,38.254568],[-85.547688,38.255246],[-85.547954,38.255841],[-85.548498,38.257017],[-85.548662,38.256975],[-85.54929,38.256801],[-85.549538,38.256732],[-85.549664,38.257018],[-85.549742,38.25719],[-85.549863,38.257465],[-85.55007,38.25793],[-85.550218,38.258277],[-85.550295,38.258437],[-85.551842,38.258164],[-85.551869,38.258152],[-85.551961,38.258334],[-85.552272,38.258234],[-85.552816,38.259279],[-85.553991,38.261556],[-85.554555,38.262304],[-85.55492,38.263076],[-85.555092,38.263174],[-85.555215,38.26329],[-85.555269,38.26342],[-85.555261,38.26357],[-85.555202,38.263707],[-85.555155,38.263927],[-85.555095,38.264053],[-85.555035,38.264293],[-85.554897,38.264888],[-85.555353,38.265422],[-85.555885,38.266044],[-85.555951,38.266353],[-85.555913,38.266521]]]}},{"type":"Feature","properties":{"STATEFP":"21","ELSDLEA":"01590","GEOID":"2101590","GEOIDFQ":"9500000US2101590","NAME":"East Bernstadt Independent School District","LSAD":"00","LOGRADE":"PK","HIGRADE":"08","MTFCC":"G5400","SDTYP":"","FUNCSTAT":"E","ALAND":13329705,"AWATER":42084,"INTPTLAT":"+37.1895952","INTPTLON":"-084.1132867"},"geometry":{"type":"Polygon","coordinates":[[[-84.146251,37.192377],[-84.146239,37.192396],[-84.146234,37.192406],[-84.146221,37.192425],[-84.146204,37.192455],[-84.146154,37.19256],[-84.145932,37.192814],[-84.145878,37.19286],[-84.145814,37.192912],[-84.145745,37.19297],[-84.145505,37.193184],[-84.145398,37.193256],[-84.145279,37.193317],[-84.145041,37.193428],[-84.144919,37.193476],[-84.144572,37.193587],[-84.14435,37.193634],[-84.144245,37.193659],[-84.144036,37.193731],[-84.143929,37.193771],[-84.143823,37.193813],[-84.143723,37.193855],[-84.143639,37.193906],[-84.143552,37.193949],[-84.143366,37.194046],[-84.143227,37.194117],[-84.142975,37.194244],[-84.142891,37.194288],[-84.142812,37.194324],[-84.142746,37.194363],[-84.142625,37.194428],[-84.142429,37.194542],[-84.142352,37.194589],[-84.142327,37.194603],[-84.142179,37.194693],[-84.141887,37.194866],[-84.141786,37.194927],[-84.141581,37.195056],[-84.141259,37.195264],[-84.141028,37.195416],[-84.140911,37.195495],[-84.140682,37.195653],[-84.140351,37.195886],[-84.140241,37.195967],[-84.140015,37.19614],[-84.139668,37.196402],[-84.139553,37.196492],[-84.139323,37.19666],[-84.138838,37.197023],[-84.138712,37.197115],[-84.138588,37.197209],[-84.138334,37.197389],[-84.138288,37.197419],[-84.138208,37.197474],[-84.138088,37.19756],[-84.137973,37.19764],[-84.13786,37.197714],[-84.137628,37.197859],[-84.137388,37.198002],[-84.137263,37.198068],[-84.137219,37.19809],[-84.137136,37.198129],[-84.137004,37.198185],[-84.136867,37.198231],[-84.136723,37.198268],[-84.136429,37.198333],[-84.136278,37.198365],[-84.136124,37.198396],[-84.135968,37.198429],[-84.135658,37.198498],[-84.135357,37.198551],[-84.135214,37.198574],[-84.135074,37.198594],[-84.13504,37.198597],[-84.134938,37.198606],[-84.134798,37.198608],[-84.134504,37.198591],[-84.134352,37.19858],[-84.134196,37.198573],[-84.134042,37.198565],[-84.132994,37.198543],[-84.132792,37.198542],[-84.132669,37.19854],[-84.132351,37.198525],[-84.132074,37.198509],[-84.13193,37.198498],[-84.131827,37.198491],[-84.131705,37.198489],[-84.13158,37.198489],[-84.131454,37.198487],[-84.131327,37.198482],[-84.131202,37.198462],[-84.131082,37.19843],[-84.130892,37.198285],[-84.130816,37.198213],[-84.13073,37.198136],[-84.130638,37.19806],[-84.130535,37.197999],[-84.130428,37.197945],[-84.130324,37.197887],[-84.130222,37.197833],[-84.130128,37.197785],[-84.130034,37.197751],[-84.12994,37.197726],[-84.129727,37.197675],[-84.129606,37.197644],[-84.129369,37.197575],[-84.129209,37.197525],[-84.128934,37.197436],[-84.128795,37.197389],[-84.128649,37.197351],[-84.1285,37.19731],[-84.128351,37.197258],[-84.128194,37.197221],[-84.127892,37.197125],[-84.127606,37.19703],[-84.127466,37.196991],[-84.127325,37.196965],[-84.12718,37.196951],[-84.127032,37.196949],[-84.126882,37.196957],[-84.126723,37.196967],[-84.126554,37.196974],[-84.126381,37.19698],[-84.126211,37.196987],[-84.126044,37.196986],[-84.125884,37.196994],[-84.125739,37.196999],[-84.125608,37.197008],[-84.125483,37.197021],[-84.125225,37.197056],[-84.125093,37.197079],[-84.12469,37.197164],[-84.124411,37.197213],[-84.124271,37.19723],[-84.124141,37.197244],[-84.124026,37.197254],[-84.123926,37.197261],[-84.123773,37.197268],[-84.123671,37.19727],[-84.123636,37.19727],[-84.123568,37.197272],[-84.123561,37.197308],[-84.12354,37.197492],[-84.123528,37.197585],[-84.123513,37.19768],[-84.123495,37.197772],[-84.123456,37.197862],[-84.12342,37.197905],[-84.123387,37.197945],[-84.123295,37.198015],[-84.123189,37.198079],[-84.123079,37.198139],[-84.122963,37.198199],[-84.122846,37.198262],[-84.122629,37.198412],[-84.122538,37.198504],[-84.122321,37.198927],[-84.122291,37.19904],[-84.122238,37.199266],[-84.122211,37.199375],[-84.122199,37.199409],[-84.122175,37.199476],[-84.122122,37.199569],[-84.122046,37.199648],[-84.121957,37.199714],[-84.121861,37.19977],[-84.121788,37.199809],[-84.121489,37.199961],[-84.121403,37.200007],[-84.12123,37.200096],[-84.12105,37.200187],[-84.120953,37.200237],[-84.120852,37.200287],[-84.120665,37.200383],[-84.120649,37.200392],[-84.120579,37.20043],[-84.120525,37.200459],[-84.120477,37.200486],[-84.120431,37.200512],[-84.120377,37.200545],[-84.120367,37.200553],[-84.120318,37.200587],[-84.120262,37.200642],[-84.120219,37.200709],[-84.120192,37.200787],[-84.120146,37.20096],[-84.120121,37.20107],[-84.120077,37.201153],[-84.120018,37.201272],[-84.119985,37.201343],[-84.11993,37.20144],[-84.119866,37.201535],[-84.119795,37.201627],[-84.119717,37.201719],[-84.119636,37.201811],[-84.119552,37.201904],[-84.119383,37.202098],[-84.119207,37.202297],[-84.119115,37.202397],[-84.119017,37.202495],[-84.118913,37.202585],[-84.118703,37.202748],[-84.118607,37.202829],[-84.118521,37.202912],[-84.11844,37.202998],[-84.118292,37.203193],[-84.117957,37.203679],[-84.117899,37.203766],[-84.117846,37.20384],[-84.117817,37.203879],[-84.1178,37.203902],[-84.117647,37.204138],[-84.117594,37.204096],[-84.117426,37.204041],[-84.117301,37.20403],[-84.117152,37.20404],[-84.116995,37.20407],[-84.116839,37.204115],[-84.116524,37.204211],[-84.116367,37.204256],[-84.116209,37.204304],[-84.116053,37.20435],[-84.115896,37.204389],[-84.115738,37.204419],[-84.115581,37.204438],[-84.115424,37.204446],[-84.114789,37.204405],[-84.114459,37.20437],[-84.114295,37.204355],[-84.114138,37.204338],[-84.113986,37.20432],[-84.113821,37.204304],[-84.113568,37.20428],[-84.113445,37.204267],[-84.113331,37.204258],[-84.112868,37.20419],[-84.112908,37.204066],[-84.112846,37.204059],[-84.112744,37.204068],[-84.1127,37.204069],[-84.1126,37.204078],[-84.112546,37.204086],[-84.11249,37.204093],[-84.11245,37.204099],[-84.112369,37.204109],[-84.112237,37.204122],[-84.112095,37.204125],[-84.111887,37.204116],[-84.111607,37.204095],[-84.110585,37.204022],[-84.110379,37.204009],[-84.110229,37.203997],[-84.110021,37.203983],[-84.109599,37.203951],[-84.109283,37.203931],[-84.109075,37.203915],[-84.109022,37.20391],[-84.108867,37.203898],[-84.108816,37.203893],[-84.108308,37.203856],[-84.108159,37.203844],[-84.107966,37.203831],[-84.107918,37.203829],[-84.107872,37.203825],[-84.107512,37.203803],[-84.107371,37.203797],[-84.107168,37.203792],[-84.106903,37.203779],[-84.1068,37.203771],[-84.106533,37.203746],[-84.106223,37.203714],[-84.106093,37.203699],[-84.105918,37.203675],[-84.105875,37.203667],[-84.105743,37.203645],[-84.10557,37.203608],[-84.105527,37.203597],[-84.105485,37.203585],[-84.105442,37.203574],[-84.105355,37.203548],[-84.10527,37.20352],[-84.105184,37.203489],[-84.105099,37.203457],[-84.105013,37.203423],[-84.104929,37.203387],[-84.104844,37.203349],[-84.104761,37.203309],[-84.104681,37.203265],[-84.104603,37.20322],[-84.104527,37.203172],[-84.104453,37.203122],[-84.104343,37.203044],[-84.104272,37.20299],[-84.104163,37.20291],[-84.104126,37.202884],[-84.10409,37.202857],[-84.104053,37.202831],[-84.10398,37.202777],[-84.103943,37.202751],[-84.103907,37.202724],[-84.103869,37.202697],[-84.103611,37.202507],[-84.103574,37.202481],[-84.103539,37.202455],[-84.103334,37.202307],[-84.103267,37.202267],[-84.103256,37.202253],[-84.103173,37.202198],[-84.103091,37.202151],[-84.103051,37.20213],[-84.102971,37.202094],[-84.102931,37.202078],[-84.10285,37.202056],[-84.10281,37.202047],[-84.102688,37.202038],[-84.102644,37.202045],[-84.102568,37.202058],[-84.102493,37.20209],[-84.102458,37.202107],[-84.102394,37.202157],[-84.102363,37.202183],[-84.102307,37.202241],[-84.102274,37.202276],[-84.102184,37.20238],[-84.102089,37.202493],[-84.102062,37.202523],[-84.101958,37.202647],[-84.101814,37.202813],[-84.101784,37.202846],[-84.101701,37.202942],[-84.101678,37.202967],[-84.101628,37.203025],[-84.101531,37.203128],[-84.101499,37.203161],[-84.101343,37.203333],[-84.101315,37.203361],[-84.101245,37.203437],[-84.101235,37.203447],[-84.101182,37.203505],[-84.101155,37.203533],[-84.101025,37.203676],[-84.101,37.203705],[-84.100974,37.203733],[-84.100874,37.203851],[-84.100825,37.203911],[-84.1008,37.20394],[-84.100776,37.20397],[-84.10073,37.20403],[-84.100631,37.204177],[-84.1005,37.20449],[-84.100415,37.2047],[-84.100402,37.204729],[-84.100327,37.204909],[-84.100282,37.205012],[-84.100187,37.205218],[-84.100136,37.205319],[-84.100075,37.205417],[-84.099994,37.205507],[-84.099904,37.205591],[-84.099813,37.205673],[-84.09972,37.205754],[-84.099626,37.205834],[-84.099531,37.205913],[-84.099434,37.205992],[-84.099235,37.206144],[-84.099033,37.206292],[-84.098828,37.206438],[-84.098621,37.206583],[-84.098411,37.206725],[-84.098199,37.206865],[-84.097984,37.207002],[-84.097767,37.207137],[-84.097549,37.20727],[-84.097439,37.207336],[-84.097218,37.207466],[-84.096883,37.207659],[-84.096658,37.207785],[-84.096545,37.207847],[-84.09643,37.207908],[-84.096314,37.207967],[-84.096197,37.208024],[-84.096078,37.20808],[-84.095959,37.208134],[-84.095838,37.208187],[-84.095717,37.208238],[-84.095594,37.208287],[-84.09547,37.208335],[-84.095345,37.208381],[-84.095093,37.208468],[-84.094837,37.208549],[-84.094707,37.208589],[-84.094575,37.208625],[-84.094443,37.208654],[-84.094308,37.208671],[-84.094173,37.208677],[-84.094036,37.208676],[-84.093898,37.208669],[-84.09376,37.208658],[-84.093622,37.208643],[-84.093486,37.208627],[-84.093351,37.208608],[-84.093222,37.20857],[-84.093114,37.208524],[-84.092978,37.208466],[-84.092857,37.208411],[-84.092742,37.20835],[-84.092642,37.208276],[-84.092551,37.208194],[-84.092464,37.208109],[-84.09238,37.208022],[-84.092214,37.207844],[-84.09213,37.207756],[-84.092043,37.207671],[-84.091994,37.207627],[-84.092004,37.207569],[-84.091982,37.207473],[-84.091969,37.207419],[-84.091938,37.207309],[-84.091842,37.207155],[-84.091807,37.207105],[-84.091732,37.207],[-84.09169,37.206946],[-84.091646,37.206893],[-84.091597,37.20684],[-84.091564,37.206805],[-84.091492,37.206729],[-84.091448,37.206668],[-84.091418,37.206605],[-84.091403,37.206538],[-84.091411,37.206471],[-84.091436,37.206407],[-84.091473,37.206347],[-84.091516,37.20629],[-84.09156,37.206233],[-84.091597,37.206174],[-84.091625,37.206112],[-84.091641,37.206046],[-84.09163,37.205912],[-84.091611,37.205847],[-84.091586,37.20579],[-84.091532,37.2057],[-84.091506,37.20563],[-84.091578,37.205522],[-84.091619,37.205482],[-84.091662,37.205436],[-84.091705,37.205387],[-84.091751,37.205336],[-84.0918,37.205283],[-84.091852,37.205229],[-84.091913,37.205178],[-84.091981,37.205131],[-84.092049,37.205087],[-84.092109,37.205042],[-84.092172,37.204996],[-84.092228,37.204948],[-84.092282,37.204906],[-84.092335,37.204867],[-84.092387,37.204826],[-84.092486,37.204749],[-84.092535,37.204712],[-84.092582,37.204676],[-84.092625,37.204641],[-84.092665,37.204604],[-84.092727,37.204528],[-84.09277,37.20444],[-84.092783,37.204393],[-84.092798,37.204345],[-84.092807,37.204259],[-84.092791,37.204172],[-84.092778,37.204127],[-84.092761,37.204079],[-84.092743,37.204027],[-84.092725,37.203973],[-84.092687,37.203865],[-84.092666,37.203812],[-84.092636,37.203758],[-84.092608,37.203703],[-84.092544,37.203593],[-84.092499,37.203541],[-84.092453,37.203489],[-84.092404,37.203437],[-84.092355,37.203382],[-84.092305,37.203327],[-84.092251,37.203272],[-84.092194,37.203219],[-84.092078,37.203122],[-84.092016,37.203086],[-84.091948,37.203059],[-84.091798,37.203026],[-84.091718,37.203016],[-84.091638,37.203006],[-84.091556,37.202996],[-84.091386,37.202971],[-84.091306,37.202956],[-84.091163,37.202921],[-84.091104,37.202902],[-84.091024,37.202854],[-84.090984,37.20281],[-84.090939,37.202759],[-84.090902,37.202689],[-84.090873,37.202632],[-84.085974,37.201553],[-84.085932,37.201525],[-84.085882,37.20148],[-84.085836,37.201424],[-84.085804,37.201361],[-84.085783,37.201299],[-84.085768,37.201238],[-84.08575,37.201178],[-84.085723,37.201125],[-84.08569,37.20108],[-84.085652,37.201042],[-84.08561,37.201007],[-84.085562,37.200975],[-84.085504,37.200942],[-84.085428,37.200912],[-84.085342,37.200884],[-84.085251,37.200853],[-84.085163,37.200815],[-84.085081,37.200772],[-84.085002,37.200723],[-84.084847,37.200619],[-84.084767,37.200568],[-84.084685,37.200521],[-84.084446,37.200398],[-84.08437,37.200361],[-84.084293,37.200322],[-84.08414,37.200242],[-84.084066,37.200199],[-84.083994,37.200154],[-84.083924,37.200106],[-84.083856,37.200057],[-84.083789,37.200007],[-84.083588,37.199864],[-84.083448,37.199768],[-84.08332,37.199675],[-84.083182,37.199569],[-84.083059,37.199474],[-84.083011,37.19944],[-84.082922,37.199382],[-84.082825,37.199321],[-84.082767,37.199278],[-84.082737,37.199233],[-84.082726,37.199189],[-84.082725,37.199162],[-84.082734,37.199117],[-84.082755,37.199065],[-84.082786,37.199007],[-84.082824,37.198944],[-84.082899,37.198829],[-84.082929,37.198779],[-84.082942,37.198741],[-84.082939,37.198717],[-84.082883,37.198632],[-84.083194,37.198375],[-84.08344,37.198125],[-84.083963,37.197584],[-84.084197,37.19732],[-84.08461,37.196829],[-84.084826,37.196555],[-84.08492,37.196444],[-84.085273,37.195969],[-84.085588,37.195515],[-84.085629,37.195452],[-84.085764,37.195248],[-84.086138,37.194644],[-84.086211,37.194506],[-84.086359,37.194258],[-84.08647,37.193992],[-84.086584,37.193721],[-84.086614,37.193649],[-84.086704,37.193435],[-84.088583,37.189884],[-84.090115,37.186991],[-84.090308,37.186628],[-84.091557,37.184398],[-84.092165,37.183233],[-84.092332,37.182915],[-84.092441,37.182683],[-84.092618,37.182273],[-84.092853,37.181721],[-84.092907,37.181499],[-84.09307,37.180957],[-84.093228,37.180293],[-84.093317,37.179808],[-84.09336,37.179506],[-84.093408,37.179086],[-84.09343,37.178847],[-84.093449,37.178549],[-84.093461,37.178134],[-84.096273,37.178412],[-84.099053,37.180169],[-84.101731,37.179145],[-84.103524,37.176314],[-84.103984,37.176021],[-84.104107,37.17601],[-84.104234,37.175992],[-84.104358,37.175965],[-84.104477,37.175918],[-84.104771,37.175757],[-84.104862,37.175697],[-84.10496,37.175645],[-84.105064,37.1756],[-84.105173,37.17556],[-84.105287,37.175524],[-84.105516,37.175448],[-84.105626,37.175409],[-84.10574,37.175365],[-84.105857,37.175318],[-84.106078,37.175231],[-84.106184,37.175187],[-84.10639,37.175096],[-84.106493,37.175055],[-84.106597,37.175008],[-84.106705,37.174963],[-84.106815,37.174916],[-84.10693,37.174881],[-84.107045,37.174839],[-84.107161,37.1748],[-84.107277,37.174764],[-84.107395,37.174726],[-84.107515,37.174686],[-84.107634,37.174654],[-84.107851,37.174551],[-84.107953,37.174489],[-84.108006,37.174455],[-84.108044,37.17443],[-84.108383,37.174168],[-84.108469,37.174104],[-84.108551,37.174055],[-84.108636,37.174023],[-84.108793,37.173952],[-84.109024,37.173875],[-84.109031,37.173851],[-84.10907,37.173752],[-84.109135,37.173604],[-84.109155,37.173555],[-84.109177,37.173506],[-84.109224,37.173409],[-84.10927,37.173311],[-84.109319,37.173213],[-84.109388,37.173065],[-84.109508,37.172825],[-84.109585,37.172663],[-84.109603,37.172622],[-84.109619,37.172581],[-84.109637,37.17254],[-84.109653,37.172499],[-84.109658,37.17248],[-84.109687,37.172374],[-84.109696,37.172333],[-84.109708,37.17225],[-84.109716,37.17217],[-84.109718,37.172129],[-84.109718,37.17209],[-84.109715,37.172012],[-84.109696,37.171901],[-84.10968,37.171856],[-84.109659,37.171802],[-84.109788,37.171696],[-84.109857,37.171553],[-84.109952,37.171389],[-84.109959,37.17135],[-84.110048,37.171196],[-84.110062,37.171136],[-84.110172,37.170927],[-84.110316,37.17074],[-84.110364,37.170697],[-84.110377,37.170653],[-84.110412,37.170603],[-84.110467,37.170389],[-84.110501,37.170334],[-84.110501,37.170301],[-84.110528,37.170246],[-84.110542,37.170169],[-84.110569,37.170114],[-84.110569,37.170076],[-84.110603,37.169972],[-84.110617,37.169878],[-84.110651,37.169807],[-84.110651,37.169769],[-84.110665,37.169752],[-84.110672,37.169697],[-84.110692,37.169664],[-84.110706,37.169576],[-84.11074,37.169483],[-84.11074,37.169445],[-84.110788,37.169357],[-84.110798,37.169349],[-84.110776,37.169238],[-84.110766,37.169131],[-84.110747,37.168991],[-84.110739,37.168914],[-84.110799,37.168841],[-84.110864,37.168752],[-84.110899,37.168707],[-84.111003,37.168588],[-84.11102,37.168567],[-84.111034,37.168548],[-84.111069,37.168507],[-84.111168,37.16838],[-84.11123,37.168292],[-84.111259,37.168247],[-84.11133,37.168105],[-84.111384,37.167959],[-84.111403,37.167911],[-84.111439,37.167814],[-84.111474,37.167726],[-84.111558,37.167525],[-84.111612,37.16738],[-84.111662,37.167237],[-84.111675,37.167188],[-84.111689,37.16714],[-84.111702,37.167091],[-84.111734,37.166944],[-84.111742,37.166895],[-84.111751,37.166847],[-84.111758,37.166798],[-84.111794,37.166492],[-84.111815,37.16629],[-84.111822,37.166239],[-84.11184,37.166086],[-84.111847,37.166035],[-84.111873,37.16578],[-84.111877,37.165729],[-84.111883,37.165677],[-84.111892,37.165574],[-84.111903,37.165422],[-84.111907,37.165323],[-84.111908,37.165273],[-84.111908,37.165174],[-84.111911,37.165074],[-84.111917,37.164974],[-84.111929,37.164844],[-84.111937,37.164775],[-84.111951,37.164678],[-84.111956,37.164628],[-84.111968,37.164528],[-84.112006,37.164152],[-84.112009,37.164104],[-84.112015,37.164057],[-84.112019,37.164011],[-84.112033,37.163874],[-84.112039,37.163829],[-84.11205,37.163689],[-84.112062,37.163601],[-84.112081,37.163443],[-84.112081,37.163393],[-84.112082,37.163344],[-84.112082,37.163294],[-84.112084,37.163252],[-84.112103,37.16301],[-84.112104,37.16297],[-84.11211,37.162887],[-84.112219,37.16294],[-84.112355,37.163016],[-84.112428,37.163063],[-84.112504,37.163117],[-84.112581,37.163176],[-84.112692,37.163265],[-84.112744,37.163309],[-84.112827,37.163383],[-84.112909,37.163462],[-84.11298,37.163543],[-84.113239,37.163761],[-84.113342,37.163824],[-84.113453,37.163878],[-84.113564,37.163923],[-84.113686,37.163967],[-84.113797,37.164012],[-84.113901,37.164067],[-84.114,37.164134],[-84.114092,37.16421],[-84.114181,37.164292],[-84.114272,37.164379],[-84.114362,37.164469],[-84.114534,37.164654],[-84.114619,37.164749],[-84.114706,37.164844],[-84.114876,37.165039],[-84.114959,37.165139],[-84.115041,37.165242],[-84.115122,37.165348],[-84.1152,37.165455],[-84.11535,37.165678],[-84.115424,37.165793],[-84.115494,37.165904],[-84.115629,37.16613],[-84.115879,37.166581],[-84.115932,37.166692],[-84.115982,37.166803],[-84.11604,37.166914],[-84.116086,37.167017],[-84.116136,37.167138],[-84.116217,37.167314],[-84.116383,37.167681],[-84.116433,37.167797],[-84.116483,37.167918],[-84.116531,37.168042],[-84.116583,37.168168],[-84.116639,37.168292],[-84.116703,37.168417],[-84.116775,37.168544],[-84.116854,37.168661],[-84.116934,37.168776],[-84.117014,37.168894],[-84.117266,37.169255],[-84.117343,37.169359],[-84.117441,37.169498],[-84.117531,37.169606],[-84.117617,37.169725],[-84.117704,37.169842],[-84.117795,37.169957],[-84.11789,37.170073],[-84.117996,37.170186],[-84.118113,37.170301],[-84.118214,37.170405],[-84.118332,37.170518],[-84.118448,37.170627],[-84.118564,37.170722],[-84.118675,37.170819],[-84.118787,37.17091],[-84.1189,37.170996],[-84.119016,37.171082],[-84.119134,37.171171],[-84.119236,37.171258],[-84.119492,37.171442],[-84.11961,37.171534],[-84.119725,37.171629],[-84.119842,37.171724],[-84.119953,37.171821],[-84.120061,37.171917],[-84.120158,37.171997],[-84.12041,37.172194],[-84.120515,37.172271],[-84.120532,37.172284],[-84.120659,37.172371],[-84.120787,37.172456],[-84.120916,37.17254],[-84.121046,37.172623],[-84.121176,37.172709],[-84.121397,37.172847],[-84.121443,37.172875],[-84.121487,37.172903],[-84.121578,37.172959],[-84.121717,37.173041],[-84.121858,37.173118],[-84.122004,37.17319],[-84.122151,37.173255],[-84.122301,37.173313],[-84.122594,37.173422],[-84.122754,37.173487],[-84.122872,37.173536],[-84.122988,37.173593],[-84.123135,37.173669],[-84.123252,37.173758],[-84.123349,37.173846],[-84.123449,37.173945],[-84.123548,37.174048],[-84.123648,37.174159],[-84.123676,37.174185],[-84.123755,37.174258],[-84.123871,37.17436],[-84.124102,37.174567],[-84.124175,37.174629],[-84.124221,37.174669],[-84.12434,37.17477],[-84.124572,37.174972],[-84.124681,37.175075],[-84.124782,37.175183],[-84.124827,37.175233],[-84.124878,37.175291],[-84.125067,37.175513],[-84.125161,37.175625],[-84.125255,37.175732],[-84.125343,37.175834],[-84.125419,37.175929],[-84.125479,37.176012],[-84.125514,37.176071],[-84.125523,37.176087],[-84.125551,37.176157],[-84.125567,37.176226],[-84.125575,37.176287],[-84.125581,37.176351],[-84.125594,37.176417],[-84.125617,37.176486],[-84.125649,37.176559],[-84.125687,37.176639],[-84.125775,37.176804],[-84.125819,37.176889],[-84.125861,37.176975],[-84.125901,37.177061],[-84.126001,37.177312],[-84.126046,37.1774],[-84.12609,37.177531],[-84.126132,37.177359],[-84.126167,37.177221],[-84.126278,37.176814],[-84.126354,37.176549],[-84.126385,37.176429],[-84.126475,37.176046],[-84.126508,37.175915],[-84.126579,37.175643],[-84.126604,37.175509],[-84.126623,37.175368],[-84.126636,37.175211],[-84.126645,37.175078],[-84.12665,37.174932],[-84.126642,37.174753],[-84.126608,37.174511],[-84.126577,37.174377],[-84.126616,37.174422],[-84.127029,37.174887],[-84.127122,37.174991],[-84.127385,37.175286],[-84.127603,37.175535],[-84.127723,37.175672],[-84.127864,37.175828],[-84.128224,37.176227],[-84.128297,37.17631],[-84.12852,37.176559],[-84.12867,37.17673],[-84.128744,37.176816],[-84.128897,37.176989],[-84.128975,37.177075],[-84.129052,37.177164],[-84.129288,37.177431],[-84.129551,37.177726],[-84.129767,37.177975],[-84.129928,37.178157],[-84.130094,37.178338],[-84.130174,37.17843],[-84.130254,37.178524],[-84.130392,37.178681],[-84.130417,37.178708],[-84.130693,37.179022],[-84.13083,37.179177],[-84.131006,37.179362],[-84.131091,37.179456],[-84.131168,37.179555],[-84.131207,37.179586],[-84.131289,37.179679],[-84.131603,37.180028],[-84.131702,37.180136],[-84.131797,37.180247],[-84.131889,37.18036],[-84.132079,37.180582],[-84.132531,37.181097],[-84.132859,37.181469],[-84.133276,37.181938],[-84.133443,37.182124],[-84.133579,37.182278],[-84.13377,37.182495],[-84.133852,37.182586],[-84.134174,37.182951],[-84.134255,37.183041],[-84.134334,37.183132],[-84.13473,37.183581],[-84.134809,37.183669],[-84.134887,37.183758],[-84.135045,37.183933],[-84.135207,37.184105],[-84.135372,37.184275],[-84.13554,37.184444],[-84.135711,37.184611],[-84.135887,37.184777],[-84.136064,37.184938],[-84.1362,37.185058],[-84.136425,37.185252],[-84.136608,37.185404],[-84.1367,37.185479],[-84.136793,37.185553],[-84.13698,37.185699],[-84.137168,37.185841],[-84.137358,37.18598],[-84.137454,37.186049],[-84.137549,37.186116],[-84.137742,37.186249],[-84.137938,37.186379],[-84.138134,37.186507],[-84.138331,37.186631],[-84.138531,37.186752],[-84.138648,37.18682],[-84.138733,37.18687],[-84.138813,37.186915],[-84.139145,37.187098],[-84.139561,37.18732],[-84.139768,37.187434],[-84.139869,37.187495],[-84.139968,37.187556],[-84.140064,37.18762],[-84.140144,37.187677],[-84.140246,37.187755],[-84.140333,37.187825],[-84.140501,37.18797],[-84.140745,37.188189],[-84.140827,37.188261],[-84.140913,37.188332],[-84.141,37.1884],[-84.141092,37.188465],[-84.141185,37.188528],[-84.141281,37.188587],[-84.14138,37.188645],[-84.141483,37.188696],[-84.141587,37.188746],[-84.141804,37.188831],[-84.14203,37.188899],[-84.142046,37.188902],[-84.142043,37.189059],[-84.142042,37.18907],[-84.142043,37.189111],[-84.142046,37.189141],[-84.142049,37.189151],[-84.142053,37.189171],[-84.142059,37.189192],[-84.142073,37.189222],[-84.142095,37.189259],[-84.14211,37.189275],[-84.142119,37.189282],[-84.142152,37.189312],[-84.142163,37.189319],[-84.14222,37.189348],[-84.142245,37.189358],[-84.142283,37.18937],[-84.142374,37.189391],[-84.1424,37.189394],[-84.142454,37.189402],[-84.142575,37.189415],[-84.142603,37.189417],[-84.142629,37.18942],[-84.142656,37.189422],[-84.142669,37.189424],[-84.142788,37.189436],[-84.142896,37.189452],[-84.142922,37.189458],[-84.142936,37.18946],[-84.143052,37.189488],[-84.143076,37.189496],[-84.143127,37.18951],[-84.143152,37.189518],[-84.143164,37.189523],[-84.143189,37.189531],[-84.143238,37.189549],[-84.143251,37.189553],[-84.143275,37.189562],[-84.143393,37.189612],[-84.143493,37.189665],[-84.143586,37.189726],[-84.143606,37.189741],[-84.143615,37.189749],[-84.143635,37.189764],[-84.143654,37.18978],[-84.143664,37.189787],[-84.143693,37.18981],[-84.143701,37.189818],[-84.143711,37.189826],[-84.143754,37.189866],[-84.143764,37.189874],[-84.143816,37.189922],[-84.143824,37.189931],[-84.143971,37.19007],[-84.143979,37.190079],[-84.144006,37.190103],[-84.144014,37.190112],[-84.144024,37.19012],[-84.144059,37.190153],[-84.144067,37.190162],[-84.144077,37.19017],[-84.144138,37.190228],[-84.144157,37.190244],[-84.144165,37.190253],[-84.144184,37.190269],[-84.144219,37.190302],[-84.144238,37.190318],[-84.144255,37.190335],[-84.144274,37.190351],[-84.144291,37.190368],[-84.144301,37.190376],[-84.144346,37.190417],[-84.144392,37.190457],[-84.1444,37.190466],[-84.14457,37.190622],[-84.144579,37.190629],[-84.144596,37.190645],[-84.144606,37.190653],[-84.144692,37.190734],[-84.144711,37.19075],[-84.144728,37.190767],[-84.144738,37.190775],[-84.144808,37.190841],[-84.144818,37.190849],[-84.144861,37.19089],[-84.144871,37.190898],[-84.144914,37.190939],[-84.144924,37.190947],[-84.144932,37.190956],[-84.144984,37.191006],[-84.145009,37.191032],[-84.145052,37.191073],[-84.145135,37.191142],[-84.145143,37.19115],[-84.145181,37.19118],[-84.145189,37.191189],[-84.145249,37.191246],[-84.145257,37.191255],[-84.145309,37.191303],[-84.145319,37.191311],[-84.145336,37.191327],[-84.145346,37.191335],[-84.145399,37.191384],[-84.145418,37.1914],[-84.145426,37.191408],[-84.145445,37.191424],[-84.145453,37.191432],[-84.145463,37.191439],[-84.145471,37.191447],[-84.14549,37.191463],[-84.145533,37.191503],[-84.145543,37.191511],[-84.145656,37.191615],[-84.145666,37.191623],[-84.145728,37.19168],[-84.145783,37.191728],[-84.145975,37.191909],[-84.145985,37.191917],[-84.145993,37.191926],[-84.146011,37.191942],[-84.146036,37.191967],[-84.146045,37.191975],[-84.146096,37.192027],[-84.146103,37.192036],[-84.146112,37.192045],[-84.146119,37.192054],[-84.146128,37.192063],[-84.146135,37.192072],[-84.146152,37.19209],[-84.146167,37.192108],[-84.146194,37.192146],[-84.146205,37.192165],[-84.146212,37.192175],[-84.146217,37.192185],[-84.146225,37.192205],[-84.146228,37.192216],[-84.146232,37.192226],[-84.146242,37.192257],[-84.146245,37.192272],[-84.146249,37.192344],[-84.146252,37.192366],[-84.146251,37.192377]]]}},{"type":"Feature","properties":{"STATEFP":"21","ELSDLEA":"05220","GEOID":"2105220","GEOIDFQ":"9500000US2105220","NAME":"Science Hill Independent School District","LSAD":"00","LOGRADE":"PK","HIGRADE":"08","MTFCC":"G5400","SDTYP":"","FUNCSTAT":"E","ALAND":16159651,"AWATER":80210,"INTPTLAT":"+37.1767828","INTPTLON":"-084.6243030"},"geometry":{"type":"Polygon","coordinates":[[[-84.658707,37.195339],[-84.658604,37.195641],[-84.658581,37.195839],[-84.657611,37.195676],[-84.65587,37.195411],[-84.653483,37.194931],[-84.651989,37.19463],[-84.650144,37.194258],[-84.648306,37.193837],[-84.648005,37.193782],[-84.647906,37.193758],[-84.647811,37.193743],[-84.647735,37.1937],[-84.647676,37.193632],[-84.645452,37.193335],[-84.633863,37.191683],[-84.633728,37.191564],[-84.632357,37.191361],[-84.630447,37.190846],[-84.630308,37.190865],[-84.628747,37.191111],[-84.628597,37.191153],[-84.628456,37.191209],[-84.628315,37.191279],[-84.627699,37.191628],[-84.627534,37.191706],[-84.627359,37.19177],[-84.627162,37.191814],[-84.626083,37.191988],[-84.625992,37.192005],[-84.625521,37.192091],[-84.625394,37.19212],[-84.625247,37.192176],[-84.625132,37.192254],[-84.624992,37.192369],[-84.624369,37.192929],[-84.624189,37.193103],[-84.623927,37.19335],[-84.623783,37.193462],[-84.623604,37.193558],[-84.623363,37.193639],[-84.623044,37.193719],[-84.622779,37.193775],[-84.622494,37.193836],[-84.622295,37.193917],[-84.622127,37.194026],[-84.62196,37.194203],[-84.621856,37.194416],[-84.621828,37.194596],[-84.621842,37.194736],[-84.621909,37.194976],[-84.621924,37.195129],[-84.621915,37.195224],[-84.621874,37.195369],[-84.621774,37.195557],[-84.621113,37.196173],[-84.621006,37.196266],[-84.620892,37.196349],[-84.620777,37.196414],[-84.620684,37.196459],[-84.620534,37.196512],[-84.619963,37.196616],[-84.619808,37.196664],[-84.619597,37.196754],[-84.619279,37.196959],[-84.619209,37.196797],[-84.61768,37.196185],[-84.617657,37.196169],[-84.616274,37.195572],[-84.613609,37.19442],[-84.612821,37.194054],[-84.612561,37.193937],[-84.609424,37.192199],[-84.607048,37.190884],[-84.601019,37.187377],[-84.601112,37.18727],[-84.601297,37.187094],[-84.601675,37.186951],[-84.602279,37.186924],[-84.60256,37.186869],[-84.602643,37.18677],[-84.602629,37.186709],[-84.602629,37.186555],[-84.602347,37.186193],[-84.602244,37.185759],[-84.602182,37.185545],[-84.601743,37.185216],[-84.601207,37.184919],[-84.60109,37.184249],[-84.600884,37.18409],[-84.600678,37.183969],[-84.60074,37.183481],[-84.600547,37.183222],[-84.600225,37.18314],[-84.599929,37.182662],[-84.599929,37.182525],[-84.599799,37.182344],[-84.599318,37.182141],[-84.599092,37.182026],[-84.598838,37.181839],[-84.59868,37.181669],[-84.598625,37.181592],[-84.598577,37.181427],[-84.598583,37.181087],[-84.598714,37.180774],[-84.598724,37.180671],[-84.598734,37.18057],[-84.598652,37.180312],[-84.598528,37.180126],[-84.598459,37.17995],[-84.598452,37.179697],[-84.5985,37.179456],[-84.598507,37.179258],[-84.598425,37.178961],[-84.598328,37.178786],[-84.597813,37.178088],[-84.597367,37.177374],[-84.597154,37.177094],[-84.596927,37.176847],[-84.59657,37.176655],[-84.596385,37.176567],[-84.596186,37.17643],[-84.596062,37.176381],[-84.595898,37.17626],[-84.595802,37.175969],[-84.595973,37.175019],[-84.596048,37.174321],[-84.596137,37.174003],[-84.596391,37.173756],[-84.59659,37.173673],[-84.596802,37.173536],[-84.596926,37.173393],[-84.596953,37.173321],[-84.596994,37.172871],[-84.596926,37.17224],[-84.59687,37.172097],[-84.596747,37.171949],[-84.596665,37.171877],[-84.596321,37.171762],[-84.596211,37.171702],[-84.59593,37.171444],[-84.595882,37.171323],[-84.595875,37.17107],[-84.595909,37.170988],[-84.595964,37.170598],[-84.595936,37.170241],[-84.59606,37.169944],[-84.595991,37.169714],[-84.595819,37.169428],[-84.595696,37.169307],[-84.595209,37.169126],[-84.594934,37.168846],[-84.594831,37.168775],[-84.594543,37.168648],[-84.594337,37.168577],[-84.594062,37.168594],[-84.593877,37.168572],[-84.59376,37.1685],[-84.593712,37.168413],[-84.593774,37.168297],[-84.593774,37.168226],[-84.593705,37.168171],[-84.593534,37.16816],[-84.593431,37.168176],[-84.593335,37.168242],[-84.592868,37.168297],[-84.592566,37.167682],[-84.592573,37.167194],[-84.592943,37.167281],[-84.593115,37.167199],[-84.593156,37.167029],[-84.593053,37.166974],[-84.592854,37.166897],[-84.59273,37.166606],[-84.592785,37.166079],[-84.592764,37.165414],[-84.592723,37.165288],[-84.592572,37.165129],[-84.592496,37.164876],[-84.592565,37.164244],[-84.592555,37.163999],[-84.592544,37.163684],[-84.592599,37.163492],[-84.59277,37.163239],[-84.592921,37.163085],[-84.592976,37.163053],[-84.593189,37.162981],[-84.593292,37.162904],[-84.593353,37.162569],[-84.593346,37.162207],[-84.593312,37.162135],[-84.593284,37.162031],[-84.593243,37.161932],[-84.593175,37.161883],[-84.593202,37.161729],[-84.59316,37.161284],[-84.593181,37.161059],[-84.593232,37.160952],[-84.594975,37.161066],[-84.610494,37.16123],[-84.624855,37.162171],[-84.627802,37.162363],[-84.628116,37.162384],[-84.628363,37.162401],[-84.628492,37.162408],[-84.628608,37.162415],[-84.639924,37.163137],[-84.640084,37.163148],[-84.640144,37.16334],[-84.640246,37.163274],[-84.640292,37.163266],[-84.64041,37.163276],[-84.640512,37.163307],[-84.640799,37.163413],[-84.641304,37.163598],[-84.641581,37.163712],[-84.641867,37.163855],[-84.642304,37.164092],[-84.642597,37.164233],[-84.642751,37.16429],[-84.642914,37.164338],[-84.643754,37.164535],[-84.64392,37.164582],[-84.644083,37.164641],[-84.644237,37.164715],[-84.644682,37.164978],[-84.644838,37.16506],[-84.644979,37.165123],[-84.645732,37.16546],[-84.645935,37.165568],[-84.646086,37.165682],[-84.646127,37.165729],[-84.64618,37.165817],[-84.646211,37.16592],[-84.646208,37.166001],[-84.646196,37.166086],[-84.646159,37.166242],[-84.646106,37.166384],[-84.646072,37.166518],[-84.646025,37.166939],[-84.64602,37.167089],[-84.646037,37.16723],[-84.646076,37.167287],[-84.646115,37.167301],[-84.646157,37.167297],[-84.646196,37.167268],[-84.646287,37.167136],[-84.64643,37.16688],[-84.646563,37.166739],[-84.646604,37.166682],[-84.646632,37.166624],[-84.646667,37.166489],[-84.646698,37.166435],[-84.646758,37.166393],[-84.646849,37.166364],[-84.64696,37.166348],[-84.647092,37.166354],[-84.647219,37.166393],[-84.647528,37.166559],[-84.647635,37.166601],[-84.647866,37.166671],[-84.648107,37.166706],[-84.648906,37.166754],[-84.649038,37.166784],[-84.649202,37.166859],[-84.649303,37.166899],[-84.649501,37.166955],[-84.649753,37.16701],[-84.649989,37.167075],[-84.650105,37.167096],[-84.650283,37.167087],[-84.650689,37.166972],[-84.650795,37.166953],[-84.650847,37.166949],[-84.650899,37.166947],[-84.650989,37.166953],[-84.651264,37.166989],[-84.651295,37.167011],[-84.651039,37.16736],[-84.650984,37.167739],[-84.651183,37.168035],[-84.651108,37.16842],[-84.650558,37.169183],[-84.650373,37.169496],[-84.650139,37.170034],[-84.65018,37.170352],[-84.650132,37.170539],[-84.650022,37.170858],[-84.649974,37.171061],[-84.649912,37.171418],[-84.64985,37.171588],[-84.649637,37.171874],[-84.64917,37.172219],[-84.649053,37.1725],[-84.648943,37.172834],[-84.64893,37.17295],[-84.648923,37.173197],[-84.64895,37.173395],[-84.649039,37.173631],[-84.6493,37.174125],[-84.649725,37.174883],[-84.649896,37.175076],[-84.650013,37.175301],[-84.650013,37.175542],[-84.650054,37.175696],[-84.649937,37.175762],[-84.649065,37.176097],[-84.648735,37.176349],[-84.648818,37.176855],[-84.648824,37.177179],[-84.648762,37.17753],[-84.648714,37.177673],[-84.648645,37.178008],[-84.648577,37.178211],[-84.648439,37.178596],[-84.648302,37.178887],[-84.648219,37.179013],[-84.648178,37.179172],[-84.648212,37.179337],[-84.648308,37.179568],[-84.648397,37.179721],[-84.648521,37.179809],[-84.64858,37.179821],[-84.648658,37.179837],[-84.649214,37.17959],[-84.650375,37.178997],[-84.651418,37.178728],[-84.651672,37.178717],[-84.651871,37.178745],[-84.653161,37.179102],[-84.65334,37.179179],[-84.653491,37.1793],[-84.653532,37.17941],[-84.653545,37.179685],[-84.653319,37.179943],[-84.653106,37.18003],[-84.65257,37.180223],[-84.651712,37.180299],[-84.651273,37.180046],[-84.651163,37.180063],[-84.650236,37.180617],[-84.649907,37.180859],[-84.649673,37.181122],[-84.649673,37.181331],[-84.649769,37.181452],[-84.649843,37.181478],[-84.650037,37.181545],[-84.6506,37.181496],[-84.651417,37.181277],[-84.651959,37.181255],[-84.652364,37.181293],[-84.652535,37.181348],[-84.652656,37.181413],[-84.652741,37.181458],[-84.652906,37.181574],[-84.653036,37.181815],[-84.653208,37.182057],[-84.653215,37.182227],[-84.653201,37.182365],[-84.652974,37.182595],[-84.652246,37.182925],[-84.652075,37.183018],[-84.651834,37.183106],[-84.651574,37.183221],[-84.651416,37.183391],[-84.651566,37.1836],[-84.652294,37.183847],[-84.65274,37.183924],[-84.653069,37.18404],[-84.653564,37.184276],[-84.65366,37.184419],[-84.65366,37.184551],[-84.653598,37.184617],[-84.653227,37.18471],[-84.652952,37.185149],[-84.652808,37.185511],[-84.652595,37.186247],[-84.652471,37.186824],[-84.652525,37.187428],[-84.652553,37.187917],[-84.652759,37.188087],[-84.653054,37.188186],[-84.65328,37.188197],[-84.653932,37.188165],[-84.654331,37.188011],[-84.654688,37.187923],[-84.654983,37.18789],[-84.655093,37.188],[-84.655134,37.188484],[-84.65501,37.188912],[-84.655215,37.189324],[-84.655373,37.189686],[-84.655558,37.189988],[-84.655579,37.190148],[-84.655531,37.190214],[-84.655201,37.190389],[-84.655043,37.190455],[-84.654796,37.190631],[-84.654576,37.190774],[-84.654583,37.190861],[-84.654714,37.191059],[-84.65483,37.191131],[-84.655057,37.191125],[-84.655167,37.191114],[-84.655386,37.190999],[-84.655695,37.19079],[-84.655785,37.190763],[-84.656093,37.190779],[-84.656231,37.190856],[-84.656299,37.190944],[-84.656368,37.191076],[-84.656437,37.191307],[-84.656526,37.191494],[-84.656533,37.191803],[-84.656542,37.192439],[-84.656518,37.192905],[-84.656568,37.192942],[-84.656703,37.193042],[-84.656944,37.193268],[-84.657266,37.193603],[-84.657589,37.194048],[-84.658138,37.194377],[-84.658316,37.194559],[-84.658652,37.194938],[-84.658735,37.195119],[-84.658707,37.195339]]]}},{"type":"Feature","properties":{"STATEFP":"21","ELSDLEA":"05460","GEOID":"2105460","GEOIDFQ":"9500000US2105460","NAME":"Southgate Independent School District","LSAD":"00","LOGRADE":"PK","HIGRADE":"08","MTFCC":"G5400","SDTYP":"","FUNCSTAT":"E","ALAND":1763867,"AWATER":6649,"INTPTLAT":"+39.0689295","INTPTLON":"-084.4745985"},"geometry":{"type":"Polygon","coordinates":[[[-84.485128,39.069377],[-84.484678,39.069635],[-84.484534,39.069664],[-84.484547,39.069744],[-84.484505,39.069751],[-84.484253,39.069814],[-84.484093,39.069851],[-84.484031,39.069867],[-84.483826,39.069912],[-84.483765,39.069929],[-84.483582,39.069961],[-84.483459,39.069986],[-84.483444,39.069985],[-84.483421,39.069989],[-84.48333,39.070001],[-84.483246,39.070004],[-84.483109,39.070032],[-84.481399,39.07051],[-84.481372,39.07074],[-84.481346,39.070966],[-84.481267,39.071638],[-84.480841,39.071655],[-84.480849,39.07202],[-84.480724,39.07205],[-84.480768,39.072255],[-84.480826,39.072658],[-84.479912,39.073723],[-84.479744,39.07375],[-84.479211,39.073845],[-84.479141,39.07386],[-84.478566,39.073848],[-84.478294,39.073843],[-84.478278,39.074039],[-84.478158,39.07536],[-84.478104,39.076034],[-84.478169,39.076873],[-84.47741,39.077309],[-84.476659,39.077739],[-84.476094,39.078064],[-84.475461,39.07747],[-84.475171,39.077198],[-84.474346,39.076443],[-84.473242,39.076038],[-84.473049,39.075903],[-84.472863,39.075734],[-84.472486,39.075414],[-84.471607,39.074587],[-84.471146,39.074859],[-84.470699,39.07514],[-84.470343,39.075338],[-84.470028,39.07548],[-84.469864,39.075316],[-84.469803,39.075256],[-84.469823,39.074943],[-84.469901,39.074911],[-84.469966,39.074884],[-84.469918,39.074724],[-84.469861,39.074534],[-84.469709,39.074373],[-84.469648,39.074311],[-84.46961,39.074273],[-84.469574,39.074236],[-84.469504,39.074164],[-84.469919,39.073913],[-84.469917,39.073877],[-84.469975,39.073299],[-84.469992,39.073118],[-84.470065,39.07302],[-84.470086,39.073001],[-84.470158,39.072112],[-84.470623,39.071827],[-84.470715,39.071768],[-84.470673,39.071718],[-84.470406,39.071424],[-84.470345,39.071359],[-84.470169,39.071157],[-84.46981,39.070762],[-84.469619,39.070544],[-84.469314,39.070211],[-84.469063,39.069971],[-84.468987,39.069915],[-84.468773,39.069749],[-84.46875,39.069735],[-84.468643,39.06966],[-84.468567,39.069605],[-84.468453,39.069539],[-84.468155,39.069375],[-84.467842,39.069219],[-84.467468,39.069027],[-84.467079,39.068838],[-84.466827,39.068634],[-84.466713,39.068524],[-84.466881,39.068388],[-84.466927,39.068344],[-84.466934,39.068326],[-84.466949,39.068299],[-84.466957,39.068254],[-84.466957,39.068232],[-84.466949,39.068173],[-84.466904,39.068028],[-84.466896,39.067987],[-84.466888,39.067915],[-84.466873,39.067856],[-84.466873,39.067694],[-84.466881,39.067658],[-84.466881,39.067626],[-84.466889,39.067568],[-84.466903,39.067514],[-84.466927,39.067429],[-84.46698,39.067295],[-84.467041,39.067175],[-84.46712,39.067037],[-84.467125,39.067028],[-84.467232,39.066873],[-84.467308,39.06678],[-84.467415,39.06666],[-84.467514,39.066559],[-84.467674,39.066423],[-84.467903,39.066225],[-84.468208,39.065975],[-84.468384,39.065835],[-84.468536,39.065712],[-84.46891,39.065378],[-84.468979,39.065302],[-84.469071,39.065205],[-84.469169,39.065068],[-84.469269,39.064935],[-84.469444,39.064668],[-84.469605,39.064402],[-84.469757,39.064166],[-84.46991,39.063935],[-84.469963,39.063855],[-84.470421,39.063176],[-84.470703,39.062763],[-84.470985,39.062355],[-84.471268,39.061929],[-84.471368,39.061787],[-84.471504,39.061596],[-84.471565,39.061525],[-84.471611,39.061477],[-84.471664,39.061419],[-84.471733,39.061353],[-84.471809,39.061292],[-84.471847,39.061256],[-84.471993,39.061151],[-84.47213,39.061064],[-84.472153,39.061051],[-84.472183,39.061029],[-84.472244,39.060999],[-84.472412,39.060922],[-84.472423,39.060918],[-84.472557,39.06087],[-84.472626,39.060845],[-84.472748,39.060807],[-84.472999,39.060745],[-84.473206,39.060709],[-84.473411,39.060682],[-84.473648,39.060656],[-84.473915,39.060635],[-84.474189,39.060611],[-84.474297,39.060602],[-84.475029,39.060537],[-84.475625,39.060498],[-84.475807,39.060486],[-84.476162,39.060456],[-84.476707,39.060407],[-84.476944,39.060367],[-84.47715,39.060326],[-84.47744,39.060242],[-84.477791,39.060115],[-84.477867,39.06008],[-84.478081,39.059973],[-84.478223,39.059888],[-84.478297,39.059984],[-84.478579,39.060351],[-84.478167,39.060509],[-84.478442,39.060803],[-84.479126,39.06102],[-84.479614,39.061177],[-84.479329,39.061656],[-84.479654,39.061785],[-84.480098,39.062063],[-84.480265,39.06235],[-84.480338,39.062646],[-84.480598,39.063442],[-84.480848,39.063544],[-84.480885,39.06364],[-84.480865,39.063694],[-84.481398,39.06394],[-84.48184,39.064066],[-84.482195,39.064217],[-84.481609,39.065123],[-84.481561,39.065198],[-84.481598,39.065222],[-84.482124,39.065563],[-84.48209,39.065632],[-84.481959,39.0659],[-84.481696,39.066444],[-84.481898,39.066521],[-84.481726,39.066545],[-84.481651,39.066715],[-84.481852,39.066774],[-84.482004,39.066819],[-84.482354,39.066696],[-84.482644,39.066641],[-84.482929,39.066586],[-84.483178,39.067244],[-84.483249,39.067324],[-84.483491,39.067597],[-84.483572,39.068131],[-84.483584,39.068208],[-84.483823,39.068219],[-84.484009,39.068181],[-84.484179,39.068145],[-84.484268,39.06834],[-84.484315,39.068527],[-84.484429,39.068851],[-84.484564,39.068862],[-84.484644,39.068869],[-84.484984,39.068899],[-84.485128,39.069377]]]}}]}