{"type":"FeatureCollection","name":"tl_2025_13_scsd","crs":{"type":"name","properties":{"name":"urn:ogc:def:crs:OGC:1.3:CRS84"}},"features":[{"type":"Feature","properties":{"STATEFP":"13","SCSDLEA":"13053","GEOID":"1313053","GEOIDFQ":"9600000US1313053","NAME":"Chattahoochee County for Fort Benning","LSAD":"00","LOGRADE":"09","HIGRADE":"12","MTFCC":"G5410","SDTYP":"A","FUNCSTAT":"F","ALAND":489952369,"AWATER":4272847,"INTPTLAT":"+32.3717532","INTPTLON":"-084.7974159"},"geometry":{"type":"Polygon","coordinates":[[[-85.008096,32.336677],[-85.007257,32.33899],[-85.00649,32.340269],[-85.006102,32.340918],[-85.005901,32.341253],[-85.005556,32.341828],[-85.00534,32.342356],[-85.005063,32.344081],[-85.005042,32.344211],[-85.004582,32.345196],[-85.004231,32.345608],[-85.003097,32.346707],[-85.002935,32.346936],[-85.002773,32.346981],[-85.002493,32.347268],[-85.002014,32.347758],[-85.00172,32.348058],[-84.99993,32.349545],[-84.999407,32.349539],[-84.996186,32.351425],[-84.992714,32.353842],[-84.991448,32.35486],[-84.991242,32.355026],[-84.98961,32.356546],[-84.988058,32.35781],[-84.988058,32.357937],[-84.986778,32.359057],[-84.985962,32.359969],[-84.984714,32.361378],[-84.984216,32.36197],[-84.983866,32.362386],[-84.983466,32.363186],[-84.983338,32.363714],[-84.983226,32.364545],[-84.983242,32.365122],[-84.98361,32.365778],[-84.98401,32.366194],[-84.985978,32.367666],[-84.98633,32.36869],[-84.986298,32.369666],[-84.986058,32.370738],[-84.985898,32.371153],[-84.985658,32.37173],[-84.985322,32.372514],[-84.98473,32.372978],[-84.98409,32.373522],[-84.983338,32.373938],[-84.983002,32.374049],[-84.982522,32.374226],[-84.982042,32.374338],[-84.981178,32.37445],[-84.980282,32.374386],[-84.979418,32.374226],[-84.978426,32.374001],[-84.977274,32.373842],[-84.976186,32.373874],[-84.975226,32.374162],[-84.97433,32.374578],[-84.973594,32.374994],[-84.973162,32.37533],[-84.972698,32.375954],[-84.972154,32.376914],[-84.971962,32.377698],[-84.971895,32.377696],[-84.970785,32.377559],[-84.97056,32.377531],[-84.97054,32.377696],[-84.970284,32.377958],[-84.969847,32.37842],[-84.969498,32.378656],[-84.969274,32.378801],[-84.96889,32.378897],[-84.968666,32.378929],[-84.968474,32.37896],[-84.968074,32.378816],[-84.967834,32.378737],[-84.967674,32.378577],[-84.967578,32.378385],[-84.967562,32.378225],[-84.96753,32.378],[-84.96753,32.377746],[-84.967578,32.377105],[-84.967626,32.37669],[-84.96769,32.376241],[-84.967642,32.376018],[-84.967418,32.375666],[-84.967162,32.375554],[-84.966746,32.37557],[-84.966554,32.37565],[-84.966394,32.375714],[-84.966218,32.375729],[-84.965946,32.375698],[-84.965802,32.375602],[-84.965626,32.375633],[-84.964938,32.375154],[-84.964586,32.374913],[-84.964442,32.374738],[-84.964106,32.37445],[-84.963834,32.374226],[-84.96345,32.374097],[-84.963186,32.374037],[-84.962992,32.374022],[-84.962858,32.374097],[-84.962527,32.374217],[-84.962322,32.374276],[-84.962207,32.3744],[-84.962253,32.374743],[-84.962351,32.374916],[-84.962515,32.375134],[-84.962676,32.3752],[-84.96287,32.375269],[-84.963025,32.375257],[-84.963171,32.375228],[-84.963253,32.375193],[-84.963434,32.375153],[-84.963662,32.375138],[-84.963725,32.375134],[-84.96398,32.375208],[-84.964213,32.375505],[-84.964279,32.37562],[-84.9643,32.375658],[-84.964374,32.375875],[-84.964282,32.376114],[-84.96409,32.376289],[-84.963962,32.376402],[-84.963546,32.37653],[-84.963371,32.376566],[-84.963312,32.37653],[-84.963025,32.376428],[-84.962755,32.376274],[-84.962202,32.375887],[-84.961841,32.375513],[-84.961712,32.37538],[-84.961515,32.375302],[-84.961203,32.375117],[-84.960862,32.374848],[-84.960754,32.374821],[-84.960121,32.374661],[-84.960065,32.374647],[-84.959459,32.374544],[-84.959082,32.374511],[-84.957781,32.374111],[-84.957721,32.374094],[-84.95769,32.374084],[-84.95745,32.374007],[-84.957358,32.373978],[-84.957003,32.373902],[-84.956667,32.373874],[-84.956624,32.373871],[-84.956432,32.37393],[-84.956337,32.374042],[-84.956208,32.374242],[-84.956034,32.374505],[-84.955638,32.374691],[-84.955557,32.374729],[-84.955348,32.374793],[-84.954846,32.374865],[-84.954234,32.374865],[-84.953722,32.375217],[-84.953434,32.375554],[-84.953271,32.375881],[-84.953111,32.376153],[-84.952922,32.376562],[-84.952506,32.376786],[-84.951706,32.377138],[-84.950937,32.37717],[-84.950633,32.377105],[-84.950266,32.376962],[-84.950056,32.376607],[-84.949673,32.37608],[-84.94945,32.375811],[-84.949162,32.375666],[-84.948826,32.375602],[-84.947881,32.375554],[-84.947014,32.375666],[-84.946536,32.375729],[-84.945689,32.375874],[-84.94513,32.376018],[-84.94488,32.376184],[-84.944537,32.376402],[-84.944375,32.376647],[-84.944089,32.377074],[-84.944009,32.377602],[-84.943929,32.377874],[-84.943945,32.378321],[-84.943961,32.378449],[-84.943897,32.378593],[-84.943737,32.378704],[-84.943576,32.378769],[-84.943337,32.378801],[-84.94321,32.378704],[-84.942745,32.378193],[-84.942618,32.37813],[-84.942361,32.377969],[-84.942153,32.377937],[-84.941642,32.378096],[-84.941497,32.378258],[-84.941465,32.378736],[-84.941609,32.379089],[-84.941609,32.379412],[-84.941512,32.380052],[-84.941256,32.380564],[-84.941177,32.380881],[-84.941209,32.3812],[-84.94108,32.381571],[-84.940857,32.381777],[-84.940633,32.381793],[-84.940633,32.381873],[-84.940217,32.381921],[-84.940041,32.381889],[-84.939769,32.381856],[-84.939578,32.381618],[-84.939322,32.381026],[-84.939193,32.380785],[-84.938938,32.380544],[-84.938346,32.380194],[-84.93804,32.380017],[-84.93753,32.379634],[-84.936873,32.379376],[-84.936585,32.379345],[-84.936521,32.379297],[-84.936346,32.379264],[-84.936058,32.379345],[-84.935817,32.379506],[-84.935417,32.379841],[-84.934873,32.380257],[-84.934681,32.380513],[-84.934409,32.380705],[-84.934169,32.380833],[-84.933929,32.380944],[-84.933689,32.380929],[-84.933573,32.3809],[-84.933241,32.380817],[-84.933017,32.380625],[-84.932729,32.380561],[-84.932425,32.380625],[-84.932341,32.380688],[-84.932089,32.380881],[-84.931817,32.381233],[-84.931753,32.381425],[-84.931769,32.381521],[-84.931705,32.381921],[-84.931609,32.382337],[-84.931465,32.382545],[-84.931321,32.382689],[-84.930985,32.382928],[-84.930201,32.383329],[-84.929532,32.383537],[-84.929481,32.383553],[-84.929323,32.383617],[-84.929282,32.383633],[-84.928953,32.383761],[-84.928361,32.383937],[-84.927385,32.384289],[-84.926761,32.384513],[-84.926521,32.384641],[-84.926217,32.384849],[-84.926025,32.385008],[-84.925833,32.385264],[-84.925833,32.385505],[-84.925833,32.385937],[-84.925945,32.386401],[-84.925961,32.386513],[-84.925929,32.386769],[-84.925673,32.387089],[-84.925337,32.387248],[-84.924825,32.387489],[-84.924265,32.387712],[-84.923625,32.387793],[-84.923353,32.38776],[-84.923017,32.387921],[-84.922809,32.388112],[-84.922745,32.388337],[-84.922713,32.388657],[-84.922553,32.388993],[-84.922297,32.389121],[-84.921849,32.389265],[-84.921225,32.389393],[-84.920393,32.389553],[-84.919641,32.389792],[-84.918809,32.390017],[-84.918281,32.390209],[-84.918073,32.390304],[-84.917385,32.390769],[-84.916793,32.391377],[-84.916505,32.391713],[-84.916249,32.391953],[-84.915961,32.392065],[-84.915737,32.392145],[-84.915209,32.392305],[-84.914921,32.392273],[-84.914473,32.392097],[-84.914201,32.392209],[-84.913977,32.392305],[-84.913625,32.392497],[-84.913193,32.392769],[-84.912921,32.39304],[-84.912379,32.393317],[-84.912317,32.393353],[-84.911881,32.393777],[-84.911753,32.394064],[-84.911689,32.394337],[-84.911513,32.394672],[-84.911321,32.395089],[-84.911097,32.39528],[-84.910905,32.395313],[-84.910473,32.395409],[-84.909913,32.395473],[-84.908969,32.395409],[-84.908185,32.395536],[-84.906969,32.395761],[-84.906473,32.395761],[-84.905993,32.395713],[-84.905209,32.395761],[-84.904921,32.395792],[-84.904329,32.395857],[-84.903721,32.396113],[-84.903465,32.396304],[-84.903257,32.396689],[-84.903161,32.397041],[-84.903129,32.397425],[-84.902969,32.397809],[-84.902729,32.398193],[-84.902121,32.398673],[-84.901977,32.399121],[-84.901865,32.399377],[-84.90168,32.399789],[-84.901657,32.399841],[-84.901625,32.400049],[-84.900937,32.400961],[-84.900697,32.401345],[-84.900505,32.401729],[-84.900393,32.401905],[-84.900137,32.402065],[-84.899849,32.402129],[-84.899593,32.402161],[-84.899049,32.402033],[-84.898377,32.401296],[-84.898265,32.401137],[-84.898057,32.400897],[-84.89761,32.400657],[-84.89713,32.400561],[-84.896281,32.400081],[-84.895402,32.399569],[-84.895081,32.399504],[-84.894873,32.399665],[-84.894457,32.399777],[-84.894091,32.400111],[-84.893625,32.400464],[-84.893191,32.400722],[-84.893113,32.400768],[-84.893009,32.400813],[-84.892649,32.400965],[-84.892472,32.401041],[-84.891577,32.401232],[-84.890922,32.401169],[-84.890313,32.401361],[-84.89004,32.401457],[-84.889754,32.401617],[-84.889481,32.402033],[-84.889385,32.402512],[-84.889273,32.4028],[-84.889145,32.403056],[-84.888953,32.403343],[-84.888696,32.403568],[-84.888566,32.403698],[-84.888538,32.403727],[-84.88833,32.404049],[-84.888217,32.4044],[-84.887977,32.404975],[-84.887865,32.405071],[-84.887737,32.405184],[-84.887049,32.405423],[-84.886265,32.405568],[-84.885769,32.405664],[-84.885017,32.405824],[-84.884601,32.406],[-84.884217,32.406322],[-84.884081,32.406475],[-84.883833,32.407088],[-84.883193,32.407904],[-84.882873,32.409072],[-84.882793,32.409728],[-84.882617,32.410064],[-84.882201,32.410463],[-84.881801,32.410704],[-84.881273,32.410815],[-84.880852,32.410874],[-84.880697,32.410896],[-84.879849,32.41096],[-84.878891,32.411087],[-84.877931,32.411184],[-84.876924,32.411503],[-84.875978,32.411918],[-84.875136,32.412492],[-84.874698,32.412768],[-84.874315,32.412816],[-84.873562,32.412864],[-84.873081,32.412736],[-84.87273,32.412529],[-84.872345,32.412063],[-84.871932,32.411569],[-84.871417,32.411168],[-84.871049,32.411023],[-84.87052,32.410896],[-84.870371,32.410895],[-84.87004,32.410928],[-84.869597,32.411212],[-84.869199,32.411499],[-84.869156,32.41153],[-84.868838,32.411783],[-84.868502,32.41205],[-84.868329,32.412187],[-84.867944,32.412492],[-84.867787,32.412616],[-84.867619,32.412748],[-84.867118,32.41309],[-84.866778,32.41332],[-84.866714,32.413384],[-84.866277,32.41382],[-84.866005,32.413932],[-84.865943,32.413936],[-84.86578,32.413898],[-84.865603,32.413834],[-84.865024,32.413479],[-84.864444,32.41332],[-84.864106,32.413287],[-84.864056,32.413296],[-84.863698,32.413404],[-84.862978,32.413677],[-84.861473,32.413998],[-84.860352,32.414158],[-84.858864,32.414335],[-84.857775,32.414415],[-84.856333,32.414479],[-84.855432,32.414464],[-84.855063,32.414352],[-84.854744,32.414144],[-84.854425,32.413825],[-84.853993,32.413455],[-84.853465,32.41288],[-84.85321,32.412689],[-84.852715,32.412497],[-84.852313,32.412352],[-84.851962,32.41232],[-84.851354,32.412384],[-84.851048,32.412528],[-84.85068,32.412881],[-84.85033,32.413327],[-84.849688,32.413871],[-84.849336,32.414256],[-84.848856,32.414496],[-84.848664,32.41464],[-84.848248,32.414864],[-84.847768,32.414896],[-84.84748,32.414816],[-84.84716,32.414783],[-84.846792,32.414672],[-84.846648,32.41464],[-84.846552,32.414575],[-84.846136,32.414304],[-84.845608,32.41384],[-84.84532,32.413658],[-84.845304,32.413648],[-84.845016,32.41344],[-84.844856,32.413359],[-84.844664,32.41328],[-84.84444,32.413263],[-84.844216,32.413248],[-84.843672,32.413232],[-84.843208,32.413263],[-84.842595,32.413321],[-84.8422,32.413359],[-84.84196,32.413392],[-84.841496,32.413376],[-84.840616,32.41344],[-84.839752,32.413472],[-84.839528,32.413488],[-84.839064,32.413455],[-84.83836,32.413344],[-84.837784,32.41328],[-84.837464,32.41312],[-84.837048,32.412912],[-84.836968,32.412816],[-84.836776,32.412672],[-84.836392,32.412384],[-84.836072,32.412112],[-84.835976,32.411983],[-84.835752,32.41176],[-84.835608,32.411712],[-84.835176,32.411631],[-84.835,32.411648],[-84.834696,32.411776],[-84.834488,32.412048],[-84.834408,32.412191],[-84.834328,32.412368],[-84.834232,32.412816],[-84.834296,32.412976],[-84.83436,32.413216],[-84.834344,32.413615],[-84.834312,32.413744],[-84.83412,32.413936],[-84.8338,32.41408],[-84.833304,32.414192],[-84.833,32.414175],[-84.832888,32.414175],[-84.832584,32.414175],[-84.832488,32.414112],[-84.832296,32.413984],[-84.831992,32.41368],[-84.83188,32.413472],[-84.831688,32.413344],[-84.831512,32.413184],[-84.831352,32.413103],[-84.830744,32.413168],[-84.830216,32.413311],[-84.82996,32.41344],[-84.829496,32.413871],[-84.829256,32.414064],[-84.829048,32.414127],[-84.828728,32.414127],[-84.82852,32.414048],[-84.828008,32.413919],[-84.827864,32.41384],[-84.827608,32.413615],[-84.82724,32.413232],[-84.827112,32.41304],[-84.826904,32.41288],[-84.826328,32.412784],[-84.826008,32.412896],[-84.825784,32.413007],[-84.82556,32.413168],[-84.825272,32.413424],[-84.824984,32.413615],[-84.82476,32.413744],[-84.82452,32.41384],[-84.823992,32.413967],[-84.823896,32.414],[-84.823608,32.414064],[-84.823128,32.414096],[-84.823,32.41408],[-84.822744,32.414032],[-84.822424,32.413871],[-84.822136,32.413776],[-84.821912,32.413632],[-84.821624,32.413455],[-84.821464,32.413328],[-84.821304,32.413248],[-84.820888,32.413088],[-84.820046,32.412942],[-84.819864,32.412912],[-84.819544,32.412847],[-84.81916,32.412816],[-84.818952,32.412816],[-84.818504,32.412912],[-84.818296,32.412976],[-84.818056,32.413088],[-84.817736,32.413296],[-84.817272,32.413808],[-84.816984,32.414032],[-84.81684,32.41416],[-84.816632,32.414288],[-84.816376,32.4144],[-84.81628,32.414416],[-84.816136,32.414448],[-84.815784,32.414512],[-84.815432,32.414496],[-84.815288,32.414479],[-84.814856,32.414416],[-84.814632,32.414448],[-84.814488,32.414448],[-84.814152,32.414496],[-84.81404,32.414608],[-84.813992,32.414656],[-84.813832,32.41496],[-84.813848,32.415087],[-84.813752,32.415408],[-84.813656,32.415536],[-84.813586,32.415664],[-84.81332,32.415792],[-84.813176,32.41584],[-84.812936,32.41592],[-84.812616,32.41592],[-84.812312,32.415968],[-84.811912,32.41592],[-84.811608,32.416016],[-84.811352,32.416112],[-84.811128,32.416336],[-84.810968,32.41664],[-84.810728,32.417136],[-84.810696,32.417264],[-84.81068,32.417616],[-84.810776,32.41784],[-84.810872,32.417968],[-84.811096,32.418256],[-84.811384,32.418608],[-84.811448,32.418832],[-84.811512,32.419024],[-84.81148,32.41928],[-84.811512,32.419376],[-84.811448,32.419663],[-84.811416,32.419856],[-84.811368,32.419984],[-84.811352,32.420015],[-84.81116,32.420256],[-84.811,32.4204],[-84.810904,32.420544],[-84.81052,32.420592],[-84.81036,32.420623],[-84.810088,32.420688],[-84.809816,32.420656],[-84.809432,32.420864],[-84.809208,32.421039],[-84.809016,32.421216],[-84.808952,32.421295],[-84.808552,32.421903],[-84.80836,32.422128],[-84.808168,32.422255],[-84.807944,32.422448],[-84.8078,32.422542],[-84.80764,32.422559],[-84.8074,32.422559],[-84.807,32.42259],[-84.806776,32.422575],[-84.80644,32.422463],[-84.8062,32.422383],[-84.806008,32.422224],[-84.805848,32.422016],[-84.805816,32.421824],[-84.805832,32.421712],[-84.805976,32.421472],[-84.806184,32.421152],[-84.806328,32.420944],[-84.806376,32.420879],[-84.80644,32.420768],[-84.806456,32.420592],[-84.80644,32.420479],[-84.806376,32.420304],[-84.806279,32.420048],[-84.806023,32.4196],[-84.805863,32.419472],[-84.805719,32.419376],[-84.805623,32.41928],[-84.805175,32.418912],[-84.804823,32.418736],[-84.804503,32.418543],[-84.803783,32.418096],[-84.803511,32.417935],[-84.803207,32.417776],[-84.802967,32.417664],[-84.802599,32.417504],[-84.802295,32.417392],[-84.801927,32.417248],[-84.801719,32.417167],[-84.801063,32.417136],[-84.800775,32.417104],[-84.800567,32.417056],[-84.800135,32.41696],[-84.799559,32.416784],[-84.799271,32.416496],[-84.798647,32.415968],[-84.798535,32.415808],[-84.798327,32.415632],[-84.797927,32.415248],[-84.797463,32.414831],[-84.797255,32.414672],[-84.797095,32.414575],[-84.796935,32.414496],[-84.796599,32.414384],[-84.796439,32.414368],[-84.796247,32.414368],[-84.796087,32.4144],[-84.795687,32.414479],[-84.795527,32.414512],[-84.795255,32.414512],[-84.794919,32.414431],[-84.794487,32.414352],[-84.794039,32.414208],[-84.793735,32.41408],[-84.793319,32.413904],[-84.792951,32.41384],[-84.792647,32.413871],[-84.792423,32.413919],[-84.792183,32.413967],[-84.791751,32.414479],[-84.791623,32.41464],[-84.791463,32.414783],[-84.791223,32.414912],[-84.790711,32.415072],[-84.790359,32.415232],[-84.790231,32.415295],[-84.790087,32.415504],[-84.790071,32.415584],[-84.789991,32.41584],[-84.790087,32.416207],[-84.790231,32.416688],[-84.790359,32.416815],[-84.790583,32.416992],[-84.790743,32.417104],[-84.790967,32.417167],[-84.791303,32.417327],[-84.791383,32.417423],[-84.791319,32.417583],[-84.791287,32.417776],[-84.791031,32.417904],[-84.790551,32.418096],[-84.790279,32.41816],[-84.789751,32.418287],[-84.789591,32.418256],[-84.789175,32.418191],[-84.788471,32.418031],[-84.788247,32.417968],[-84.787767,32.417872],[-84.787255,32.417744],[-84.787063,32.417616],[-84.786903,32.41752],[-84.786807,32.41752],[-84.786631,32.4176],[-84.786487,32.417744],[-84.786359,32.41784],[-84.786007,32.418352],[-84.785911,32.418672],[-84.785879,32.419055],[-84.785815,32.41928],[-84.785687,32.419568],[-84.785511,32.419711],[-84.785031,32.419856],[-84.784503,32.419888],[-84.784247,32.419824],[-84.783879,32.41968],[-84.783607,32.4196],[-84.783463,32.4196],[-84.783287,32.419615],[-84.783127,32.419792],[-84.783063,32.419856],[-84.782999,32.419952],[-84.782935,32.420271],[-84.782967,32.4204],[-84.783127,32.420527],[-84.783575,32.420816],[-84.783847,32.420976],[-84.783895,32.421166],[-84.783879,32.421311],[-84.783831,32.421311],[-84.783767,32.421439],[-84.783639,32.421551],[-84.783575,32.421599],[-84.783191,32.421678],[-84.782983,32.421711],[-84.782807,32.421774],[-84.782519,32.421839],[-84.782455,32.421886],[-84.782359,32.421967],[-84.782247,32.422111],[-84.782295,32.422159],[-84.782119,32.422559],[-84.781959,32.42275],[-84.781847,32.422815],[-84.781799,32.422831],[-84.781559,32.422863],[-84.781367,32.42275],[-84.781175,32.422638],[-84.780871,32.422511],[-84.780727,32.422527],[-84.780663,32.422655],[-84.780583,32.422927],[-84.780599,32.423054],[-84.780583,32.423247],[-84.780711,32.423375],[-84.781207,32.423439],[-84.781655,32.423487],[-84.781863,32.423551],[-84.782151,32.423791],[-84.782343,32.423999],[-84.782423,32.424335],[-84.782391,32.424559],[-84.782263,32.424782],[-84.781911,32.424847],[-84.781143,32.424591],[-84.780727,32.424239],[-84.780439,32.424031],[-84.780039,32.423775],[-84.779767,32.423727],[-84.779511,32.423662],[-84.779303,32.423887],[-84.779303,32.424047],[-84.779351,32.424222],[-84.779351,32.424559],[-84.779287,32.424735],[-84.779223,32.424767],[-84.779031,32.424878],[-84.778647,32.424975],[-84.778295,32.424911],[-84.777911,32.424751],[-84.777783,32.424559],[-84.777719,32.424303],[-84.778007,32.423839],[-84.778135,32.423662],[-84.778199,32.423535],[-84.778327,32.423343],[-84.778359,32.423054],[-84.778247,32.422767],[-84.778215,32.422655],[-84.778151,32.422527],[-84.777847,32.422319],[-84.777687,32.422207],[-84.777367,32.422159],[-84.777207,32.422207],[-84.776983,32.422223],[-84.776839,32.422255],[-84.776423,32.422431],[-84.776183,32.422542],[-84.775943,32.422607],[-84.775767,32.422638],[-84.775479,32.422542],[-84.775175,32.422286],[-84.774839,32.422063],[-84.774567,32.421839],[-84.774039,32.421551],[-84.773511,32.421343],[-84.772823,32.421135],[-84.772439,32.421118],[-84.771799,32.421455],[-84.771303,32.421886],[-84.770999,32.422127],[-84.770311,32.422319],[-84.769431,32.422319],[-84.769127,32.422207],[-84.768983,32.421951],[-84.768951,32.421519],[-84.768791,32.420991],[-84.768407,32.420591],[-84.768199,32.420543],[-84.767959,32.420495],[-84.767735,32.420671],[-84.767975,32.42147],[-84.768087,32.421807],[-84.768055,32.422127],[-84.768023,32.422575],[-84.768023,32.423023],[-84.768119,32.423135],[-84.768439,32.423198],[-84.769079,32.42315],[-84.769655,32.423183],[-84.769943,32.423343],[-84.770135,32.423535],[-84.770135,32.423695],[-84.770023,32.423983],[-84.769943,32.424255],[-84.769591,32.424655],[-84.769527,32.424878],[-84.769687,32.425279],[-84.769847,32.425631],[-84.769943,32.425983],[-84.769863,32.426319],[-84.769575,32.426623],[-84.769303,32.426862],[-84.768983,32.427103],[-84.768679,32.427343],[-84.768247,32.427599],[-84.767783,32.427887],[-84.767175,32.428463],[-84.766935,32.428751],[-84.766775,32.429167],[-84.766679,32.429806],[-84.766711,32.430366],[-84.766839,32.431023],[-84.766807,32.431438],[-84.766743,32.431903],[-84.766551,32.432383],[-84.766311,32.432991],[-84.766295,32.433135],[-84.766423,32.433583],[-84.766631,32.43403],[-84.766743,32.434607],[-84.766695,32.434927],[-84.766519,32.435167],[-84.766391,32.435311],[-84.765719,32.435502],[-84.765271,32.435439],[-84.764567,32.435279],[-84.764231,32.435231],[-84.763587,32.43542],[-84.763527,32.435439],[-84.763463,32.435535],[-84.762743,32.435343],[-84.762391,32.435454],[-84.762055,32.435743],[-84.761559,32.436095],[-84.761143,32.436303],[-84.760967,32.436366],[-84.760663,32.43667],[-84.760519,32.436959],[-84.760535,32.437359],[-84.760567,32.437615],[-84.760375,32.438046],[-84.760119,32.438654],[-84.759991,32.439439],[-84.759639,32.440286],[-84.759524,32.4407],[-84.759479,32.440863],[-84.759399,32.441535],[-84.759127,32.441919],[-84.758199,32.442254],[-84.757383,32.442558],[-84.757095,32.44283],[-84.756855,32.443326],[-84.756922,32.444469],[-84.756954,32.445025],[-84.756926,32.445228],[-84.756919,32.445293],[-84.756855,32.44587],[-84.756471,32.446526],[-84.755911,32.446717],[-84.754999,32.446765],[-84.754679,32.447021],[-84.754391,32.448078],[-84.754391,32.44867],[-84.754615,32.449166],[-84.755175,32.449517],[-84.755783,32.449742],[-84.756407,32.449966],[-84.756535,32.450414],[-84.756279,32.451085],[-84.755831,32.451757],[-84.755255,32.452142],[-84.754679,32.452478],[-84.754679,32.453102],[-84.754583,32.453422],[-84.754167,32.453806],[-84.753831,32.454334],[-84.753335,32.454638],[-84.752295,32.454574],[-84.751783,32.454749],[-84.751703,32.455086],[-84.751719,32.455454],[-84.751927,32.456173],[-84.751882,32.456719],[-84.751846,32.45715],[-84.75167,32.457582],[-84.751286,32.45779],[-84.750646,32.457805],[-84.750631,32.4578],[-84.749927,32.457865],[-84.74968,32.457853],[-84.748983,32.457821],[-84.748428,32.458041],[-84.747768,32.458303],[-84.74728,32.458604],[-84.747174,32.458669],[-84.747046,32.458641],[-84.746633,32.458554],[-84.746255,32.458624],[-84.745904,32.458807],[-84.745121,32.458899],[-84.74506,32.458947],[-84.744743,32.459197],[-84.744716,32.459335],[-84.744766,32.459781],[-84.74477,32.459815],[-84.74523,32.460158],[-84.746094,32.459975],[-84.746447,32.459975],[-84.746634,32.459975],[-84.746958,32.46025],[-84.746905,32.460547],[-84.746727,32.460765],[-84.746662,32.460845],[-84.746392,32.461509],[-84.746527,32.461882],[-84.746608,32.462105],[-84.746582,32.462539],[-84.74642,32.462907],[-84.746362,32.462954],[-84.74614,32.463135],[-84.745691,32.463502],[-84.744367,32.463938],[-84.743531,32.464877],[-84.743153,32.465449],[-84.74264,32.467028],[-84.742614,32.468472],[-84.74302,32.469983],[-84.743291,32.470692],[-84.743312,32.471532],[-84.743316,32.471677],[-84.743319,32.471815],[-84.743206,32.472008],[-84.74313,32.472136],[-84.742725,32.472479],[-84.742519,32.472589],[-84.742428,32.47264],[-84.741374,32.472778],[-84.741136,32.472834],[-84.740401,32.473008],[-84.740023,32.473374],[-84.739927,32.47359],[-84.73978,32.473923],[-84.739862,32.474496],[-84.740078,32.474817],[-84.740539,32.475183],[-84.74064,32.475312],[-84.740742,32.475442],[-84.740917,32.475664],[-84.740917,32.476168],[-84.740593,32.476785],[-84.740036,32.476886],[-84.739324,32.477016],[-84.738539,32.477404],[-84.737405,32.478276],[-84.737308,32.478536],[-84.737243,32.47871],[-84.736865,32.479146],[-84.736865,32.479284],[-84.73696,32.47934],[-84.737056,32.479398],[-84.737197,32.47934],[-84.73819,32.47894],[-84.738541,32.4791],[-84.738649,32.479238],[-84.73865,32.479627],[-84.738635,32.479653],[-84.738542,32.47981],[-84.73849,32.479847],[-84.738215,32.480047],[-84.738164,32.480085],[-84.738079,32.480116],[-84.73768,32.480258],[-84.735812,32.480933],[-84.735569,32.481185],[-84.735625,32.481986],[-84.73588,32.482242],[-84.736111,32.482474],[-84.736219,32.482582],[-84.736193,32.482833],[-84.735937,32.482823],[-84.73584,32.482819],[-84.735652,32.48281],[-84.735215,32.482663],[-84.734977,32.482582],[-84.734733,32.482628],[-84.734409,32.483018],[-84.73441,32.48359],[-84.735086,32.484482],[-84.735005,32.484963],[-84.733708,32.485605],[-84.733726,32.485807],[-84.733735,32.485903],[-84.73394,32.485998],[-84.734384,32.486201],[-84.734492,32.486452],[-84.734303,32.486842],[-84.734122,32.487073],[-84.734087,32.487116],[-84.734087,32.487246],[-84.734087,32.487437],[-84.734682,32.487873],[-84.734763,32.48801],[-84.734745,32.488145],[-84.734736,32.488216],[-84.734719,32.488231],[-84.734061,32.488881],[-84.733332,32.489497],[-84.733313,32.489693],[-84.733257,32.490278],[-84.733251,32.490346],[-84.733193,32.490414],[-84.733116,32.490506],[-84.732762,32.490506],[-84.732575,32.490506],[-84.731846,32.490392],[-84.731414,32.490506],[-84.731329,32.490637],[-84.731251,32.490758],[-84.73125,32.490875],[-84.731227,32.492784],[-84.731225,32.492911],[-84.731144,32.493254],[-84.730928,32.49353],[-84.730388,32.493758],[-84.729625,32.493674],[-84.729361,32.493645],[-84.729172,32.493736],[-84.729182,32.493822],[-84.729253,32.4944],[-84.729389,32.494698],[-84.729767,32.495179],[-84.729821,32.495431],[-84.729902,32.495477],[-84.729903,32.496003],[-84.729335,32.496896],[-84.729309,32.497286],[-84.729417,32.497445],[-84.730363,32.497743],[-84.730462,32.497838],[-84.730822,32.498179],[-84.730795,32.498362],[-84.730552,32.498568],[-84.729552,32.498568],[-84.729336,32.499094],[-84.729093,32.499232],[-84.728634,32.499279],[-84.728309,32.499026],[-84.727931,32.499118],[-84.727715,32.499392],[-84.727228,32.499657],[-84.727175,32.499723],[-84.727207,32.50014],[-84.727288,32.500511],[-84.72718,32.500545],[-84.726532,32.50058],[-84.725728,32.500788],[-84.725532,32.500839],[-84.725424,32.501092],[-84.725424,32.501801],[-84.72429,32.502352],[-84.724182,32.502948],[-84.724452,32.503383],[-84.724534,32.503977],[-84.724993,32.504207],[-84.725074,32.504734],[-84.725182,32.504779],[-84.725561,32.504665],[-84.725966,32.504824],[-84.725939,32.505443],[-84.725696,32.50565],[-84.725561,32.506016],[-84.724778,32.506589],[-84.724616,32.507436],[-84.724292,32.507596],[-84.724265,32.507756],[-84.723184,32.508009],[-84.722941,32.507666],[-84.723075,32.506428],[-84.722751,32.506428],[-84.722508,32.506819],[-84.721129,32.507392],[-84.720507,32.507827],[-84.720183,32.507804],[-84.719453,32.507346],[-84.719156,32.5073],[-84.718508,32.508011],[-84.71694,32.50817],[-84.716751,32.508468],[-84.716103,32.509155],[-84.715562,32.509202],[-84.71513,32.509546],[-84.714806,32.509659],[-84.714292,32.509476],[-84.713914,32.509523],[-84.713589,32.509752],[-84.713319,32.510393],[-84.713319,32.510691],[-84.71359,32.51092],[-84.713698,32.511149],[-84.713482,32.511629],[-84.713077,32.511927],[-84.712563,32.511997],[-84.711996,32.512478],[-84.711915,32.512569],[-84.711158,32.512959],[-84.710645,32.513371],[-84.70978,32.513761],[-84.70951,32.51408],[-84.709456,32.514263],[-84.709212,32.514401],[-84.708969,32.515065],[-84.707996,32.515799],[-84.707132,32.51605],[-84.706753,32.516257],[-84.706375,32.516303],[-84.706132,32.516212],[-84.705375,32.516188],[-84.705024,32.516097],[-84.704483,32.51628],[-84.704213,32.516509],[-84.704186,32.516761],[-84.703997,32.516876],[-84.703889,32.517197],[-84.703726,32.517334],[-84.702753,32.51738],[-84.702402,32.517494],[-84.702024,32.518684],[-84.701808,32.518777],[-84.701294,32.518662],[-84.700862,32.518684],[-84.698267,32.518732],[-84.696402,32.518639],[-84.69451,32.518732],[-84.694456,32.518639],[-84.693537,32.518732],[-84.690455,32.519304],[-84.689347,32.519326],[-84.687968,32.519602],[-84.686265,32.519624],[-84.68586,32.519807],[-84.684941,32.520541],[-84.684752,32.520587],[-84.684644,32.520449],[-84.684671,32.519579],[-84.684455,32.51919],[-84.684292,32.519075],[-84.683752,32.518984],[-84.683671,32.519647],[-84.683373,32.519671],[-84.683238,32.519579],[-84.682941,32.518892],[-84.682671,32.518915],[-84.682563,32.519556],[-84.682346,32.519556],[-84.682211,32.519464],[-84.682103,32.518869],[-84.681914,32.518662],[-84.681076,32.518892],[-84.680698,32.518709],[-84.680049,32.518777],[-84.679644,32.519075],[-84.678562,32.518869],[-84.678157,32.518915],[-84.67786,32.519624],[-84.677941,32.519785],[-84.6784,32.520037],[-84.6784,32.520243],[-84.677562,32.520518],[-84.677103,32.520541],[-84.676508,32.520403],[-84.676238,32.520173],[-84.675778,32.520059],[-84.675049,32.520059],[-84.674589,32.520356],[-84.674481,32.52102],[-84.674616,32.521227],[-84.674562,32.521594],[-84.674265,32.521684],[-84.673994,32.521548],[-84.673427,32.521707],[-84.673129,32.522166],[-84.672778,32.522212],[-84.672481,32.52212],[-84.67221,32.522188],[-84.67194,32.522395],[-84.670967,32.523654],[-84.670264,32.523882],[-84.669236,32.524867],[-84.66775,32.525692],[-84.667263,32.525737],[-84.667182,32.525967],[-84.666885,32.526218],[-84.666714,32.52653],[-84.666263,32.527363],[-84.665857,32.527638],[-84.665398,32.527614],[-84.664316,32.527912],[-84.664127,32.528371],[-84.663235,32.528737],[-84.662316,32.528737],[-84.661721,32.529148],[-84.661343,32.529117],[-84.66064,32.529057],[-84.660532,32.528965],[-84.660288,32.529034],[-84.660234,32.529423],[-84.659883,32.529308],[-84.659802,32.528965],[-84.659667,32.528851],[-84.65891,32.52901],[-84.658396,32.528736],[-84.658017,32.528759],[-84.65799,32.529308],[-84.657665,32.529193],[-84.657341,32.529238],[-84.656773,32.529789],[-84.655719,32.53004],[-84.65415,32.531689],[-84.653934,32.531779],[-84.653664,32.531712],[-84.653394,32.531391],[-84.653096,32.531413],[-84.652961,32.531689],[-84.653069,32.532261],[-84.652988,32.532466],[-84.652393,32.532626],[-84.652366,32.532879],[-84.652149,32.533062],[-84.650987,32.533383],[-84.650852,32.533589],[-84.650743,32.534207],[-84.650608,32.534343],[-84.650419,32.534343],[-84.649662,32.533474],[-84.649203,32.533474],[-84.648932,32.533724],[-84.648905,32.534275],[-84.648977,32.534956],[-84.64568,32.534914],[-84.644619,32.5349],[-84.639469,32.534838],[-84.638011,32.534821],[-84.637578,32.534889],[-84.637323,32.534855],[-84.637463,32.525505],[-84.637494,32.523465],[-84.637645,32.513455],[-84.637706,32.512006],[-84.638108,32.502516],[-84.638188,32.500647],[-84.63821,32.500141],[-84.638117,32.497715],[-84.638129,32.497402],[-84.638225,32.494841],[-84.64541,32.494878],[-84.649901,32.494902],[-84.654923,32.494929],[-84.657325,32.49494],[-84.657355,32.493789],[-84.657365,32.493406],[-84.657366,32.493374],[-84.657366,32.493352],[-84.657368,32.493284],[-84.657402,32.491985],[-84.657403,32.491963],[-84.657466,32.489685],[-84.657476,32.48931],[-84.657478,32.489218],[-84.657486,32.488871],[-84.657497,32.488461],[-84.657506,32.488131],[-84.657553,32.486303],[-84.657584,32.485123],[-84.657622,32.48368],[-84.657643,32.482874],[-84.657657,32.482357],[-84.657699,32.480761],[-84.657719,32.479993],[-84.657721,32.479914],[-84.657721,32.479897],[-84.657723,32.479835],[-84.657759,32.478439],[-84.657771,32.477984],[-84.65797,32.470467],[-84.657981,32.470052],[-84.657984,32.469936],[-84.657985,32.469914],[-84.657986,32.46987],[-84.658,32.469316],[-84.658196,32.461885],[-84.658258,32.459549],[-84.658555,32.448281],[-84.658601,32.446362],[-84.658623,32.445517],[-84.658682,32.443223],[-84.658721,32.441739],[-84.658724,32.441643],[-84.65862,32.441626],[-84.657524,32.441443],[-84.657533,32.440599],[-84.657551,32.438912],[-84.657568,32.437286],[-84.657573,32.436811],[-84.657577,32.436436],[-84.657579,32.436242],[-84.657698,32.424948],[-84.657853,32.41031],[-84.657971,32.399081],[-84.657989,32.397374],[-84.658007,32.395682],[-84.658024,32.394056],[-84.658034,32.393099],[-84.658031,32.39309],[-84.658026,32.393078],[-84.658006,32.393023],[-84.658018,32.391931],[-84.658029,32.391137],[-84.658029,32.391106],[-84.658029,32.391073],[-84.65803,32.390949],[-84.658183,32.378943],[-84.658223,32.375146],[-84.658199,32.373666],[-84.658187,32.372884],[-84.658186,32.372799],[-84.658163,32.371378],[-84.657947,32.357681],[-84.657823,32.349848],[-84.657843,32.347333],[-84.657874,32.343577],[-84.657925,32.337497],[-84.658016,32.326636],[-84.65819,32.310437],[-84.658203,32.309793],[-84.658692,32.30981],[-84.659134,32.309859],[-84.659563,32.309889],[-84.659986,32.309919],[-84.661061,32.310012],[-84.661325,32.310035],[-84.66188,32.310077],[-84.66194,32.310085],[-84.662354,32.310107],[-84.662661,32.310117],[-84.663202,32.310161],[-84.663617,32.310184],[-84.664149,32.310215],[-84.664365,32.310215],[-84.664564,32.310205],[-84.664907,32.3102],[-84.666063,32.31006],[-84.666339,32.31002],[-84.667413,32.30986],[-84.667592,32.3098],[-84.667644,32.309789],[-84.668833,32.309534],[-84.669208,32.309458],[-84.669301,32.309438],[-84.671024,32.309072],[-84.673654,32.30849],[-84.674313,32.308349],[-84.675123,32.308176],[-84.676239,32.307921],[-84.676573,32.307848],[-84.677453,32.307656],[-84.678337,32.307462],[-84.679871,32.307108],[-84.680702,32.306916],[-84.680734,32.306911],[-84.680766,32.3069],[-84.681077,32.306827],[-84.681374,32.306766],[-84.681907,32.306666],[-84.68238,32.306585],[-84.682525,32.306564],[-84.683011,32.306497],[-84.683163,32.306474],[-84.683233,32.306466],[-84.683381,32.306441],[-84.683586,32.306424],[-84.684508,32.306345],[-84.685194,32.306317],[-84.685349,32.306311],[-84.685806,32.306303],[-84.68618,32.306305],[-84.686489,32.3063],[-84.687227,32.306292],[-84.687331,32.306604],[-84.687439,32.306899],[-84.687636,32.307287],[-84.687988,32.307738],[-84.690128,32.309908],[-84.691197,32.31101],[-84.691752,32.311677],[-84.691921,32.311943],[-84.692165,32.312407],[-84.692199,32.312496],[-84.692356,32.313246],[-84.692385,32.313352],[-84.692551,32.314439],[-84.692663,32.31487],[-84.692751,32.31513],[-84.692908,32.315486],[-84.693068,32.315728],[-84.693506,32.316274],[-84.693668,32.316496],[-84.693731,32.316574],[-84.693799,32.316643],[-84.694044,32.316842],[-84.694293,32.317036],[-84.694661,32.317259],[-84.694779,32.317317],[-84.69506,32.317455],[-84.695347,32.317579],[-84.695911,32.31778],[-84.695972,32.317797],[-84.696292,32.317883],[-84.697405,32.318143],[-84.698389,32.318423],[-84.699226,32.318652],[-84.702426,32.319543],[-84.702956,32.319677],[-84.703373,32.31973],[-84.704515,32.319763],[-84.706556,32.319823],[-84.706742,32.319826],[-84.708115,32.319844],[-84.708499,32.319846],[-84.710301,32.319888],[-84.710517,32.31989],[-84.711701,32.319904],[-84.713429,32.319972],[-84.714981,32.320175],[-84.715252,32.320228],[-84.715756,32.320334],[-84.717063,32.320562],[-84.717603,32.320647],[-84.718005,32.320724],[-84.719143,32.320923],[-84.719404,32.320963],[-84.720394,32.321132],[-84.720556,32.321168],[-84.720977,32.321247],[-84.721483,32.321443],[-84.721968,32.321703],[-84.722336,32.321966],[-84.722997,32.322601],[-84.723785,32.323397],[-84.723995,32.323613],[-84.724492,32.324123],[-84.725151,32.324703],[-84.725463,32.32491],[-84.725675,32.325045],[-84.725947,32.325173],[-84.72634,32.32531],[-84.726831,32.325423],[-84.727595,32.325529],[-84.727742,32.325545],[-84.730736,32.325972],[-84.733156,32.326293],[-84.733348,32.32632],[-84.734628,32.326512],[-84.735666,32.32669],[-84.736397,32.326833],[-84.737476,32.327106],[-84.739778,32.327847],[-84.743177,32.32898],[-84.744172,32.329296],[-84.744654,32.329428],[-84.745214,32.329569],[-84.745824,32.329713],[-84.748626,32.330243],[-84.748758,32.33026],[-84.749589,32.330396],[-84.75303,32.331041],[-84.754223,32.331265],[-84.754399,32.3313],[-84.754558,32.331331],[-84.755877,32.331569],[-84.75646,32.331702],[-84.757146,32.331949],[-84.757882,32.332307],[-84.758491,32.332696],[-84.758972,32.333024],[-84.760275,32.333925],[-84.761366,32.33466],[-84.762017,32.335036],[-84.762667,32.335334],[-84.763436,32.335625],[-84.765602,32.33619],[-84.769903,32.33731],[-84.770031,32.337344],[-84.77073,32.337525],[-84.77213,32.337845],[-84.773288,32.338132],[-84.773872,32.338301],[-84.77498,32.338621],[-84.775192,32.3387],[-84.775358,32.338766],[-84.775622,32.338901],[-84.775977,32.339125],[-84.776286,32.339343],[-84.776559,32.339602],[-84.776864,32.339969],[-84.777108,32.340339],[-84.777125,32.340375],[-84.777264,32.34067],[-84.77729,32.340716],[-84.777426,32.341039],[-84.777505,32.341217],[-84.77825,32.342905],[-84.778461,32.343345],[-84.778751,32.343854],[-84.778824,32.343953],[-84.779139,32.344383],[-84.779555,32.344879],[-84.780845,32.346181],[-84.781225,32.346553],[-84.78153,32.346876],[-84.782233,32.347558],[-84.782305,32.347617],[-84.78267,32.34791],[-84.783026,32.348135],[-84.78324,32.34825],[-84.783518,32.348359],[-84.793767,32.34858],[-84.793774,32.348011],[-84.793872,32.341455],[-84.793956,32.334404],[-84.79404,32.328004],[-84.79419,32.316814],[-84.794196,32.315631],[-84.794265,32.314237],[-84.794308,32.31333],[-84.794387,32.313073],[-84.794352,32.309813],[-84.794357,32.309596],[-84.79437,32.309043],[-84.794421,32.306495],[-84.794433,32.305923],[-84.794414,32.305643],[-84.794398,32.305256],[-84.794416,32.305034],[-84.794499,32.303846],[-84.79445,32.3033],[-84.794472,32.30304],[-84.794481,32.302854],[-84.794477,32.302739],[-84.794525,32.302649],[-84.794462,32.302522],[-84.794421,32.302382],[-84.794419,32.302183],[-84.794445,32.301882],[-84.794473,32.301735],[-84.794449,32.301348],[-84.794503,32.300267],[-84.794511,32.299773],[-84.792419,32.29976],[-84.791737,32.299756],[-84.791778,32.296025],[-84.791761,32.295831],[-84.791718,32.295426],[-84.791713,32.295202],[-84.791699,32.294888],[-84.791706,32.294618],[-84.791749,32.294161],[-84.7918,32.293965],[-84.791812,32.292851],[-84.791829,32.292582],[-84.791829,32.292146],[-84.791829,32.291701],[-84.791844,32.288804],[-84.791867,32.28459],[-84.791881,32.281255],[-84.791946,32.276956],[-84.791978,32.274026],[-84.792029,32.271706],[-84.792217,32.267446],[-84.792258,32.266603],[-84.792289,32.265752],[-84.79231,32.264885],[-84.792348,32.263291],[-84.792574,32.262016],[-84.79255,32.25678],[-84.793418,32.256808],[-84.79553,32.256869],[-84.796362,32.25891],[-84.797332,32.25898],[-84.7993,32.258591],[-84.799812,32.258407],[-84.800809,32.257331],[-84.800932,32.257239],[-84.805126,32.257337],[-84.806612,32.257224],[-84.811162,32.257367],[-84.811175,32.257367],[-84.811292,32.255146],[-84.811864,32.254962],[-84.812714,32.254744],[-84.81315,32.254626],[-84.813764,32.254452],[-84.814088,32.254346],[-84.814388,32.254261],[-84.814491,32.254226],[-84.814722,32.254123],[-84.815262,32.253833],[-84.816135,32.253314],[-84.817011,32.252817],[-84.817141,32.25273],[-84.817377,32.252591],[-84.817867,32.252281],[-84.818265,32.252001],[-84.81876,32.251578],[-84.818956,32.251351],[-84.819343,32.250808],[-84.819995,32.249744],[-84.820143,32.249505],[-84.820279,32.249316],[-84.820713,32.248756],[-84.820972,32.248472],[-84.821272,32.248199],[-84.821507,32.248012],[-84.821843,32.247802],[-84.822615,32.247348],[-84.823338,32.246916],[-84.823733,32.246653],[-84.823921,32.246552],[-84.824182,32.246395],[-84.824593,32.246161],[-84.825199,32.245869],[-84.825868,32.245573],[-84.826105,32.245479],[-84.826214,32.245423],[-84.827569,32.244877],[-84.828331,32.244586],[-84.82853,32.244501],[-84.829635,32.244081],[-84.829876,32.243989],[-84.830248,32.243873],[-84.830297,32.243855],[-84.831047,32.243633],[-84.832636,32.243266],[-84.832928,32.243206],[-84.833295,32.243108],[-84.835032,32.242728],[-84.83507,32.242718],[-84.835313,32.242675],[-84.835781,32.242556],[-84.836297,32.242399],[-84.836706,32.242249],[-84.837127,32.242069],[-84.837651,32.241804],[-84.838213,32.241469],[-84.838763,32.241115],[-84.83911,32.240879],[-84.83961,32.240549],[-84.839806,32.240419],[-84.840106,32.240229],[-84.840358,32.240052],[-84.840751,32.239798],[-84.841541,32.239341],[-84.84183,32.239207],[-84.842332,32.239015],[-84.8427,32.238901],[-84.843273,32.238756],[-84.843572,32.238695],[-84.844097,32.238644],[-84.84467,32.238622],[-84.845074,32.23863],[-84.845996,32.238712],[-84.846842,32.238805],[-84.847452,32.238872],[-84.849606,32.239102],[-84.851795,32.239327],[-84.852642,32.239399],[-84.852757,32.239412],[-84.85414,32.239537],[-84.855581,32.239691],[-84.857433,32.23989],[-84.858638,32.239998],[-84.859071,32.240031],[-84.859459,32.24008],[-84.859793,32.240127],[-84.860297,32.240183],[-84.860935,32.240274],[-84.861574,32.240386],[-84.86205,32.240488],[-84.862812,32.240661],[-84.863414,32.240796],[-84.863588,32.240828],[-84.863927,32.24093],[-84.864588,32.241143],[-84.865144,32.241354],[-84.865908,32.241692],[-84.866373,32.241909],[-84.866617,32.242007],[-84.866957,32.242114],[-84.867235,32.242188],[-84.86758,32.242237],[-84.867839,32.242252],[-84.868116,32.24226],[-84.868389,32.242234],[-84.868712,32.242165],[-84.869006,32.242089],[-84.869536,32.241965],[-84.870274,32.241773],[-84.871151,32.24156],[-84.871603,32.241479],[-84.871901,32.241428],[-84.872489,32.241348],[-84.873254,32.241252],[-84.873413,32.241234],[-84.873375,32.244334],[-84.873338,32.247025],[-84.87331,32.247619],[-84.873239,32.251425],[-84.874936,32.251467],[-84.878382,32.251561],[-84.878246,32.255575],[-84.878217,32.259164],[-84.884543,32.259507],[-84.884779,32.259521],[-84.885104,32.259538],[-84.886934,32.259638],[-84.888246,32.25967],[-84.888519,32.260869],[-84.888983,32.26151],[-84.889431,32.261941],[-84.890711,32.262901],[-84.891751,32.263621],[-84.893015,32.264502],[-84.893543,32.265302],[-84.893959,32.265846],[-84.894647,32.266278],[-84.895655,32.266726],[-84.896535,32.267381],[-84.897639,32.267974],[-84.898647,32.268438],[-84.898999,32.268822],[-84.899351,32.26943],[-84.899383,32.269509],[-84.900135,32.270038],[-84.900791,32.270662],[-84.901351,32.271414],[-84.901671,32.271734],[-84.902391,32.272405],[-84.902871,32.272725],[-84.903153,32.272953],[-84.903623,32.273333],[-84.904023,32.273749],[-84.904439,32.274005],[-84.905255,32.274372],[-84.906167,32.274836],[-84.907303,32.275349],[-84.910215,32.276469],[-84.911127,32.276949],[-84.912039,32.277605],[-84.912823,32.278149],[-84.914151,32.279349],[-84.915159,32.280005],[-84.91604,32.280773],[-84.916136,32.280949],[-84.91796,32.281877],[-84.918808,32.282452],[-84.920168,32.283285],[-84.92076,32.283797],[-84.921736,32.284565],[-84.922872,32.285333],[-84.923848,32.286372],[-84.924728,32.287301],[-84.925512,32.288373],[-84.926296,32.289445],[-84.926856,32.290084],[-84.927704,32.291092],[-84.928392,32.292116],[-84.929656,32.29354],[-84.930712,32.294837],[-84.93164,32.295845],[-84.932504,32.296756],[-84.933176,32.297492],[-84.9338,32.29826],[-84.934648,32.298916],[-84.935096,32.29914],[-84.935944,32.29954],[-84.936536,32.299732],[-84.93724,32.30002],[-84.938079,32.300421],[-84.938159,32.300458],[-84.93868,32.300708],[-84.939016,32.300948],[-84.9394,32.301172],[-84.940152,32.301699],[-84.940808,32.302068],[-84.941864,32.30258],[-84.943097,32.302964],[-84.944073,32.303348],[-84.945161,32.303508],[-84.946249,32.3037],[-84.947385,32.304052],[-84.948473,32.304291],[-84.949465,32.30442],[-84.950569,32.30466],[-84.951305,32.304884],[-84.952073,32.305315],[-84.953049,32.30554],[-84.953561,32.305892],[-84.954441,32.30626],[-84.955273,32.306612],[-84.955537,32.306694],[-84.955785,32.306772],[-84.956111,32.306896],[-84.956122,32.306905],[-84.956585,32.30706],[-84.956735,32.307144],[-84.957129,32.307364],[-84.957465,32.307422],[-84.958521,32.307603],[-84.959609,32.30794],[-84.960425,32.30818],[-84.961273,32.308563],[-84.962265,32.308916],[-84.962633,32.309156],[-84.963513,32.309556],[-84.964489,32.309844],[-84.965289,32.310004],[-84.965833,32.310228],[-84.967081,32.310724],[-84.967945,32.311059],[-84.969897,32.311684],[-84.971705,32.312436],[-84.973305,32.313204],[-84.974569,32.313651],[-84.975657,32.314003],[-84.977321,32.314692],[-84.97873,32.315092],[-84.979738,32.31546],[-84.981802,32.316276],[-84.983114,32.316724],[-84.983866,32.316947],[-84.985642,32.317715],[-84.98745,32.318483],[-84.988826,32.319172],[-84.989514,32.319316],[-84.991018,32.319651],[-84.992044,32.319893],[-84.99265,32.320036],[-84.994122,32.320468],[-84.995402,32.320771],[-84.99705,32.321123],[-84.998127,32.321371],[-84.998196,32.321387],[-84.999888,32.321371],[-84.999908,32.321371],[-84.999931,32.321371],[-85.000271,32.32141],[-85.000343,32.321418],[-85.001874,32.322015],[-85.002791,32.322428],[-85.003276,32.322794],[-85.003842,32.323321],[-85.003842,32.323436],[-85.005351,32.32504],[-85.006402,32.326757],[-85.006941,32.328086],[-85.007103,32.328362],[-85.007291,32.329324],[-85.007327,32.330109],[-85.007397,32.331615],[-85.007719,32.33379],[-85.008096,32.335234],[-85.008096,32.336677]]]}},{"type":"Feature","properties":{"STATEFP":"13","SCSDLEA":"13215","GEOID":"1313215","GEOIDFQ":"9600000US1313215","NAME":"Muscogee County for Fort Benning","LSAD":"00","LOGRADE":"09","HIGRADE":"12","MTFCC":"G5410","SDTYP":"A","FUNCSTAT":"F","ALAND":191876463,"AWATER":549905,"INTPTLAT":"+32.4698571","INTPTLON":"-084.8130988"},"geometry":{"type":"Polygon","coordinates":[[[-84.957962,32.374482],[-84.957418,32.375026],[-84.957354,32.375282],[-84.957418,32.375762],[-84.95737,32.376402],[-84.95713,32.377361],[-84.95705,32.378065],[-84.95705,32.37912],[-84.95702,32.380418],[-84.957088,32.380539],[-84.957101,32.380823],[-84.957125,32.381345],[-84.957137,32.381596],[-84.957151,32.381911],[-84.957166,32.382233],[-84.957169,32.382298],[-84.95717,32.382482],[-84.957174,32.383253],[-84.957176,32.383732],[-84.957185,32.384099],[-84.957197,32.384638],[-84.957205,32.384951],[-84.957209,32.385119],[-84.957232,32.38561],[-84.95727,32.386426],[-84.957247,32.3872],[-84.95723,32.387388],[-84.956927,32.387391],[-84.956547,32.387396],[-84.955789,32.387498],[-84.955771,32.3875],[-84.955144,32.387833],[-84.954653,32.388373],[-84.954451,32.388754],[-84.954477,32.38892],[-84.954493,32.389104],[-84.954539,32.389615],[-84.954603,32.390089],[-84.954602,32.390473],[-84.954572,32.3911],[-84.954497,32.391928],[-84.954489,32.391969],[-84.954435,32.392231],[-84.954168,32.393715],[-84.953649,32.395355],[-84.951931,32.399357],[-84.948734,32.406725],[-84.947558,32.406758],[-84.947287,32.406775],[-84.943504,32.406717],[-84.940115,32.406653],[-84.940102,32.406654],[-84.940114,32.402948],[-84.93987,32.402887],[-84.9394,32.402667],[-84.938736,32.402223],[-84.938134,32.401752],[-84.93769,32.401511],[-84.93716,32.401282],[-84.936645,32.401142],[-84.93587,32.40099],[-84.934535,32.400858],[-84.934029,32.400827],[-84.933581,32.400841],[-84.933297,32.400908],[-84.933054,32.400973],[-84.932962,32.401043],[-84.932782,32.401094],[-84.932857,32.401252],[-84.933272,32.402014],[-84.933602,32.402638],[-84.933832,32.402829],[-84.934245,32.403741],[-84.934741,32.40535],[-84.934733,32.405557],[-84.934475,32.40552],[-84.934116,32.405501],[-84.933788,32.405476],[-84.933185,32.405468],[-84.931803,32.405436],[-84.930724,32.405425],[-84.92892,32.40539],[-84.928577,32.405383],[-84.925734,32.405334],[-84.92478,32.40532],[-84.924316,32.405312],[-84.924072,32.405307],[-84.923862,32.405298],[-84.922141,32.405268],[-84.920948,32.405248],[-84.916714,32.405174],[-84.916377,32.405169],[-84.914713,32.405133],[-84.9133,32.405239],[-84.912712,32.405276],[-84.912426,32.405271],[-84.912603,32.405453],[-84.912958,32.405607],[-84.913208,32.405691],[-84.913762,32.405962],[-84.914534,32.406369],[-84.915578,32.406975],[-84.916637,32.407586],[-84.919284,32.409151],[-84.920317,32.410101],[-84.920682,32.410508],[-84.920902,32.410832],[-84.921204,32.411322],[-84.921486,32.41197],[-84.922086,32.413222],[-84.923443,32.416158],[-84.924028,32.417442],[-84.924795,32.419115],[-84.925646,32.421019],[-84.926556,32.42307],[-84.926304,32.423105],[-84.926042,32.42313],[-84.925424,32.423153],[-84.925209,32.423161],[-84.925023,32.42313],[-84.924239,32.42313],[-84.92294,32.423028],[-84.921659,32.423055],[-84.920086,32.423026],[-84.920035,32.42303],[-84.91564,32.422987],[-84.909597,32.42292],[-84.907727,32.422891],[-84.903861,32.422828],[-84.895482,32.422783],[-84.892295,32.422751],[-84.892487,32.423418],[-84.892748,32.423691],[-84.892983,32.423909],[-84.893201,32.424296],[-84.893,32.425219],[-84.892026,32.426949],[-84.892009,32.427234],[-84.892043,32.427469],[-84.892076,32.427822],[-84.892278,32.428393],[-84.892242,32.428905],[-84.892532,32.430942],[-84.893168,32.431461],[-84.893561,32.431917],[-84.893624,32.432221],[-84.893706,32.432686],[-84.893599,32.433252],[-84.893505,32.43364],[-84.89324,32.434042],[-84.893154,32.434497],[-84.893187,32.43614],[-84.894198,32.438565],[-84.89594,32.438668],[-84.895959,32.438671],[-84.899011,32.43883],[-84.898961,32.440359],[-84.898894,32.441466],[-84.898893,32.441599],[-84.898967,32.445765],[-84.898956,32.449101],[-84.89894,32.449968],[-84.898917,32.450863],[-84.898867,32.451492],[-84.898866,32.451684],[-84.898919,32.452008],[-84.898905,32.452419],[-84.898913,32.45243],[-84.898922,32.453339],[-84.898925,32.455336],[-84.898556,32.455438],[-84.898405,32.45545],[-84.897559,32.455353],[-84.896396,32.455332],[-84.895011,32.455352],[-84.893632,32.455366],[-84.891243,32.455381],[-84.891091,32.455472],[-84.877379,32.455263],[-84.877348,32.455273],[-84.876876,32.455236],[-84.876796,32.455276],[-84.869959,32.455095],[-84.869902,32.456094],[-84.869973,32.457105],[-84.869992,32.45729],[-84.869857,32.469501],[-84.869848,32.469625],[-84.86985,32.469852],[-84.869818,32.47027],[-84.869773,32.470602],[-84.869706,32.471634],[-84.869696,32.471781],[-84.869686,32.471884],[-84.869621,32.473627],[-84.869623,32.473898],[-84.869642,32.477173],[-84.869712,32.479441],[-84.869344,32.479436],[-84.860762,32.47931],[-84.857551,32.479263],[-84.848857,32.479136],[-84.847745,32.47912],[-84.84814,32.48023],[-84.848253,32.480549],[-84.848424,32.481577],[-84.848439,32.482083],[-84.848366,32.482824],[-84.848243,32.483381],[-84.848133,32.483879],[-84.847662,32.484966],[-84.847105,32.486216],[-84.84705,32.486536],[-84.846626,32.487533],[-84.846073,32.488774],[-84.845117,32.490829],[-84.845917,32.490768],[-84.850149,32.495115],[-84.850122,32.49575],[-84.850099,32.496685],[-84.850085,32.496887],[-84.85001,32.497932],[-84.84998,32.498578],[-84.850031,32.498921],[-84.850071,32.499149],[-84.850116,32.499733],[-84.850098,32.500176],[-84.849991,32.500611],[-84.849983,32.500946],[-84.850047,32.501384],[-84.850055,32.501682],[-84.850034,32.501953],[-84.849913,32.502332],[-84.849814,32.503318],[-84.849666,32.504227],[-84.849619,32.504624],[-84.849671,32.504942],[-84.849667,32.505114],[-84.84964,32.505316],[-84.84953,32.505522],[-84.849216,32.506176],[-84.848667,32.507559],[-84.848619,32.507697],[-84.848524,32.507906],[-84.848339,32.508175],[-84.847622,32.509081],[-84.847103,32.509546],[-84.846577,32.509981],[-84.846281,32.510147],[-84.845751,32.510312],[-84.845292,32.51025],[-84.844822,32.510241],[-84.844601,32.510241],[-84.843808,32.510365],[-84.842256,32.510809],[-84.841236,32.511121],[-84.840983,32.511212],[-84.840738,32.511235],[-84.840361,32.511289],[-84.84032,32.511606],[-84.839754,32.515955],[-84.835667,32.520397],[-84.835168,32.521594],[-84.83493,32.523426],[-84.835702,32.524514],[-84.836527,32.525671],[-84.836704,32.52592],[-84.837139,32.526515],[-84.837521,32.527038],[-84.837692,32.527271],[-84.83864,32.528641],[-84.839598,32.530003],[-84.839876,32.530416],[-84.83997,32.530592],[-84.840085,32.530898],[-84.840122,32.531011],[-84.8402,32.531253],[-84.840231,32.531474],[-84.838768,32.532069],[-84.837667,32.532553],[-84.83644,32.533026],[-84.835578,32.533276],[-84.834874,32.533412],[-84.833833,32.533628],[-84.831931,32.534036],[-84.830465,32.534325],[-84.829898,32.534447],[-84.829351,32.534528],[-84.828522,32.534638],[-84.827563,32.534689],[-84.827167,32.534688],[-84.82652,32.534719],[-84.825722,32.534757],[-84.824642,32.534902],[-84.823634,32.535037],[-84.821685,32.535314],[-84.820447,32.535578],[-84.819657,32.535812],[-84.819016,32.535975],[-84.818328,32.536217],[-84.817558,32.53654],[-84.816612,32.53689],[-84.81645,32.536958],[-84.815516,32.537356],[-84.814824,32.537753],[-84.813845,32.538374],[-84.812748,32.53907],[-84.812447,32.539253],[-84.812138,32.539441],[-84.811587,32.539776],[-84.810392,32.540382],[-84.809237,32.540884],[-84.806148,32.542512],[-84.805814,32.542698],[-84.804291,32.543548],[-84.801953,32.54473],[-84.800639,32.545389],[-84.800249,32.545548],[-84.799568,32.545879],[-84.798469,32.546196],[-84.797912,32.546329],[-84.796703,32.546587],[-84.793984,32.546866],[-84.793553,32.546917],[-84.792105,32.547089],[-84.79174,32.547143],[-84.790083,32.547386],[-84.78832,32.54766],[-84.787025,32.547794],[-84.785827,32.547905],[-84.784676,32.547908],[-84.783284,32.54779],[-84.780616,32.547644],[-84.779312,32.547558],[-84.777846,32.547607],[-84.777554,32.547645],[-84.777014,32.547668],[-84.776428,32.547764],[-84.77551,32.547885],[-84.775332,32.547921],[-84.774783,32.548035],[-84.774447,32.548197],[-84.774147,32.548398],[-84.773979,32.548619],[-84.773819,32.54883],[-84.773537,32.549481],[-84.773367,32.549892],[-84.773031,32.549881],[-84.772539,32.549844],[-84.771249,32.549839],[-84.770371,32.549861],[-84.770066,32.549892],[-84.769466,32.549984],[-84.769015,32.550108],[-84.767924,32.550483],[-84.766848,32.550871],[-84.766536,32.551018],[-84.76595,32.551221],[-84.765204,32.551401],[-84.764561,32.551475],[-84.762449,32.551665],[-84.761125,32.551763],[-84.75974,32.551873],[-84.759169,32.551952],[-84.758643,32.551986],[-84.758055,32.551946],[-84.757468,32.551878],[-84.757021,32.551782],[-84.756528,32.551644],[-84.756294,32.551561],[-84.755814,32.551356],[-84.755541,32.551212],[-84.755244,32.551063],[-84.755023,32.550921],[-84.754612,32.550687],[-84.75423,32.550452],[-84.753629,32.550119],[-84.753047,32.549827],[-84.752706,32.549698],[-84.752186,32.549542],[-84.751501,32.549325],[-84.750781,32.549132],[-84.750103,32.548986],[-84.749875,32.548926],[-84.749439,32.548809],[-84.74864,32.548564],[-84.74779,32.548257],[-84.74738,32.548133],[-84.746527,32.547956],[-84.746172,32.547905],[-84.745835,32.547902],[-84.745539,32.547884],[-84.745054,32.547899],[-84.743357,32.547848],[-84.742933,32.547826],[-84.742494,32.547762],[-84.741952,32.547652],[-84.740701,32.547305],[-84.740293,32.547178],[-84.739711,32.546996],[-84.736912,32.546059],[-84.733053,32.544798],[-84.730191,32.543895],[-84.725547,32.542412],[-84.721881,32.541241],[-84.72097,32.540989],[-84.719068,32.540464],[-84.71619,32.539729],[-84.71496,32.539429],[-84.713416,32.53904],[-84.712734,32.538865],[-84.711335,32.538489],[-84.709343,32.537336],[-84.708753,32.53692],[-84.708397,32.53671],[-84.705623,32.535965],[-84.70551,32.535955],[-84.704893,32.535943],[-84.704186,32.536022],[-84.703474,32.536155],[-84.701495,32.53665],[-84.699414,32.53717],[-84.698733,32.537321],[-84.698398,32.537405],[-84.698048,32.537474],[-84.697763,32.53752],[-84.697477,32.537551],[-84.697177,32.537559],[-84.696643,32.537581],[-84.696347,32.537571],[-84.695836,32.537525],[-84.695618,32.537497],[-84.695376,32.537466],[-84.695014,32.537377],[-84.694374,32.537176],[-84.69389,32.536994],[-84.693181,32.536696],[-84.692706,32.536484],[-84.692207,32.536251],[-84.690254,32.535387],[-84.689336,32.534956],[-84.688699,32.534785],[-84.688357,32.534703],[-84.688098,32.534655],[-84.68771,32.534607],[-84.68725,32.534585],[-84.686981,32.53458],[-84.686956,32.534571],[-84.686926,32.534579],[-84.686348,32.534609],[-84.686067,32.534647],[-84.684216,32.534982],[-84.682619,32.535313],[-84.681131,32.535606],[-84.680546,32.535701],[-84.679829,32.535762],[-84.679453,32.535775],[-84.679453,32.535675],[-84.679453,32.535609],[-84.679209,32.535106],[-84.678769,32.534695],[-84.678398,32.53435],[-84.678453,32.533662],[-84.679561,32.532724],[-84.679912,32.53222],[-84.679967,32.531533],[-84.680399,32.531258],[-84.681237,32.530869],[-84.681724,32.530457],[-84.682994,32.529885],[-84.683832,32.52906],[-84.686698,32.527594],[-84.687103,32.527113],[-84.687076,32.526381],[-84.687644,32.525053],[-84.687671,32.524686],[-84.688049,32.523541],[-84.688752,32.522579],[-84.689914,32.52132],[-84.690455,32.520953],[-84.693213,32.519739],[-84.694429,32.518846],[-84.69451,32.518732],[-84.696402,32.518639],[-84.698267,32.518732],[-84.700862,32.518684],[-84.701294,32.518662],[-84.701808,32.518777],[-84.702024,32.518684],[-84.702402,32.517494],[-84.702753,32.51738],[-84.703726,32.517334],[-84.703889,32.517197],[-84.703997,32.516876],[-84.704186,32.516761],[-84.704213,32.516509],[-84.704483,32.51628],[-84.705024,32.516097],[-84.705375,32.516188],[-84.706132,32.516212],[-84.706375,32.516303],[-84.706753,32.516257],[-84.707132,32.51605],[-84.707996,32.515799],[-84.708969,32.515065],[-84.709212,32.514401],[-84.709456,32.514263],[-84.70951,32.51408],[-84.70978,32.513761],[-84.710645,32.513371],[-84.711158,32.512959],[-84.711915,32.512569],[-84.711996,32.512478],[-84.712563,32.511997],[-84.713077,32.511927],[-84.713482,32.511629],[-84.713698,32.511149],[-84.71359,32.51092],[-84.713319,32.510691],[-84.713319,32.510393],[-84.713589,32.509752],[-84.713914,32.509523],[-84.714292,32.509476],[-84.714806,32.509659],[-84.71513,32.509546],[-84.715562,32.509202],[-84.716103,32.509155],[-84.716751,32.508468],[-84.71694,32.50817],[-84.718508,32.508011],[-84.719156,32.5073],[-84.719453,32.507346],[-84.720183,32.507804],[-84.720507,32.507827],[-84.721129,32.507392],[-84.722508,32.506819],[-84.722751,32.506428],[-84.723075,32.506428],[-84.722941,32.507666],[-84.723184,32.508009],[-84.724265,32.507756],[-84.724292,32.507596],[-84.724616,32.507436],[-84.724778,32.506589],[-84.725561,32.506016],[-84.725696,32.50565],[-84.725939,32.505443],[-84.725966,32.504824],[-84.725561,32.504665],[-84.725182,32.504779],[-84.725074,32.504734],[-84.724993,32.504207],[-84.724534,32.503977],[-84.724452,32.503383],[-84.724182,32.502948],[-84.72429,32.502352],[-84.725424,32.501801],[-84.725424,32.501092],[-84.725532,32.500839],[-84.725728,32.500788],[-84.726532,32.50058],[-84.72718,32.500545],[-84.727288,32.500511],[-84.727207,32.50014],[-84.727175,32.499723],[-84.727228,32.499657],[-84.727715,32.499392],[-84.727931,32.499118],[-84.728309,32.499026],[-84.728634,32.499279],[-84.729093,32.499232],[-84.729336,32.499094],[-84.729552,32.498568],[-84.730552,32.498568],[-84.730795,32.498362],[-84.730822,32.498179],[-84.730462,32.497838],[-84.730363,32.497743],[-84.729417,32.497445],[-84.729309,32.497286],[-84.729335,32.496896],[-84.729903,32.496003],[-84.729902,32.495477],[-84.729821,32.495431],[-84.729767,32.495179],[-84.729389,32.494698],[-84.729253,32.4944],[-84.729182,32.493822],[-84.729172,32.493736],[-84.729361,32.493645],[-84.729625,32.493674],[-84.730388,32.493758],[-84.730928,32.49353],[-84.731144,32.493254],[-84.731225,32.492911],[-84.731227,32.492784],[-84.73125,32.490875],[-84.731251,32.490758],[-84.731329,32.490637],[-84.731414,32.490506],[-84.731846,32.490392],[-84.732575,32.490506],[-84.732762,32.490506],[-84.733116,32.490506],[-84.733193,32.490414],[-84.733251,32.490346],[-84.733257,32.490278],[-84.733313,32.489693],[-84.733332,32.489497],[-84.734061,32.488881],[-84.734719,32.488231],[-84.734736,32.488216],[-84.734745,32.488145],[-84.734763,32.48801],[-84.734682,32.487873],[-84.734087,32.487437],[-84.734087,32.487246],[-84.734087,32.487116],[-84.734122,32.487073],[-84.734303,32.486842],[-84.734492,32.486452],[-84.734384,32.486201],[-84.73394,32.485998],[-84.733735,32.485903],[-84.733726,32.485807],[-84.733708,32.485605],[-84.735005,32.484963],[-84.735086,32.484482],[-84.73441,32.48359],[-84.734409,32.483018],[-84.734733,32.482628],[-84.734977,32.482582],[-84.735215,32.482663],[-84.735652,32.48281],[-84.73584,32.482819],[-84.735937,32.482823],[-84.736193,32.482833],[-84.736219,32.482582],[-84.736111,32.482474],[-84.73588,32.482242],[-84.735625,32.481986],[-84.735569,32.481185],[-84.735812,32.480933],[-84.73768,32.480258],[-84.738079,32.480116],[-84.738164,32.480085],[-84.738215,32.480047],[-84.73849,32.479847],[-84.738542,32.47981],[-84.738635,32.479653],[-84.73865,32.479627],[-84.738649,32.479238],[-84.738541,32.4791],[-84.73819,32.47894],[-84.737197,32.47934],[-84.737056,32.479398],[-84.73696,32.47934],[-84.736865,32.479284],[-84.736865,32.479146],[-84.737243,32.47871],[-84.737308,32.478536],[-84.737405,32.478276],[-84.738539,32.477404],[-84.739324,32.477016],[-84.740036,32.476886],[-84.740593,32.476785],[-84.740917,32.476168],[-84.740917,32.475664],[-84.740742,32.475442],[-84.74064,32.475312],[-84.740539,32.475183],[-84.740078,32.474817],[-84.739862,32.474496],[-84.73978,32.473923],[-84.739927,32.47359],[-84.740023,32.473374],[-84.740401,32.473008],[-84.741136,32.472834],[-84.741374,32.472778],[-84.742428,32.47264],[-84.742519,32.472589],[-84.742725,32.472479],[-84.74313,32.472136],[-84.743206,32.472008],[-84.743319,32.471815],[-84.743316,32.471677],[-84.743312,32.471532],[-84.743291,32.470692],[-84.74302,32.469983],[-84.742614,32.468472],[-84.74264,32.467028],[-84.743153,32.465449],[-84.743531,32.464877],[-84.744367,32.463938],[-84.745691,32.463502],[-84.74614,32.463135],[-84.746362,32.462954],[-84.74642,32.462907],[-84.746582,32.462539],[-84.746608,32.462105],[-84.746527,32.461882],[-84.746392,32.461509],[-84.746662,32.460845],[-84.746727,32.460765],[-84.746905,32.460547],[-84.746958,32.46025],[-84.746634,32.459975],[-84.746447,32.459975],[-84.746094,32.459975],[-84.74523,32.460158],[-84.74477,32.459815],[-84.744766,32.459781],[-84.744716,32.459335],[-84.744743,32.459197],[-84.74506,32.458947],[-84.745121,32.458899],[-84.745904,32.458807],[-84.746255,32.458624],[-84.746633,32.458554],[-84.747046,32.458641],[-84.747174,32.458669],[-84.74728,32.458604],[-84.747768,32.458303],[-84.748428,32.458041],[-84.748983,32.457821],[-84.74968,32.457853],[-84.749927,32.457865],[-84.750631,32.4578],[-84.750646,32.457805],[-84.751286,32.45779],[-84.75167,32.457582],[-84.751846,32.45715],[-84.751882,32.456719],[-84.751927,32.456173],[-84.751719,32.455454],[-84.751703,32.455086],[-84.751783,32.454749],[-84.752295,32.454574],[-84.753335,32.454638],[-84.753831,32.454334],[-84.754167,32.453806],[-84.754583,32.453422],[-84.754679,32.453102],[-84.754679,32.452478],[-84.755255,32.452142],[-84.755831,32.451757],[-84.756279,32.451085],[-84.756535,32.450414],[-84.756407,32.449966],[-84.755783,32.449742],[-84.755175,32.449517],[-84.754615,32.449166],[-84.754391,32.44867],[-84.754391,32.448078],[-84.754679,32.447021],[-84.754999,32.446765],[-84.755911,32.446717],[-84.756471,32.446526],[-84.756855,32.44587],[-84.756919,32.445293],[-84.756926,32.445228],[-84.756954,32.445025],[-84.756922,32.444469],[-84.756855,32.443326],[-84.757095,32.44283],[-84.757383,32.442558],[-84.758199,32.442254],[-84.759127,32.441919],[-84.759399,32.441535],[-84.759479,32.440863],[-84.759524,32.4407],[-84.759639,32.440286],[-84.759991,32.439439],[-84.760119,32.438654],[-84.760375,32.438046],[-84.760567,32.437615],[-84.760535,32.437359],[-84.760519,32.436959],[-84.760663,32.43667],[-84.760967,32.436366],[-84.761143,32.436303],[-84.761559,32.436095],[-84.762055,32.435743],[-84.762391,32.435454],[-84.762743,32.435343],[-84.763463,32.435535],[-84.763527,32.435439],[-84.763587,32.43542],[-84.764231,32.435231],[-84.764567,32.435279],[-84.765271,32.435439],[-84.765719,32.435502],[-84.766391,32.435311],[-84.766519,32.435167],[-84.766695,32.434927],[-84.766743,32.434607],[-84.766631,32.43403],[-84.766423,32.433583],[-84.766295,32.433135],[-84.766311,32.432991],[-84.766551,32.432383],[-84.766743,32.431903],[-84.766807,32.431438],[-84.766839,32.431023],[-84.766711,32.430366],[-84.766679,32.429806],[-84.766775,32.429167],[-84.766935,32.428751],[-84.767175,32.428463],[-84.767783,32.427887],[-84.768247,32.427599],[-84.768679,32.427343],[-84.768983,32.427103],[-84.769303,32.426862],[-84.769575,32.426623],[-84.769863,32.426319],[-84.769943,32.425983],[-84.769847,32.425631],[-84.769687,32.425279],[-84.769527,32.424878],[-84.769591,32.424655],[-84.769943,32.424255],[-84.770023,32.423983],[-84.770135,32.423695],[-84.770135,32.423535],[-84.769943,32.423343],[-84.769655,32.423183],[-84.769079,32.42315],[-84.768439,32.423198],[-84.768119,32.423135],[-84.768023,32.423023],[-84.768023,32.422575],[-84.768055,32.422127],[-84.768087,32.421807],[-84.767975,32.42147],[-84.767735,32.420671],[-84.767959,32.420495],[-84.768199,32.420543],[-84.768407,32.420591],[-84.768791,32.420991],[-84.768951,32.421519],[-84.768983,32.421951],[-84.769127,32.422207],[-84.769431,32.422319],[-84.770311,32.422319],[-84.770999,32.422127],[-84.771303,32.421886],[-84.771799,32.421455],[-84.772439,32.421118],[-84.772823,32.421135],[-84.773511,32.421343],[-84.774039,32.421551],[-84.774567,32.421839],[-84.774839,32.422063],[-84.775175,32.422286],[-84.775479,32.422542],[-84.775767,32.422638],[-84.775943,32.422607],[-84.776183,32.422542],[-84.776423,32.422431],[-84.776839,32.422255],[-84.776983,32.422223],[-84.777207,32.422207],[-84.777367,32.422159],[-84.777687,32.422207],[-84.777847,32.422319],[-84.778151,32.422527],[-84.778215,32.422655],[-84.778247,32.422767],[-84.778359,32.423054],[-84.778327,32.423343],[-84.778199,32.423535],[-84.778135,32.423662],[-84.778007,32.423839],[-84.777719,32.424303],[-84.777783,32.424559],[-84.777911,32.424751],[-84.778295,32.424911],[-84.778647,32.424975],[-84.779031,32.424878],[-84.779223,32.424767],[-84.779287,32.424735],[-84.779351,32.424559],[-84.779351,32.424222],[-84.779303,32.424047],[-84.779303,32.423887],[-84.779511,32.423662],[-84.779767,32.423727],[-84.780039,32.423775],[-84.780439,32.424031],[-84.780727,32.424239],[-84.781143,32.424591],[-84.781911,32.424847],[-84.782263,32.424782],[-84.782391,32.424559],[-84.782423,32.424335],[-84.782343,32.423999],[-84.782151,32.423791],[-84.781863,32.423551],[-84.781655,32.423487],[-84.781207,32.423439],[-84.780711,32.423375],[-84.780583,32.423247],[-84.780599,32.423054],[-84.780583,32.422927],[-84.780663,32.422655],[-84.780727,32.422527],[-84.780871,32.422511],[-84.781175,32.422638],[-84.781367,32.42275],[-84.781559,32.422863],[-84.781799,32.422831],[-84.781847,32.422815],[-84.781959,32.42275],[-84.782119,32.422559],[-84.782295,32.422159],[-84.782247,32.422111],[-84.782359,32.421967],[-84.782455,32.421886],[-84.782519,32.421839],[-84.782807,32.421774],[-84.782983,32.421711],[-84.783191,32.421678],[-84.783575,32.421599],[-84.783639,32.421551],[-84.783767,32.421439],[-84.783831,32.421311],[-84.783879,32.421311],[-84.783895,32.421166],[-84.783847,32.420976],[-84.783575,32.420816],[-84.783127,32.420527],[-84.782967,32.4204],[-84.782935,32.420271],[-84.782999,32.419952],[-84.783063,32.419856],[-84.783127,32.419792],[-84.783287,32.419615],[-84.783463,32.4196],[-84.783607,32.4196],[-84.783879,32.41968],[-84.784247,32.419824],[-84.784503,32.419888],[-84.785031,32.419856],[-84.785511,32.419711],[-84.785687,32.419568],[-84.785815,32.41928],[-84.785879,32.419055],[-84.785911,32.418672],[-84.786007,32.418352],[-84.786359,32.41784],[-84.786487,32.417744],[-84.786631,32.4176],[-84.786807,32.41752],[-84.786903,32.41752],[-84.787063,32.417616],[-84.787255,32.417744],[-84.787767,32.417872],[-84.788247,32.417968],[-84.788471,32.418031],[-84.789175,32.418191],[-84.789591,32.418256],[-84.789751,32.418287],[-84.790279,32.41816],[-84.790551,32.418096],[-84.791031,32.417904],[-84.791287,32.417776],[-84.791319,32.417583],[-84.791383,32.417423],[-84.791303,32.417327],[-84.790967,32.417167],[-84.790743,32.417104],[-84.790583,32.416992],[-84.790359,32.416815],[-84.790231,32.416688],[-84.790087,32.416207],[-84.789991,32.41584],[-84.790071,32.415584],[-84.790087,32.415504],[-84.790231,32.415295],[-84.790359,32.415232],[-84.790711,32.415072],[-84.791223,32.414912],[-84.791463,32.414783],[-84.791623,32.41464],[-84.791751,32.414479],[-84.792183,32.413967],[-84.792423,32.413919],[-84.792647,32.413871],[-84.792951,32.41384],[-84.793319,32.413904],[-84.793735,32.41408],[-84.794039,32.414208],[-84.794487,32.414352],[-84.794919,32.414431],[-84.795255,32.414512],[-84.795527,32.414512],[-84.795687,32.414479],[-84.796087,32.4144],[-84.796247,32.414368],[-84.796439,32.414368],[-84.796599,32.414384],[-84.796935,32.414496],[-84.797095,32.414575],[-84.797255,32.414672],[-84.797463,32.414831],[-84.797927,32.415248],[-84.798327,32.415632],[-84.798535,32.415808],[-84.798647,32.415968],[-84.799271,32.416496],[-84.799559,32.416784],[-84.800135,32.41696],[-84.800567,32.417056],[-84.800775,32.417104],[-84.801063,32.417136],[-84.801719,32.417167],[-84.801927,32.417248],[-84.802295,32.417392],[-84.802599,32.417504],[-84.802967,32.417664],[-84.803207,32.417776],[-84.803511,32.417935],[-84.803783,32.418096],[-84.804503,32.418543],[-84.804823,32.418736],[-84.805175,32.418912],[-84.805623,32.41928],[-84.805719,32.419376],[-84.805863,32.419472],[-84.806023,32.4196],[-84.806279,32.420048],[-84.806376,32.420304],[-84.80644,32.420479],[-84.806456,32.420592],[-84.80644,32.420768],[-84.806376,32.420879],[-84.806328,32.420944],[-84.806184,32.421152],[-84.805976,32.421472],[-84.805832,32.421712],[-84.805816,32.421824],[-84.805848,32.422016],[-84.806008,32.422224],[-84.8062,32.422383],[-84.80644,32.422463],[-84.806776,32.422575],[-84.807,32.42259],[-84.8074,32.422559],[-84.80764,32.422559],[-84.8078,32.422542],[-84.807944,32.422448],[-84.808168,32.422255],[-84.80836,32.422128],[-84.808552,32.421903],[-84.808952,32.421295],[-84.809016,32.421216],[-84.809208,32.421039],[-84.809432,32.420864],[-84.809816,32.420656],[-84.810088,32.420688],[-84.81036,32.420623],[-84.81052,32.420592],[-84.810904,32.420544],[-84.811,32.4204],[-84.81116,32.420256],[-84.811352,32.420015],[-84.811368,32.419984],[-84.811416,32.419856],[-84.811448,32.419663],[-84.811512,32.419376],[-84.81148,32.41928],[-84.811512,32.419024],[-84.811448,32.418832],[-84.811384,32.418608],[-84.811096,32.418256],[-84.810872,32.417968],[-84.810776,32.41784],[-84.81068,32.417616],[-84.810696,32.417264],[-84.810728,32.417136],[-84.810968,32.41664],[-84.811128,32.416336],[-84.811352,32.416112],[-84.811608,32.416016],[-84.811912,32.41592],[-84.812312,32.415968],[-84.812616,32.41592],[-84.812936,32.41592],[-84.813176,32.41584],[-84.81332,32.415792],[-84.813586,32.415664],[-84.813656,32.415536],[-84.813752,32.415408],[-84.813848,32.415087],[-84.813832,32.41496],[-84.813992,32.414656],[-84.81404,32.414608],[-84.814152,32.414496],[-84.814488,32.414448],[-84.814632,32.414448],[-84.814856,32.414416],[-84.815288,32.414479],[-84.815432,32.414496],[-84.815784,32.414512],[-84.816136,32.414448],[-84.81628,32.414416],[-84.816376,32.4144],[-84.816632,32.414288],[-84.81684,32.41416],[-84.816984,32.414032],[-84.817272,32.413808],[-84.817736,32.413296],[-84.818056,32.413088],[-84.818296,32.412976],[-84.818504,32.412912],[-84.818952,32.412816],[-84.81916,32.412816],[-84.819544,32.412847],[-84.819864,32.412912],[-84.820046,32.412942],[-84.820888,32.413088],[-84.821304,32.413248],[-84.821464,32.413328],[-84.821624,32.413455],[-84.821912,32.413632],[-84.822136,32.413776],[-84.822424,32.413871],[-84.822744,32.414032],[-84.823,32.41408],[-84.823128,32.414096],[-84.823608,32.414064],[-84.823896,32.414],[-84.823992,32.413967],[-84.82452,32.41384],[-84.82476,32.413744],[-84.824984,32.413615],[-84.825272,32.413424],[-84.82556,32.413168],[-84.825784,32.413007],[-84.826008,32.412896],[-84.826328,32.412784],[-84.826904,32.41288],[-84.827112,32.41304],[-84.82724,32.413232],[-84.827608,32.413615],[-84.827864,32.41384],[-84.828008,32.413919],[-84.82852,32.414048],[-84.828728,32.414127],[-84.829048,32.414127],[-84.829256,32.414064],[-84.829496,32.413871],[-84.82996,32.41344],[-84.830216,32.413311],[-84.830744,32.413168],[-84.831352,32.413103],[-84.831512,32.413184],[-84.831688,32.413344],[-84.83188,32.413472],[-84.831992,32.41368],[-84.832296,32.413984],[-84.832488,32.414112],[-84.832584,32.414175],[-84.832888,32.414175],[-84.833,32.414175],[-84.833304,32.414192],[-84.8338,32.41408],[-84.83412,32.413936],[-84.834312,32.413744],[-84.834344,32.413615],[-84.83436,32.413216],[-84.834296,32.412976],[-84.834232,32.412816],[-84.834328,32.412368],[-84.834408,32.412191],[-84.834488,32.412048],[-84.834696,32.411776],[-84.835,32.411648],[-84.835176,32.411631],[-84.835608,32.411712],[-84.835752,32.41176],[-84.835976,32.411983],[-84.836072,32.412112],[-84.836392,32.412384],[-84.836776,32.412672],[-84.836968,32.412816],[-84.837048,32.412912],[-84.837464,32.41312],[-84.837784,32.41328],[-84.83836,32.413344],[-84.839064,32.413455],[-84.839528,32.413488],[-84.839752,32.413472],[-84.840616,32.41344],[-84.841496,32.413376],[-84.84196,32.413392],[-84.8422,32.413359],[-84.842595,32.413321],[-84.843208,32.413263],[-84.843672,32.413232],[-84.844216,32.413248],[-84.84444,32.413263],[-84.844664,32.41328],[-84.844856,32.413359],[-84.845016,32.41344],[-84.845304,32.413648],[-84.84532,32.413658],[-84.845608,32.41384],[-84.846136,32.414304],[-84.846552,32.414575],[-84.846648,32.41464],[-84.846792,32.414672],[-84.84716,32.414783],[-84.84748,32.414816],[-84.847768,32.414896],[-84.848248,32.414864],[-84.848664,32.41464],[-84.848856,32.414496],[-84.849336,32.414256],[-84.849688,32.413871],[-84.85033,32.413327],[-84.85068,32.412881],[-84.851048,32.412528],[-84.851354,32.412384],[-84.851962,32.41232],[-84.852313,32.412352],[-84.852715,32.412497],[-84.85321,32.412689],[-84.853465,32.41288],[-84.853993,32.413455],[-84.854425,32.413825],[-84.854744,32.414144],[-84.855063,32.414352],[-84.855432,32.414464],[-84.856333,32.414479],[-84.857775,32.414415],[-84.858864,32.414335],[-84.860352,32.414158],[-84.861473,32.413998],[-84.862978,32.413677],[-84.863698,32.413404],[-84.864056,32.413296],[-84.864106,32.413287],[-84.864444,32.41332],[-84.865024,32.413479],[-84.865603,32.413834],[-84.86578,32.413898],[-84.865943,32.413936],[-84.866005,32.413932],[-84.866277,32.41382],[-84.866714,32.413384],[-84.866778,32.41332],[-84.867118,32.41309],[-84.867619,32.412748],[-84.867787,32.412616],[-84.867944,32.412492],[-84.868329,32.412187],[-84.868502,32.41205],[-84.868838,32.411783],[-84.869156,32.41153],[-84.869199,32.411499],[-84.869597,32.411212],[-84.87004,32.410928],[-84.870371,32.410895],[-84.87052,32.410896],[-84.871049,32.411023],[-84.871417,32.411168],[-84.871932,32.411569],[-84.872345,32.412063],[-84.87273,32.412529],[-84.873081,32.412736],[-84.873562,32.412864],[-84.874315,32.412816],[-84.874698,32.412768],[-84.875136,32.412492],[-84.875978,32.411918],[-84.876924,32.411503],[-84.877931,32.411184],[-84.878891,32.411087],[-84.879849,32.41096],[-84.880697,32.410896],[-84.880852,32.410874],[-84.881273,32.410815],[-84.881801,32.410704],[-84.882201,32.410463],[-84.882617,32.410064],[-84.882793,32.409728],[-84.882873,32.409072],[-84.883193,32.407904],[-84.883833,32.407088],[-84.884081,32.406475],[-84.884217,32.406322],[-84.884601,32.406],[-84.885017,32.405824],[-84.885769,32.405664],[-84.886265,32.405568],[-84.887049,32.405423],[-84.887737,32.405184],[-84.887865,32.405071],[-84.887977,32.404975],[-84.888217,32.4044],[-84.88833,32.404049],[-84.888538,32.403727],[-84.888566,32.403698],[-84.888696,32.403568],[-84.888953,32.403343],[-84.889145,32.403056],[-84.889273,32.4028],[-84.889385,32.402512],[-84.889481,32.402033],[-84.889754,32.401617],[-84.89004,32.401457],[-84.890313,32.401361],[-84.890922,32.401169],[-84.891577,32.401232],[-84.892472,32.401041],[-84.892649,32.400965],[-84.893009,32.400813],[-84.893113,32.400768],[-84.893191,32.400722],[-84.893625,32.400464],[-84.894091,32.400111],[-84.894457,32.399777],[-84.894873,32.399665],[-84.895081,32.399504],[-84.895402,32.399569],[-84.896281,32.400081],[-84.89713,32.400561],[-84.89761,32.400657],[-84.898057,32.400897],[-84.898265,32.401137],[-84.898377,32.401296],[-84.899049,32.402033],[-84.899593,32.402161],[-84.899849,32.402129],[-84.900137,32.402065],[-84.900393,32.401905],[-84.900505,32.401729],[-84.900697,32.401345],[-84.900937,32.400961],[-84.901625,32.400049],[-84.901657,32.399841],[-84.90168,32.399789],[-84.901865,32.399377],[-84.901977,32.399121],[-84.902121,32.398673],[-84.902729,32.398193],[-84.902969,32.397809],[-84.903129,32.397425],[-84.903161,32.397041],[-84.903257,32.396689],[-84.903465,32.396304],[-84.903721,32.396113],[-84.904329,32.395857],[-84.904921,32.395792],[-84.905209,32.395761],[-84.905993,32.395713],[-84.906473,32.395761],[-84.906969,32.395761],[-84.908185,32.395536],[-84.908969,32.395409],[-84.909913,32.395473],[-84.910473,32.395409],[-84.910905,32.395313],[-84.911097,32.39528],[-84.911321,32.395089],[-84.911513,32.394672],[-84.911689,32.394337],[-84.911753,32.394064],[-84.911881,32.393777],[-84.912317,32.393353],[-84.912379,32.393317],[-84.912921,32.39304],[-84.913193,32.392769],[-84.913625,32.392497],[-84.913977,32.392305],[-84.914201,32.392209],[-84.914473,32.392097],[-84.914921,32.392273],[-84.915209,32.392305],[-84.915737,32.392145],[-84.915961,32.392065],[-84.916249,32.391953],[-84.916505,32.391713],[-84.916793,32.391377],[-84.917385,32.390769],[-84.918073,32.390304],[-84.918281,32.390209],[-84.918809,32.390017],[-84.919641,32.389792],[-84.920393,32.389553],[-84.921225,32.389393],[-84.921849,32.389265],[-84.922297,32.389121],[-84.922553,32.388993],[-84.922713,32.388657],[-84.922745,32.388337],[-84.922809,32.388112],[-84.923017,32.387921],[-84.923353,32.38776],[-84.923625,32.387793],[-84.924265,32.387712],[-84.924825,32.387489],[-84.925337,32.387248],[-84.925673,32.387089],[-84.925929,32.386769],[-84.925961,32.386513],[-84.925945,32.386401],[-84.925833,32.385937],[-84.925833,32.385505],[-84.925833,32.385264],[-84.926025,32.385008],[-84.926217,32.384849],[-84.926521,32.384641],[-84.926761,32.384513],[-84.927385,32.384289],[-84.928361,32.383937],[-84.928953,32.383761],[-84.929282,32.383633],[-84.929323,32.383617],[-84.929481,32.383553],[-84.929532,32.383537],[-84.930201,32.383329],[-84.930985,32.382928],[-84.931321,32.382689],[-84.931465,32.382545],[-84.931609,32.382337],[-84.931705,32.381921],[-84.931769,32.381521],[-84.931753,32.381425],[-84.931817,32.381233],[-84.932089,32.380881],[-84.932341,32.380688],[-84.932425,32.380625],[-84.932729,32.380561],[-84.933017,32.380625],[-84.933241,32.380817],[-84.933573,32.3809],[-84.933689,32.380929],[-84.933929,32.380944],[-84.934169,32.380833],[-84.934409,32.380705],[-84.934681,32.380513],[-84.934873,32.380257],[-84.935417,32.379841],[-84.935817,32.379506],[-84.936058,32.379345],[-84.936346,32.379264],[-84.936521,32.379297],[-84.936585,32.379345],[-84.936873,32.379376],[-84.93753,32.379634],[-84.93804,32.380017],[-84.938346,32.380194],[-84.938938,32.380544],[-84.939193,32.380785],[-84.939322,32.381026],[-84.939578,32.381618],[-84.939769,32.381856],[-84.940041,32.381889],[-84.940217,32.381921],[-84.940633,32.381873],[-84.940633,32.381793],[-84.940857,32.381777],[-84.94108,32.381571],[-84.941209,32.3812],[-84.941177,32.380881],[-84.941256,32.380564],[-84.941512,32.380052],[-84.941609,32.379412],[-84.941609,32.379089],[-84.941465,32.378736],[-84.941497,32.378258],[-84.941642,32.378096],[-84.942153,32.377937],[-84.942361,32.377969],[-84.942618,32.37813],[-84.942745,32.378193],[-84.94321,32.378704],[-84.943337,32.378801],[-84.943576,32.378769],[-84.943737,32.378704],[-84.943897,32.378593],[-84.943961,32.378449],[-84.943945,32.378321],[-84.943929,32.377874],[-84.944009,32.377602],[-84.944089,32.377074],[-84.944375,32.376647],[-84.944537,32.376402],[-84.94488,32.376184],[-84.94513,32.376018],[-84.945689,32.375874],[-84.946536,32.375729],[-84.947014,32.375666],[-84.947881,32.375554],[-84.948826,32.375602],[-84.949162,32.375666],[-84.94945,32.375811],[-84.949673,32.37608],[-84.950056,32.376607],[-84.950266,32.376962],[-84.950633,32.377105],[-84.950937,32.37717],[-84.951706,32.377138],[-84.952506,32.376786],[-84.952922,32.376562],[-84.953111,32.376153],[-84.953271,32.375881],[-84.953434,32.375554],[-84.953722,32.375217],[-84.954234,32.374865],[-84.954846,32.374865],[-84.955348,32.374793],[-84.955557,32.374729],[-84.955638,32.374691],[-84.956034,32.374505],[-84.956208,32.374242],[-84.956337,32.374042],[-84.956432,32.37393],[-84.956624,32.373871],[-84.956667,32.373874],[-84.957003,32.373902],[-84.957358,32.373978],[-84.95745,32.374007],[-84.95769,32.374084],[-84.957721,32.374094],[-84.957781,32.374111],[-84.957706,32.374194],[-84.957524,32.37435],[-84.957962,32.374482]]]}}]}