{"type":"FeatureCollection","name":"tl_2025_13_elsd","crs":{"type":"name","properties":{"name":"urn:ogc:def:crs:OGC:1.3:CRS84"}},"features":[{"type":"Feature","properties":{"STATEFP":"13","ELSDLEA":"00002","GEOID":"1300002","GEOIDFQ":"9500000US1300002","NAME":"Fort Benning Schools","LSAD":"00","LOGRADE":"KG","HIGRADE":"08","MTFCC":"G5400","SDTYP":"B","FUNCSTAT":"E","ALAND":681828832,"AWATER":4822752,"INTPTLAT":"+32.4004755","INTPTLON":"-084.8022711"},"geometry":{"type":"Polygon","coordinates":[[[-85.008096,32.336677],[-85.007257,32.33899],[-85.00649,32.340269],[-85.006102,32.340918],[-85.005901,32.341253],[-85.005556,32.341828],[-85.00534,32.342356],[-85.005063,32.344081],[-85.005042,32.344211],[-85.004582,32.345196],[-85.004231,32.345608],[-85.003097,32.346707],[-85.002935,32.346936],[-85.002773,32.346981],[-85.002493,32.347268],[-85.002014,32.347758],[-85.00172,32.348058],[-84.99993,32.349545],[-84.999407,32.349539],[-84.996186,32.351425],[-84.992714,32.353842],[-84.991448,32.35486],[-84.991242,32.355026],[-84.98961,32.356546],[-84.988058,32.35781],[-84.988058,32.357937],[-84.986778,32.359057],[-84.985962,32.359969],[-84.984714,32.361378],[-84.984216,32.36197],[-84.983866,32.362386],[-84.983466,32.363186],[-84.983338,32.363714],[-84.983226,32.364545],[-84.983242,32.365122],[-84.98361,32.365778],[-84.98401,32.366194],[-84.985978,32.367666],[-84.98633,32.36869],[-84.986298,32.369666],[-84.986058,32.370738],[-84.985898,32.371153],[-84.985658,32.37173],[-84.985322,32.372514],[-84.98473,32.372978],[-84.98409,32.373522],[-84.983338,32.373938],[-84.983002,32.374049],[-84.982522,32.374226],[-84.982042,32.374338],[-84.981178,32.37445],[-84.980282,32.374386],[-84.979418,32.374226],[-84.978426,32.374001],[-84.977274,32.373842],[-84.976186,32.373874],[-84.975226,32.374162],[-84.97433,32.374578],[-84.973594,32.374994],[-84.973162,32.37533],[-84.972698,32.375954],[-84.972154,32.376914],[-84.971962,32.377698],[-84.971895,32.377696],[-84.970785,32.377559],[-84.97056,32.377531],[-84.97054,32.377696],[-84.970284,32.377958],[-84.969847,32.37842],[-84.969498,32.378656],[-84.969274,32.378801],[-84.96889,32.378897],[-84.968666,32.378929],[-84.968474,32.37896],[-84.968074,32.378816],[-84.967834,32.378737],[-84.967674,32.378577],[-84.967578,32.378385],[-84.967562,32.378225],[-84.96753,32.378],[-84.96753,32.377746],[-84.967578,32.377105],[-84.967626,32.37669],[-84.96769,32.376241],[-84.967642,32.376018],[-84.967418,32.375666],[-84.967162,32.375554],[-84.966746,32.37557],[-84.966554,32.37565],[-84.966394,32.375714],[-84.966218,32.375729],[-84.965946,32.375698],[-84.965802,32.375602],[-84.965626,32.375633],[-84.964938,32.375154],[-84.964586,32.374913],[-84.964442,32.374738],[-84.964106,32.37445],[-84.963834,32.374226],[-84.96345,32.374097],[-84.963186,32.374037],[-84.962992,32.374022],[-84.962858,32.374097],[-84.962527,32.374217],[-84.962322,32.374276],[-84.962207,32.3744],[-84.962253,32.374743],[-84.962351,32.374916],[-84.962515,32.375134],[-84.962676,32.3752],[-84.96287,32.375269],[-84.963025,32.375257],[-84.963171,32.375228],[-84.963253,32.375193],[-84.963434,32.375153],[-84.963662,32.375138],[-84.963725,32.375134],[-84.96398,32.375208],[-84.964213,32.375505],[-84.964279,32.37562],[-84.9643,32.375658],[-84.964374,32.375875],[-84.964282,32.376114],[-84.96409,32.376289],[-84.963962,32.376402],[-84.963546,32.37653],[-84.963371,32.376566],[-84.963312,32.37653],[-84.963025,32.376428],[-84.962755,32.376274],[-84.962202,32.375887],[-84.961841,32.375513],[-84.961712,32.37538],[-84.961515,32.375302],[-84.961203,32.375117],[-84.960862,32.374848],[-84.960754,32.374821],[-84.960121,32.374661],[-84.960065,32.374647],[-84.959459,32.374544],[-84.959082,32.374511],[-84.957781,32.374111],[-84.957706,32.374194],[-84.957524,32.37435],[-84.957962,32.374482],[-84.957418,32.375026],[-84.957354,32.375282],[-84.957418,32.375762],[-84.95737,32.376402],[-84.95713,32.377361],[-84.95705,32.378065],[-84.95705,32.37912],[-84.95702,32.380418],[-84.957088,32.380539],[-84.957101,32.380823],[-84.957125,32.381345],[-84.957137,32.381596],[-84.957151,32.381911],[-84.957166,32.382233],[-84.957169,32.382298],[-84.95717,32.382482],[-84.957174,32.383253],[-84.957176,32.383732],[-84.957185,32.384099],[-84.957197,32.384638],[-84.957205,32.384951],[-84.957209,32.385119],[-84.957232,32.38561],[-84.95727,32.386426],[-84.957247,32.3872],[-84.95723,32.387388],[-84.956927,32.387391],[-84.956547,32.387396],[-84.955789,32.387498],[-84.955771,32.3875],[-84.955144,32.387833],[-84.954653,32.388373],[-84.954451,32.388754],[-84.954477,32.38892],[-84.954493,32.389104],[-84.954539,32.389615],[-84.954603,32.390089],[-84.954602,32.390473],[-84.954572,32.3911],[-84.954497,32.391928],[-84.954489,32.391969],[-84.954435,32.392231],[-84.954168,32.393715],[-84.953649,32.395355],[-84.951931,32.399357],[-84.948734,32.406725],[-84.947558,32.406758],[-84.947287,32.406775],[-84.943504,32.406717],[-84.940115,32.406653],[-84.940102,32.406654],[-84.940114,32.402948],[-84.93987,32.402887],[-84.9394,32.402667],[-84.938736,32.402223],[-84.938134,32.401752],[-84.93769,32.401511],[-84.93716,32.401282],[-84.936645,32.401142],[-84.93587,32.40099],[-84.934535,32.400858],[-84.934029,32.400827],[-84.933581,32.400841],[-84.933297,32.400908],[-84.933054,32.400973],[-84.932962,32.401043],[-84.932782,32.401094],[-84.932857,32.401252],[-84.933272,32.402014],[-84.933602,32.402638],[-84.933832,32.402829],[-84.934245,32.403741],[-84.934741,32.40535],[-84.934733,32.405557],[-84.934475,32.40552],[-84.934116,32.405501],[-84.933788,32.405476],[-84.933185,32.405468],[-84.931803,32.405436],[-84.930724,32.405425],[-84.92892,32.40539],[-84.928577,32.405383],[-84.925734,32.405334],[-84.92478,32.40532],[-84.924316,32.405312],[-84.924072,32.405307],[-84.923862,32.405298],[-84.922141,32.405268],[-84.920948,32.405248],[-84.916714,32.405174],[-84.916377,32.405169],[-84.914713,32.405133],[-84.9133,32.405239],[-84.912712,32.405276],[-84.912426,32.405271],[-84.912603,32.405453],[-84.912958,32.405607],[-84.913208,32.405691],[-84.913762,32.405962],[-84.914534,32.406369],[-84.915578,32.406975],[-84.916637,32.407586],[-84.919284,32.409151],[-84.920317,32.410101],[-84.920682,32.410508],[-84.920902,32.410832],[-84.921204,32.411322],[-84.921486,32.41197],[-84.922086,32.413222],[-84.923443,32.416158],[-84.924028,32.417442],[-84.924795,32.419115],[-84.925646,32.421019],[-84.926556,32.42307],[-84.926304,32.423105],[-84.926042,32.42313],[-84.925424,32.423153],[-84.925209,32.423161],[-84.925023,32.42313],[-84.924239,32.42313],[-84.92294,32.423028],[-84.921659,32.423055],[-84.920086,32.423026],[-84.920035,32.42303],[-84.91564,32.422987],[-84.909597,32.42292],[-84.907727,32.422891],[-84.903861,32.422828],[-84.895482,32.422783],[-84.892295,32.422751],[-84.892487,32.423418],[-84.892748,32.423691],[-84.892983,32.423909],[-84.893201,32.424296],[-84.893,32.425219],[-84.892026,32.426949],[-84.892009,32.427234],[-84.892043,32.427469],[-84.892076,32.427822],[-84.892278,32.428393],[-84.892242,32.428905],[-84.892532,32.430942],[-84.893168,32.431461],[-84.893561,32.431917],[-84.893624,32.432221],[-84.893706,32.432686],[-84.893599,32.433252],[-84.893505,32.43364],[-84.89324,32.434042],[-84.893154,32.434497],[-84.893187,32.43614],[-84.894198,32.438565],[-84.89594,32.438668],[-84.895959,32.438671],[-84.899011,32.43883],[-84.898961,32.440359],[-84.898894,32.441466],[-84.898893,32.441599],[-84.898967,32.445765],[-84.898956,32.449101],[-84.89894,32.449968],[-84.898917,32.450863],[-84.898867,32.451492],[-84.898866,32.451684],[-84.898919,32.452008],[-84.898905,32.452419],[-84.898913,32.45243],[-84.898922,32.453339],[-84.898925,32.455336],[-84.898556,32.455438],[-84.898405,32.45545],[-84.897559,32.455353],[-84.896396,32.455332],[-84.895011,32.455352],[-84.893632,32.455366],[-84.891243,32.455381],[-84.891091,32.455472],[-84.877379,32.455263],[-84.877348,32.455273],[-84.876876,32.455236],[-84.876796,32.455276],[-84.869959,32.455095],[-84.869902,32.456094],[-84.869973,32.457105],[-84.869992,32.45729],[-84.869857,32.469501],[-84.869848,32.469625],[-84.86985,32.469852],[-84.869818,32.47027],[-84.869773,32.470602],[-84.869706,32.471634],[-84.869696,32.471781],[-84.869686,32.471884],[-84.869621,32.473627],[-84.869623,32.473898],[-84.869642,32.477173],[-84.869712,32.479441],[-84.869344,32.479436],[-84.860762,32.47931],[-84.857551,32.479263],[-84.848857,32.479136],[-84.847745,32.47912],[-84.84814,32.48023],[-84.848253,32.480549],[-84.848424,32.481577],[-84.848439,32.482083],[-84.848366,32.482824],[-84.848243,32.483381],[-84.848133,32.483879],[-84.847662,32.484966],[-84.847105,32.486216],[-84.84705,32.486536],[-84.846626,32.487533],[-84.846073,32.488774],[-84.845117,32.490829],[-84.845917,32.490768],[-84.850149,32.495115],[-84.850122,32.49575],[-84.850099,32.496685],[-84.850085,32.496887],[-84.85001,32.497932],[-84.84998,32.498578],[-84.850031,32.498921],[-84.850071,32.499149],[-84.850116,32.499733],[-84.850098,32.500176],[-84.849991,32.500611],[-84.849983,32.500946],[-84.850047,32.501384],[-84.850055,32.501682],[-84.850034,32.501953],[-84.849913,32.502332],[-84.849814,32.503318],[-84.849666,32.504227],[-84.849619,32.504624],[-84.849671,32.504942],[-84.849667,32.505114],[-84.84964,32.505316],[-84.84953,32.505522],[-84.849216,32.506176],[-84.848667,32.507559],[-84.848619,32.507697],[-84.848524,32.507906],[-84.848339,32.508175],[-84.847622,32.509081],[-84.847103,32.509546],[-84.846577,32.509981],[-84.846281,32.510147],[-84.845751,32.510312],[-84.845292,32.51025],[-84.844822,32.510241],[-84.844601,32.510241],[-84.843808,32.510365],[-84.842256,32.510809],[-84.841236,32.511121],[-84.840983,32.511212],[-84.840738,32.511235],[-84.840361,32.511289],[-84.84032,32.511606],[-84.839754,32.515955],[-84.835667,32.520397],[-84.835168,32.521594],[-84.83493,32.523426],[-84.835702,32.524514],[-84.836527,32.525671],[-84.836704,32.52592],[-84.837139,32.526515],[-84.837521,32.527038],[-84.837692,32.527271],[-84.83864,32.528641],[-84.839598,32.530003],[-84.839876,32.530416],[-84.83997,32.530592],[-84.840085,32.530898],[-84.840122,32.531011],[-84.8402,32.531253],[-84.840231,32.531474],[-84.838768,32.532069],[-84.837667,32.532553],[-84.83644,32.533026],[-84.835578,32.533276],[-84.834874,32.533412],[-84.833833,32.533628],[-84.831931,32.534036],[-84.830465,32.534325],[-84.829898,32.534447],[-84.829351,32.534528],[-84.828522,32.534638],[-84.827563,32.534689],[-84.827167,32.534688],[-84.82652,32.534719],[-84.825722,32.534757],[-84.824642,32.534902],[-84.823634,32.535037],[-84.821685,32.535314],[-84.820447,32.535578],[-84.819657,32.535812],[-84.819016,32.535975],[-84.818328,32.536217],[-84.817558,32.53654],[-84.816612,32.53689],[-84.81645,32.536958],[-84.815516,32.537356],[-84.814824,32.537753],[-84.813845,32.538374],[-84.812748,32.53907],[-84.812447,32.539253],[-84.812138,32.539441],[-84.811587,32.539776],[-84.810392,32.540382],[-84.809237,32.540884],[-84.806148,32.542512],[-84.805814,32.542698],[-84.804291,32.543548],[-84.801953,32.54473],[-84.800639,32.545389],[-84.800249,32.545548],[-84.799568,32.545879],[-84.798469,32.546196],[-84.797912,32.546329],[-84.796703,32.546587],[-84.793984,32.546866],[-84.793553,32.546917],[-84.792105,32.547089],[-84.79174,32.547143],[-84.790083,32.547386],[-84.78832,32.54766],[-84.787025,32.547794],[-84.785827,32.547905],[-84.784676,32.547908],[-84.783284,32.54779],[-84.780616,32.547644],[-84.779312,32.547558],[-84.777846,32.547607],[-84.777554,32.547645],[-84.777014,32.547668],[-84.776428,32.547764],[-84.77551,32.547885],[-84.775332,32.547921],[-84.774783,32.548035],[-84.774447,32.548197],[-84.774147,32.548398],[-84.773979,32.548619],[-84.773819,32.54883],[-84.773537,32.549481],[-84.773367,32.549892],[-84.773031,32.549881],[-84.772539,32.549844],[-84.771249,32.549839],[-84.770371,32.549861],[-84.770066,32.549892],[-84.769466,32.549984],[-84.769015,32.550108],[-84.767924,32.550483],[-84.766848,32.550871],[-84.766536,32.551018],[-84.76595,32.551221],[-84.765204,32.551401],[-84.764561,32.551475],[-84.762449,32.551665],[-84.761125,32.551763],[-84.75974,32.551873],[-84.759169,32.551952],[-84.758643,32.551986],[-84.758055,32.551946],[-84.757468,32.551878],[-84.757021,32.551782],[-84.756528,32.551644],[-84.756294,32.551561],[-84.755814,32.551356],[-84.755541,32.551212],[-84.755244,32.551063],[-84.755023,32.550921],[-84.754612,32.550687],[-84.75423,32.550452],[-84.753629,32.550119],[-84.753047,32.549827],[-84.752706,32.549698],[-84.752186,32.549542],[-84.751501,32.549325],[-84.750781,32.549132],[-84.750103,32.548986],[-84.749875,32.548926],[-84.749439,32.548809],[-84.74864,32.548564],[-84.74779,32.548257],[-84.74738,32.548133],[-84.746527,32.547956],[-84.746172,32.547905],[-84.745835,32.547902],[-84.745539,32.547884],[-84.745054,32.547899],[-84.743357,32.547848],[-84.742933,32.547826],[-84.742494,32.547762],[-84.741952,32.547652],[-84.740701,32.547305],[-84.740293,32.547178],[-84.739711,32.546996],[-84.736912,32.546059],[-84.733053,32.544798],[-84.730191,32.543895],[-84.725547,32.542412],[-84.721881,32.541241],[-84.72097,32.540989],[-84.719068,32.540464],[-84.71619,32.539729],[-84.71496,32.539429],[-84.713416,32.53904],[-84.712734,32.538865],[-84.711335,32.538489],[-84.709343,32.537336],[-84.708753,32.53692],[-84.708397,32.53671],[-84.705623,32.535965],[-84.70551,32.535955],[-84.704893,32.535943],[-84.704186,32.536022],[-84.703474,32.536155],[-84.701495,32.53665],[-84.699414,32.53717],[-84.698733,32.537321],[-84.698398,32.537405],[-84.698048,32.537474],[-84.697763,32.53752],[-84.697477,32.537551],[-84.697177,32.537559],[-84.696643,32.537581],[-84.696347,32.537571],[-84.695836,32.537525],[-84.695618,32.537497],[-84.695376,32.537466],[-84.695014,32.537377],[-84.694374,32.537176],[-84.69389,32.536994],[-84.693181,32.536696],[-84.692706,32.536484],[-84.692207,32.536251],[-84.690254,32.535387],[-84.689336,32.534956],[-84.688699,32.534785],[-84.688357,32.534703],[-84.688098,32.534655],[-84.68771,32.534607],[-84.68725,32.534585],[-84.686981,32.53458],[-84.686956,32.534571],[-84.686926,32.534579],[-84.686348,32.534609],[-84.686067,32.534647],[-84.684216,32.534982],[-84.682619,32.535313],[-84.681131,32.535606],[-84.680546,32.535701],[-84.679829,32.535762],[-84.679453,32.535775],[-84.679453,32.535675],[-84.679453,32.535609],[-84.679209,32.535106],[-84.678769,32.534695],[-84.678398,32.53435],[-84.678453,32.533662],[-84.679561,32.532724],[-84.679912,32.53222],[-84.679967,32.531533],[-84.680399,32.531258],[-84.681237,32.530869],[-84.681724,32.530457],[-84.682994,32.529885],[-84.683832,32.52906],[-84.686698,32.527594],[-84.687103,32.527113],[-84.687076,32.526381],[-84.687644,32.525053],[-84.687671,32.524686],[-84.688049,32.523541],[-84.688752,32.522579],[-84.689914,32.52132],[-84.690455,32.520953],[-84.693213,32.519739],[-84.694429,32.518846],[-84.69451,32.518732],[-84.694456,32.518639],[-84.693537,32.518732],[-84.690455,32.519304],[-84.689347,32.519326],[-84.687968,32.519602],[-84.686265,32.519624],[-84.68586,32.519807],[-84.684941,32.520541],[-84.684752,32.520587],[-84.684644,32.520449],[-84.684671,32.519579],[-84.684455,32.51919],[-84.684292,32.519075],[-84.683752,32.518984],[-84.683671,32.519647],[-84.683373,32.519671],[-84.683238,32.519579],[-84.682941,32.518892],[-84.682671,32.518915],[-84.682563,32.519556],[-84.682346,32.519556],[-84.682211,32.519464],[-84.682103,32.518869],[-84.681914,32.518662],[-84.681076,32.518892],[-84.680698,32.518709],[-84.680049,32.518777],[-84.679644,32.519075],[-84.678562,32.518869],[-84.678157,32.518915],[-84.67786,32.519624],[-84.677941,32.519785],[-84.6784,32.520037],[-84.6784,32.520243],[-84.677562,32.520518],[-84.677103,32.520541],[-84.676508,32.520403],[-84.676238,32.520173],[-84.675778,32.520059],[-84.675049,32.520059],[-84.674589,32.520356],[-84.674481,32.52102],[-84.674616,32.521227],[-84.674562,32.521594],[-84.674265,32.521684],[-84.673994,32.521548],[-84.673427,32.521707],[-84.673129,32.522166],[-84.672778,32.522212],[-84.672481,32.52212],[-84.67221,32.522188],[-84.67194,32.522395],[-84.670967,32.523654],[-84.670264,32.523882],[-84.669236,32.524867],[-84.66775,32.525692],[-84.667263,32.525737],[-84.667182,32.525967],[-84.666885,32.526218],[-84.666714,32.52653],[-84.666263,32.527363],[-84.665857,32.527638],[-84.665398,32.527614],[-84.664316,32.527912],[-84.664127,32.528371],[-84.663235,32.528737],[-84.662316,32.528737],[-84.661721,32.529148],[-84.661343,32.529117],[-84.66064,32.529057],[-84.660532,32.528965],[-84.660288,32.529034],[-84.660234,32.529423],[-84.659883,32.529308],[-84.659802,32.528965],[-84.659667,32.528851],[-84.65891,32.52901],[-84.658396,32.528736],[-84.658017,32.528759],[-84.65799,32.529308],[-84.657665,32.529193],[-84.657341,32.529238],[-84.656773,32.529789],[-84.655719,32.53004],[-84.65415,32.531689],[-84.653934,32.531779],[-84.653664,32.531712],[-84.653394,32.531391],[-84.653096,32.531413],[-84.652961,32.531689],[-84.653069,32.532261],[-84.652988,32.532466],[-84.652393,32.532626],[-84.652366,32.532879],[-84.652149,32.533062],[-84.650987,32.533383],[-84.650852,32.533589],[-84.650743,32.534207],[-84.650608,32.534343],[-84.650419,32.534343],[-84.649662,32.533474],[-84.649203,32.533474],[-84.648932,32.533724],[-84.648905,32.534275],[-84.648977,32.534956],[-84.64568,32.534914],[-84.644619,32.5349],[-84.639469,32.534838],[-84.638011,32.534821],[-84.637578,32.534889],[-84.637323,32.534855],[-84.637463,32.525505],[-84.637494,32.523465],[-84.637645,32.513455],[-84.637706,32.512006],[-84.638108,32.502516],[-84.638188,32.500647],[-84.63821,32.500141],[-84.638117,32.497715],[-84.638129,32.497402],[-84.638225,32.494841],[-84.64541,32.494878],[-84.649901,32.494902],[-84.654923,32.494929],[-84.657325,32.49494],[-84.657355,32.493789],[-84.657365,32.493406],[-84.657366,32.493374],[-84.657366,32.493352],[-84.657368,32.493284],[-84.657402,32.491985],[-84.657403,32.491963],[-84.657466,32.489685],[-84.657476,32.48931],[-84.657478,32.489218],[-84.657486,32.488871],[-84.657497,32.488461],[-84.657506,32.488131],[-84.657553,32.486303],[-84.657584,32.485123],[-84.657622,32.48368],[-84.657643,32.482874],[-84.657657,32.482357],[-84.657699,32.480761],[-84.657719,32.479993],[-84.657721,32.479914],[-84.657721,32.479897],[-84.657723,32.479835],[-84.657759,32.478439],[-84.657771,32.477984],[-84.65797,32.470467],[-84.657981,32.470052],[-84.657984,32.469936],[-84.657985,32.469914],[-84.657986,32.46987],[-84.658,32.469316],[-84.658196,32.461885],[-84.658258,32.459549],[-84.658555,32.448281],[-84.658601,32.446362],[-84.658623,32.445517],[-84.658682,32.443223],[-84.658721,32.441739],[-84.658724,32.441643],[-84.65862,32.441626],[-84.657524,32.441443],[-84.657533,32.440599],[-84.657551,32.438912],[-84.657568,32.437286],[-84.657573,32.436811],[-84.657577,32.436436],[-84.657579,32.436242],[-84.657698,32.424948],[-84.657853,32.41031],[-84.657971,32.399081],[-84.657989,32.397374],[-84.658007,32.395682],[-84.658024,32.394056],[-84.658034,32.393099],[-84.658031,32.39309],[-84.658026,32.393078],[-84.658006,32.393023],[-84.658018,32.391931],[-84.658029,32.391137],[-84.658029,32.391106],[-84.658029,32.391073],[-84.65803,32.390949],[-84.658183,32.378943],[-84.658223,32.375146],[-84.658199,32.373666],[-84.658187,32.372884],[-84.658186,32.372799],[-84.658163,32.371378],[-84.657947,32.357681],[-84.657823,32.349848],[-84.657843,32.347333],[-84.657874,32.343577],[-84.657925,32.337497],[-84.658016,32.326636],[-84.65819,32.310437],[-84.658203,32.309793],[-84.658692,32.30981],[-84.659134,32.309859],[-84.659563,32.309889],[-84.659986,32.309919],[-84.661061,32.310012],[-84.661325,32.310035],[-84.66188,32.310077],[-84.66194,32.310085],[-84.662354,32.310107],[-84.662661,32.310117],[-84.663202,32.310161],[-84.663617,32.310184],[-84.664149,32.310215],[-84.664365,32.310215],[-84.664564,32.310205],[-84.664907,32.3102],[-84.666063,32.31006],[-84.666339,32.31002],[-84.667413,32.30986],[-84.667592,32.3098],[-84.667644,32.309789],[-84.668833,32.309534],[-84.669208,32.309458],[-84.669301,32.309438],[-84.671024,32.309072],[-84.673654,32.30849],[-84.674313,32.308349],[-84.675123,32.308176],[-84.676239,32.307921],[-84.676573,32.307848],[-84.677453,32.307656],[-84.678337,32.307462],[-84.679871,32.307108],[-84.680702,32.306916],[-84.680734,32.306911],[-84.680766,32.3069],[-84.681077,32.306827],[-84.681374,32.306766],[-84.681907,32.306666],[-84.68238,32.306585],[-84.682525,32.306564],[-84.683011,32.306497],[-84.683163,32.306474],[-84.683233,32.306466],[-84.683381,32.306441],[-84.683586,32.306424],[-84.684508,32.306345],[-84.685194,32.306317],[-84.685349,32.306311],[-84.685806,32.306303],[-84.68618,32.306305],[-84.686489,32.3063],[-84.687227,32.306292],[-84.687331,32.306604],[-84.687439,32.306899],[-84.687636,32.307287],[-84.687988,32.307738],[-84.690128,32.309908],[-84.691197,32.31101],[-84.691752,32.311677],[-84.691921,32.311943],[-84.692165,32.312407],[-84.692199,32.312496],[-84.692356,32.313246],[-84.692385,32.313352],[-84.692551,32.314439],[-84.692663,32.31487],[-84.692751,32.31513],[-84.692908,32.315486],[-84.693068,32.315728],[-84.693506,32.316274],[-84.693668,32.316496],[-84.693731,32.316574],[-84.693799,32.316643],[-84.694044,32.316842],[-84.694293,32.317036],[-84.694661,32.317259],[-84.694779,32.317317],[-84.69506,32.317455],[-84.695347,32.317579],[-84.695911,32.31778],[-84.695972,32.317797],[-84.696292,32.317883],[-84.697405,32.318143],[-84.698389,32.318423],[-84.699226,32.318652],[-84.702426,32.319543],[-84.702956,32.319677],[-84.703373,32.31973],[-84.704515,32.319763],[-84.706556,32.319823],[-84.706742,32.319826],[-84.708115,32.319844],[-84.708499,32.319846],[-84.710301,32.319888],[-84.710517,32.31989],[-84.711701,32.319904],[-84.713429,32.319972],[-84.714981,32.320175],[-84.715252,32.320228],[-84.715756,32.320334],[-84.717063,32.320562],[-84.717603,32.320647],[-84.718005,32.320724],[-84.719143,32.320923],[-84.719404,32.320963],[-84.720394,32.321132],[-84.720556,32.321168],[-84.720977,32.321247],[-84.721483,32.321443],[-84.721968,32.321703],[-84.722336,32.321966],[-84.722997,32.322601],[-84.723785,32.323397],[-84.723995,32.323613],[-84.724492,32.324123],[-84.725151,32.324703],[-84.725463,32.32491],[-84.725675,32.325045],[-84.725947,32.325173],[-84.72634,32.32531],[-84.726831,32.325423],[-84.727595,32.325529],[-84.727742,32.325545],[-84.730736,32.325972],[-84.733156,32.326293],[-84.733348,32.32632],[-84.734628,32.326512],[-84.735666,32.32669],[-84.736397,32.326833],[-84.737476,32.327106],[-84.739778,32.327847],[-84.743177,32.32898],[-84.744172,32.329296],[-84.744654,32.329428],[-84.745214,32.329569],[-84.745824,32.329713],[-84.748626,32.330243],[-84.748758,32.33026],[-84.749589,32.330396],[-84.75303,32.331041],[-84.754223,32.331265],[-84.754399,32.3313],[-84.754558,32.331331],[-84.755877,32.331569],[-84.75646,32.331702],[-84.757146,32.331949],[-84.757882,32.332307],[-84.758491,32.332696],[-84.758972,32.333024],[-84.760275,32.333925],[-84.761366,32.33466],[-84.762017,32.335036],[-84.762667,32.335334],[-84.763436,32.335625],[-84.765602,32.33619],[-84.769903,32.33731],[-84.770031,32.337344],[-84.77073,32.337525],[-84.77213,32.337845],[-84.773288,32.338132],[-84.773872,32.338301],[-84.77498,32.338621],[-84.775192,32.3387],[-84.775358,32.338766],[-84.775622,32.338901],[-84.775977,32.339125],[-84.776286,32.339343],[-84.776559,32.339602],[-84.776864,32.339969],[-84.777108,32.340339],[-84.777125,32.340375],[-84.777264,32.34067],[-84.77729,32.340716],[-84.777426,32.341039],[-84.777505,32.341217],[-84.77825,32.342905],[-84.778461,32.343345],[-84.778751,32.343854],[-84.778824,32.343953],[-84.779139,32.344383],[-84.779555,32.344879],[-84.780845,32.346181],[-84.781225,32.346553],[-84.78153,32.346876],[-84.782233,32.347558],[-84.782305,32.347617],[-84.78267,32.34791],[-84.783026,32.348135],[-84.78324,32.34825],[-84.783518,32.348359],[-84.793767,32.34858],[-84.793774,32.348011],[-84.793872,32.341455],[-84.793956,32.334404],[-84.79404,32.328004],[-84.79419,32.316814],[-84.794196,32.315631],[-84.794265,32.314237],[-84.794308,32.31333],[-84.794387,32.313073],[-84.794352,32.309813],[-84.794357,32.309596],[-84.79437,32.309043],[-84.794421,32.306495],[-84.794433,32.305923],[-84.794414,32.305643],[-84.794398,32.305256],[-84.794416,32.305034],[-84.794499,32.303846],[-84.79445,32.3033],[-84.794472,32.30304],[-84.794481,32.302854],[-84.794477,32.302739],[-84.794525,32.302649],[-84.794462,32.302522],[-84.794421,32.302382],[-84.794419,32.302183],[-84.794445,32.301882],[-84.794473,32.301735],[-84.794449,32.301348],[-84.794503,32.300267],[-84.794511,32.299773],[-84.792419,32.29976],[-84.791737,32.299756],[-84.791778,32.296025],[-84.791761,32.295831],[-84.791718,32.295426],[-84.791713,32.295202],[-84.791699,32.294888],[-84.791706,32.294618],[-84.791749,32.294161],[-84.7918,32.293965],[-84.791812,32.292851],[-84.791829,32.292582],[-84.791829,32.292146],[-84.791829,32.291701],[-84.791844,32.288804],[-84.791867,32.28459],[-84.791881,32.281255],[-84.791946,32.276956],[-84.791978,32.274026],[-84.792029,32.271706],[-84.792217,32.267446],[-84.792258,32.266603],[-84.792289,32.265752],[-84.79231,32.264885],[-84.792348,32.263291],[-84.792574,32.262016],[-84.79255,32.25678],[-84.793418,32.256808],[-84.79553,32.256869],[-84.796362,32.25891],[-84.797332,32.25898],[-84.7993,32.258591],[-84.799812,32.258407],[-84.800809,32.257331],[-84.800932,32.257239],[-84.805126,32.257337],[-84.806612,32.257224],[-84.811162,32.257367],[-84.811175,32.257367],[-84.811292,32.255146],[-84.811864,32.254962],[-84.812714,32.254744],[-84.81315,32.254626],[-84.813764,32.254452],[-84.814088,32.254346],[-84.814388,32.254261],[-84.814491,32.254226],[-84.814722,32.254123],[-84.815262,32.253833],[-84.816135,32.253314],[-84.817011,32.252817],[-84.817141,32.25273],[-84.817377,32.252591],[-84.817867,32.252281],[-84.818265,32.252001],[-84.81876,32.251578],[-84.818956,32.251351],[-84.819343,32.250808],[-84.819995,32.249744],[-84.820143,32.249505],[-84.820279,32.249316],[-84.820713,32.248756],[-84.820972,32.248472],[-84.821272,32.248199],[-84.821507,32.248012],[-84.821843,32.247802],[-84.822615,32.247348],[-84.823338,32.246916],[-84.823733,32.246653],[-84.823921,32.246552],[-84.824182,32.246395],[-84.824593,32.246161],[-84.825199,32.245869],[-84.825868,32.245573],[-84.826105,32.245479],[-84.826214,32.245423],[-84.827569,32.244877],[-84.828331,32.244586],[-84.82853,32.244501],[-84.829635,32.244081],[-84.829876,32.243989],[-84.830248,32.243873],[-84.830297,32.243855],[-84.831047,32.243633],[-84.832636,32.243266],[-84.832928,32.243206],[-84.833295,32.243108],[-84.835032,32.242728],[-84.83507,32.242718],[-84.835313,32.242675],[-84.835781,32.242556],[-84.836297,32.242399],[-84.836706,32.242249],[-84.837127,32.242069],[-84.837651,32.241804],[-84.838213,32.241469],[-84.838763,32.241115],[-84.83911,32.240879],[-84.83961,32.240549],[-84.839806,32.240419],[-84.840106,32.240229],[-84.840358,32.240052],[-84.840751,32.239798],[-84.841541,32.239341],[-84.84183,32.239207],[-84.842332,32.239015],[-84.8427,32.238901],[-84.843273,32.238756],[-84.843572,32.238695],[-84.844097,32.238644],[-84.84467,32.238622],[-84.845074,32.23863],[-84.845996,32.238712],[-84.846842,32.238805],[-84.847452,32.238872],[-84.849606,32.239102],[-84.851795,32.239327],[-84.852642,32.239399],[-84.852757,32.239412],[-84.85414,32.239537],[-84.855581,32.239691],[-84.857433,32.23989],[-84.858638,32.239998],[-84.859071,32.240031],[-84.859459,32.24008],[-84.859793,32.240127],[-84.860297,32.240183],[-84.860935,32.240274],[-84.861574,32.240386],[-84.86205,32.240488],[-84.862812,32.240661],[-84.863414,32.240796],[-84.863588,32.240828],[-84.863927,32.24093],[-84.864588,32.241143],[-84.865144,32.241354],[-84.865908,32.241692],[-84.866373,32.241909],[-84.866617,32.242007],[-84.866957,32.242114],[-84.867235,32.242188],[-84.86758,32.242237],[-84.867839,32.242252],[-84.868116,32.24226],[-84.868389,32.242234],[-84.868712,32.242165],[-84.869006,32.242089],[-84.869536,32.241965],[-84.870274,32.241773],[-84.871151,32.24156],[-84.871603,32.241479],[-84.871901,32.241428],[-84.872489,32.241348],[-84.873254,32.241252],[-84.873413,32.241234],[-84.873375,32.244334],[-84.873338,32.247025],[-84.87331,32.247619],[-84.873239,32.251425],[-84.874936,32.251467],[-84.878382,32.251561],[-84.878246,32.255575],[-84.878217,32.259164],[-84.884543,32.259507],[-84.884779,32.259521],[-84.885104,32.259538],[-84.886934,32.259638],[-84.888246,32.25967],[-84.888519,32.260869],[-84.888983,32.26151],[-84.889431,32.261941],[-84.890711,32.262901],[-84.891751,32.263621],[-84.893015,32.264502],[-84.893543,32.265302],[-84.893959,32.265846],[-84.894647,32.266278],[-84.895655,32.266726],[-84.896535,32.267381],[-84.897639,32.267974],[-84.898647,32.268438],[-84.898999,32.268822],[-84.899351,32.26943],[-84.899383,32.269509],[-84.900135,32.270038],[-84.900791,32.270662],[-84.901351,32.271414],[-84.901671,32.271734],[-84.902391,32.272405],[-84.902871,32.272725],[-84.903153,32.272953],[-84.903623,32.273333],[-84.904023,32.273749],[-84.904439,32.274005],[-84.905255,32.274372],[-84.906167,32.274836],[-84.907303,32.275349],[-84.910215,32.276469],[-84.911127,32.276949],[-84.912039,32.277605],[-84.912823,32.278149],[-84.914151,32.279349],[-84.915159,32.280005],[-84.91604,32.280773],[-84.916136,32.280949],[-84.91796,32.281877],[-84.918808,32.282452],[-84.920168,32.283285],[-84.92076,32.283797],[-84.921736,32.284565],[-84.922872,32.285333],[-84.923848,32.286372],[-84.924728,32.287301],[-84.925512,32.288373],[-84.926296,32.289445],[-84.926856,32.290084],[-84.927704,32.291092],[-84.928392,32.292116],[-84.929656,32.29354],[-84.930712,32.294837],[-84.93164,32.295845],[-84.932504,32.296756],[-84.933176,32.297492],[-84.9338,32.29826],[-84.934648,32.298916],[-84.935096,32.29914],[-84.935944,32.29954],[-84.936536,32.299732],[-84.93724,32.30002],[-84.938079,32.300421],[-84.938159,32.300458],[-84.93868,32.300708],[-84.939016,32.300948],[-84.9394,32.301172],[-84.940152,32.301699],[-84.940808,32.302068],[-84.941864,32.30258],[-84.943097,32.302964],[-84.944073,32.303348],[-84.945161,32.303508],[-84.946249,32.3037],[-84.947385,32.304052],[-84.948473,32.304291],[-84.949465,32.30442],[-84.950569,32.30466],[-84.951305,32.304884],[-84.952073,32.305315],[-84.953049,32.30554],[-84.953561,32.305892],[-84.954441,32.30626],[-84.955273,32.306612],[-84.955537,32.306694],[-84.955785,32.306772],[-84.956111,32.306896],[-84.956122,32.306905],[-84.956585,32.30706],[-84.956735,32.307144],[-84.957129,32.307364],[-84.957465,32.307422],[-84.958521,32.307603],[-84.959609,32.30794],[-84.960425,32.30818],[-84.961273,32.308563],[-84.962265,32.308916],[-84.962633,32.309156],[-84.963513,32.309556],[-84.964489,32.309844],[-84.965289,32.310004],[-84.965833,32.310228],[-84.967081,32.310724],[-84.967945,32.311059],[-84.969897,32.311684],[-84.971705,32.312436],[-84.973305,32.313204],[-84.974569,32.313651],[-84.975657,32.314003],[-84.977321,32.314692],[-84.97873,32.315092],[-84.979738,32.31546],[-84.981802,32.316276],[-84.983114,32.316724],[-84.983866,32.316947],[-84.985642,32.317715],[-84.98745,32.318483],[-84.988826,32.319172],[-84.989514,32.319316],[-84.991018,32.319651],[-84.992044,32.319893],[-84.99265,32.320036],[-84.994122,32.320468],[-84.995402,32.320771],[-84.99705,32.321123],[-84.998127,32.321371],[-84.998196,32.321387],[-84.999888,32.321371],[-84.999908,32.321371],[-84.999931,32.321371],[-85.000271,32.32141],[-85.000343,32.321418],[-85.001874,32.322015],[-85.002791,32.322428],[-85.003276,32.322794],[-85.003842,32.323321],[-85.003842,32.323436],[-85.005351,32.32504],[-85.006402,32.326757],[-85.006941,32.328086],[-85.007103,32.328362],[-85.007291,32.329324],[-85.007327,32.330109],[-85.007397,32.331615],[-85.007719,32.33379],[-85.008096,32.335234],[-85.008096,32.336677]]]}}]}