{"type":"FeatureCollection","crs":{"type":"name","properties":{"name":"urn:ogc:def:crs:OGC:1.3:CRS84"}},"features":[{"type":"Feature","id":1,"geometry":{"type":"Polygon","coordinates":[[[-122.467233456151,47.2955583840651],[-122.461831870741,47.2928531942731],[-122.466346214703,47.2893322699298],[-122.477167303115,47.281241903203],[-122.477796141304,47.2806127332707],[-122.478056652823,47.2803518985977],[-122.478578573911,47.2798302263489],[-122.478274045,47.2796400827238],[-122.478204874789,47.2795681692582],[-122.478152773018,47.2794091054771],[-122.477749430006,47.2776112318291],[-122.477761108224,47.2771200055815],[-122.477750328308,47.2766568105887],[-122.477740446565,47.2756731164143],[-122.477726072959,47.2747119549378],[-122.47936998968,47.2747198785595],[-122.480983364742,47.2746948899294],[-122.482597636869,47.2746918421198],[-122.483319882766,47.274707688766],[-122.483882227613,47.2747058602152],[-122.484089738253,47.2747607147514],[-122.484081653787,47.2738062418519],[-122.484097823621,47.2728931979793],[-122.48410411241,47.2724317943803],[-122.484096925546,47.2720069586818],[-122.484086145509,47.2710810842548],[-122.4840807555,47.270149097733],[-122.48408524727,47.2692128278999],[-122.484084349497,47.2682820279598],[-122.484079857187,47.2673530402023],[-122.484078959139,47.2664167213013],[-122.484075365588,47.265496235637],[-122.48410590835,47.2645897548266],[-122.484105908825,47.2636722850819],[-122.484107704902,47.2627279755103],[-122.48409602669,47.2617970618698],[-122.484096026733,47.2608649122406],[-122.48412207848,47.2599388430214],[-122.484044822978,47.2589908086947],[-122.484046433398,47.2579774320963],[-122.483642378199,47.2579958117498],[-122.483643275595,47.257486722546],[-122.483627105937,47.2570642049739],[-122.483653156911,47.2561587988856],[-122.483638785173,47.2552680114736],[-122.485117411959,47.255277766174],[-122.486587055437,47.2552838635279],[-122.488985557085,47.2552917896616],[-122.49045969241,47.2553088622285],[-122.491665231384,47.2553131304921],[-122.494070021286,47.2553149596151],[-122.494287413593,47.2553161781973],[-122.496014874532,47.2553180081976],[-122.497857318713,47.2553308121283],[-122.499173351121,47.2553332502383],[-122.500730131483,47.2553448354765],[-122.503806861389,47.2553649560853],[-122.505124689189,47.2553747115533],[-122.510274731375,47.255397270717],[-122.511221555649,47.2553972712076],[-122.511737187965,47.2553997096988],[-122.512999321,47.2554058071361],[-122.513832736503,47.2554213250535],[-122.513743461809,47.2551683875163],[-122.513599459236,47.254703387203],[-122.513349475744,47.2539084377729],[-122.513338453296,47.2538733856965],[-122.513113448787,47.2529683859962],[-122.512862443609,47.2523413853605],[-122.512539630709,47.2518670892138],[-122.511697872254,47.250919945034],[-122.511502430524,47.2507063842309],[-122.511392379602,47.2505761953271],[-122.511004207656,47.2501394048105],[-122.510955424518,47.250087383162],[-122.510897184706,47.2500189759336],[-122.508497730641,47.2472191687879],[-122.504542394611,47.2429323625695],[-122.504784233385,47.2429243582027],[-122.504874986422,47.242921354548],[-122.504998120797,47.242917279087],[-122.505074293907,47.2429163011952],[-122.506910331033,47.2428927269265],[-122.515785322038,47.2427783613084],[-122.526065810305,47.2427127555743],[-122.526087674249,47.242608411905],[-122.526487269142,47.2425599770026],[-122.526557138658,47.2426116044809],[-122.529800494071,47.2426031934843],[-122.530203086266,47.2426021410878],[-122.531589934526,47.2425985045648],[-122.531710712158,47.242598186947],[-122.531771100314,47.2425980281024],[-122.532336108567,47.2425965416138],[-122.532577663812,47.242595904696],[-122.533126542717,47.242594540899],[-122.533126660751,47.242610990671],[-122.534139871839,47.2426082252173],[-122.534260649478,47.2426079049405],[-122.534363233519,47.2426077341052],[-122.534362324019,47.2423013068966],[-122.535712343672,47.2422981239113],[-122.535716701177,47.2425877076466],[-122.536829057701,47.2425847808915],[-122.536859146431,47.2425756001082],[-122.536874255829,47.24256506047],[-122.536874234734,47.2425507090994],[-122.536873861474,47.242295376123],[-122.536931526997,47.2422952372781],[-122.536931622254,47.2421211682956],[-122.537052563859,47.2421211913245],[-122.53988403775,47.2421242574896],[-122.539894093523,47.241278385539],[-122.541847563629,47.2412778046151],[-122.541852363094,47.2417781045911],[-122.541544849994,47.2417778461716],[-122.541560355622,47.2425991569482],[-122.544899614648,47.2425980720141],[-122.545141170744,47.2425979901468],[-122.546930459152,47.2425973661181],[-122.546938712889,47.2407365006938],[-122.546414959277,47.2407427797732],[-122.546416601394,47.2402903146062],[-122.547685524199,47.2402750974213],[-122.547687211203,47.2401698180174],[-122.549007377934,47.2401989364267],[-122.548998230277,47.2422796053695],[-122.548996800648,47.242604610293],[-122.55019456402,47.2426114065728],[-122.550717332055,47.2426139552107],[-122.551566012038,47.2426178848596],[-122.551580011073,47.2415762728524],[-122.550960206172,47.2415734035831],[-122.550965158607,47.2406077049882],[-122.55096703395,47.2402421313757],[-122.552998707805,47.2402868795429],[-122.553016810831,47.2358447174548],[-122.552352655665,47.2358345521679],[-122.552354594552,47.2353601526434],[-122.553018743853,47.235370317921],[-122.553018765162,47.2353648269458],[-122.554897215463,47.2353882082199],[-122.555260397059,47.2353927251239],[-122.557524304269,47.2354208661602],[-122.557477048119,47.2353386117009],[-122.558378430386,47.2353495278311],[-122.558376068045,47.2354314295437],[-122.558346980994,47.2364322824991],[-122.560531718169,47.2364561248785],[-122.560535222662,47.2363353779911],[-122.561079990381,47.2363402892615],[-122.561605332125,47.2363450228766],[-122.560812053409,47.2373353926102],[-122.560056639475,47.237763137592],[-122.560049981129,47.2378452624096],[-122.559828916035,47.2379642748561],[-122.559891457374,47.2384366400164],[-122.559656838231,47.238738143943],[-122.558245065644,47.2399387362862],[-122.557712799624,47.2403913635013],[-122.556565411576,47.2403653510799],[-122.554072423582,47.240310514368],[-122.554066307576,47.2415877055132],[-122.553442311959,47.2415848302803],[-122.553443036344,47.2414340395853],[-122.553261881381,47.2414332046247],[-122.553262211177,47.2413646618379],[-122.552819383505,47.2413626189206],[-122.552818439772,47.2415585978692],[-122.552315218366,47.2415562748347],[-122.55231468949,47.2416659348096],[-122.552310083412,47.2426213246545],[-122.553666058756,47.2426275808126],[-122.558047639084,47.2426480430823],[-122.558208779043,47.2426487926776],[-122.558187168809,47.2426881490024],[-122.558163912265,47.2427304715367],[-122.559687332358,47.2427532841223],[-122.560365730351,47.2427634307876],[-122.560221182736,47.2450504680478],[-122.560916162444,47.2455794046177],[-122.567150025221,47.2503172253575],[-122.562670208087,47.2541216843615],[-122.558453374244,47.2596192916653],[-122.556138099569,47.2626372329495],[-122.548416963594,47.2712351698594],[-122.540120930588,47.2813761458477],[-122.538603644456,47.2898090309437],[-122.548728869771,47.3038391686338],[-122.554940608764,47.309627703195],[-122.558363382141,47.3141041723416],[-122.560921962045,47.3185240552641],[-122.558293857276,47.3242133060107],[-122.549488860886,47.3320452449677],[-122.536796481418,47.3360707657517],[-122.536020138852,47.3349392893716],[-122.533333112056,47.331628282728],[-122.529754078731,47.3282562766781],[-122.526519604133,47.3256456672064],[-122.525460043183,47.3248072698971],[-122.522972025959,47.3234422674486],[-122.51958150394,47.3222137206564],[-122.51232696328,47.3204042674634],[-122.505101922834,47.3185992679368],[-122.503653914961,47.3182382670705],[-122.499670894024,47.3176432696251],[-122.491858877362,47.3173152823564],[-122.486825050684,47.3174621539758],[-122.477980296966,47.301488735213],[-122.477808925713,47.3012106105391],[-122.47761747164,47.3009894373963],[-122.477481509023,47.3008528178251],[-122.477297390442,47.3006885196262],[-122.477125054212,47.3005596461271],[-122.476931652203,47.3004275685774],[-122.476770966063,47.3003305578813],[-122.476597251023,47.300246653655],[-122.467233456151,47.2955583840651]],[[-122.506814343159,47.3028339689429],[-122.509292490672,47.3017583797849],[-122.515617335637,47.3017948421539],[-122.515703842871,47.2944244732245],[-122.50512940178,47.2943323387248],[-122.505123409186,47.2993849400216],[-122.505125678357,47.2998314396745],[-122.505124680248,47.3000414399579],[-122.50512505615,47.3016450805134],[-122.505123109785,47.3035686312903],[-122.506814343159,47.3028339689429]]]},"properties":{"objectid_1":1,"objectid":1,"dist_id":1,"district":1,"councilmember":"John Hines","councilmember_email":"John.hines@tacoma.gov","councilmember_photo":"https://tacoma.gov/wp-content/uploads/2026/01/CM_Hines-Portrait.jpg","phonenumber":"(253) 591-5100","supportstaff":"H.Campbell","supportstaff_email":"HCampbell2@tacoma.gov","webpage":"https://tacoma.gov/profile/council-member-john-hines/","globalid":"b93b8297-82f4-4d64-aaf1-63af429aa819","district_text":"1","Shape__Area":502267557.38153076,"Shape__Length":136066.1794390334}},{"type":"Feature","id":2,"geometry":{"type":"Polygon","coordinates":[[[-122.399619910778,47.2424227507543],[-122.399626076234,47.2412098888974],[-122.399681292202,47.2411879908582],[-122.400702505595,47.2407844851653],[-122.400707364255,47.2407825636116],[-122.400729364339,47.2407735630277],[-122.401263362834,47.2405815609702],[-122.401759362746,47.2404025593097],[-122.401859363277,47.2403665587767],[-122.402033362936,47.2402965582127],[-122.40246936184,47.2401205571069],[-122.402602361697,47.240077556181],[-122.403107361368,47.2399275537665],[-122.403961361861,47.2397115516497],[-122.404078361801,47.2396865508087],[-122.404208360708,47.2396665510877],[-122.404730359949,47.2396035493083],[-122.406223361132,47.2394985452881],[-122.407275361049,47.2394155435393],[-122.408833465202,47.2393012689279],[-122.410070360862,47.2392105363923],[-122.410538360949,47.2392055346747],[-122.410812953897,47.2391793662688],[-122.412710360931,47.2389985302741],[-122.415479360631,47.2387025224544],[-122.415720360038,47.2386755231988],[-122.416626360487,47.2385765204955],[-122.416954359914,47.2385315193391],[-122.417437360342,47.2384565177715],[-122.417652824877,47.2384144343773],[-122.417949359811,47.2383565161914],[-122.41836536021,47.2382705150379],[-122.418799360023,47.2381685141242],[-122.419091359513,47.2380905134205],[-122.419383358867,47.2380035116309],[-122.419666359025,47.2379135109084],[-122.419976359016,47.2378055091897],[-122.420816358561,47.2374845071404],[-122.421460357406,47.2372035041624],[-122.423991319343,47.2360696598863],[-122.425421930724,47.2354493593442],[-122.425817840465,47.2352791785873],[-122.426012818392,47.2351953676318],[-122.427601352502,47.2345284791711],[-122.427447367373,47.2344079437326],[-122.427854303375,47.2342432550871],[-122.428141265939,47.2341398099399],[-122.428421140684,47.2340389186814],[-122.428663685682,47.2339632832958],[-122.429273538668,47.2337870483055],[-122.430427042191,47.2335248788956],[-122.431418350638,47.2333584666514],[-122.432094351448,47.2333014651931],[-122.432107350883,47.2333474657855],[-122.432096351681,47.2334634666662],[-122.432902351886,47.2333804642794],[-122.433257352317,47.2333184626708],[-122.434125351004,47.2332494615008],[-122.434985352037,47.2331704596404],[-122.435498351373,47.2330944580198],[-122.435872350744,47.2330314567712],[-122.436594350776,47.2328704543245],[-122.437694351128,47.2325534520189],[-122.43976783286,47.2319477445413],[-122.440650944339,47.2316866543768],[-122.440894247687,47.2316112185711],[-122.440850230518,47.2317368762837],[-122.440636431791,47.2324749562586],[-122.440345378187,47.2333142804378],[-122.440252550008,47.2334866864117],[-122.440118353946,47.2337454517741],[-122.440307649042,47.2345201755793],[-122.440410114202,47.2350077401637],[-122.440410442004,47.2350092444851],[-122.440482165679,47.2353365855484],[-122.440692126997,47.2362969454946],[-122.441161048195,47.2383548254397],[-122.441743156181,47.2408987042977],[-122.442097093013,47.2424740052477],[-122.442563318124,47.2445292062626],[-122.442798676693,47.2455598263247],[-122.443032238113,47.24658920624],[-122.4432675973,47.2476179560241],[-122.443500260476,47.2486479056243],[-122.443735620053,47.2496772262038],[-122.443968283272,47.250710184979],[-122.44420274396,47.2517327574542],[-122.44443810199,47.2527620173978],[-122.444904328293,47.2548210873636],[-122.445139686093,47.2558502866471],[-122.445373248478,47.2568770284057],[-122.445615793006,47.2579250887469],[-122.445824203281,47.2578848497173],[-122.446341632536,47.2578299771021],[-122.447071962694,47.2577537668151],[-122.448555080657,47.2575989057728],[-122.450024724255,47.2574452637666],[-122.451459334469,47.2572952793844],[-122.452893944349,47.2571471234209],[-122.454325858055,47.2569977479642],[-122.455763162904,47.2568489825545],[-122.457186992048,47.256700215423],[-122.458624296608,47.2565447415556],[-122.460058007678,47.256394144973],[-122.46149082079,47.2562429383652],[-122.462921837665,47.2560941701112],[-122.464168698555,47.2554637297013],[-122.46595634592,47.255450925714],[-122.467142123269,47.2554490965942],[-122.468327899137,47.2554429994424],[-122.469094162179,47.2554417795367],[-122.470229632201,47.2554411699288],[-122.471358814684,47.255439950782],[-122.472488894855,47.2554387314348],[-122.473407871538,47.2554320245906],[-122.473610891533,47.2554058066305],[-122.47418491487,47.2552881316535],[-122.474802057257,47.2552649623481],[-122.47627259982,47.2552667914932],[-122.477747632499,47.2552698398759],[-122.479223564663,47.2552698398662],[-122.480694106959,47.2552722787308],[-122.482170039448,47.2552747182611],[-122.483638785173,47.2552680114736],[-122.483653156911,47.2561587988856],[-122.483627105937,47.2570642049739],[-122.483643275595,47.257486722546],[-122.483642378199,47.2579958117498],[-122.484046433398,47.2579774320963],[-122.484044822978,47.2589908086947],[-122.48412207848,47.2599388430214],[-122.484096026733,47.2608649122406],[-122.48409602669,47.2617970618698],[-122.484107704902,47.2627279755103],[-122.484105908825,47.2636722850819],[-122.48410590835,47.2645897548266],[-122.484075365588,47.265496235637],[-122.484078959139,47.2664167213013],[-122.484079857187,47.2673530402023],[-122.484084349497,47.2682820279598],[-122.48408524727,47.2692128278999],[-122.4840807555,47.270149097733],[-122.484086145509,47.2710810842548],[-122.484096925546,47.2720069586818],[-122.48410411241,47.2724317943803],[-122.484097823621,47.2728931979793],[-122.484081653787,47.2738062418519],[-122.484089738253,47.2747607147514],[-122.483882227613,47.2747058602152],[-122.483319882766,47.274707688766],[-122.482597636869,47.2746918421198],[-122.480983364742,47.2746948899294],[-122.47936998968,47.2747198785595],[-122.477726072959,47.2747119549378],[-122.477740446565,47.2756731164143],[-122.477750328308,47.2766568105887],[-122.477761108224,47.2771200055815],[-122.477749430006,47.2776112318291],[-122.478152773018,47.2794091054771],[-122.478204874789,47.2795681692582],[-122.478274045,47.2796400827238],[-122.478578573911,47.2798302263489],[-122.478056652823,47.2803518985977],[-122.477796141304,47.2806127332707],[-122.477167307145,47.2812419049338],[-122.466346214703,47.2893322699298],[-122.461831870741,47.2928531942731],[-122.440627370137,47.2822285870311],[-122.438300340866,47.2864887602468],[-122.433889313564,47.2945624707865],[-122.432754230423,47.2966396855291],[-122.432612002078,47.2971233314994],[-122.432609136178,47.2971861168299],[-122.432581098181,47.2978003420213],[-122.432577192632,47.2978620253806],[-122.43257272386,47.2978581778849],[-122.432572510997,47.2978690476736],[-122.432644131651,47.2979196997492],[-122.43271858634,47.297983850217],[-122.432800749156,47.298054640914],[-122.432867370631,47.2981120415305],[-122.432879181731,47.2981222177742],[-122.432901287468,47.2981412639187],[-122.432915801257,47.2981537695257],[-122.432701486582,47.2982359599804],[-122.432696311292,47.298237430074],[-122.43269372953,47.2982381632231],[-122.432686238788,47.2982408199962],[-122.432679076993,47.2982439067619],[-122.432672314097,47.2982473827652],[-122.43266600445,47.2982512147092],[-122.432660176775,47.2982553922179],[-122.432654870598,47.2982599110333],[-122.43265012147,47.2982647300742],[-122.432645957592,47.2982697876879],[-122.432642405037,47.2982750366529],[-122.432639555243,47.2982803350842],[-122.432637337299,47.2982857705399],[-122.43263575939,47.2982913131921],[-122.432634836566,47.2982969402958],[-122.432634575238,47.2983026094565],[-122.432634971044,47.2983082730601],[-122.432636015788,47.2983138871558],[-122.432637708532,47.2983194256665],[-122.43264003373,47.2983248609592],[-122.432642980642,47.2983301518247],[-122.432646534493,47.2983352553214],[-122.432650675515,47.2983401366885],[-122.432992288965,47.2987507131157],[-122.433021998668,47.2987921854885],[-122.433046649218,47.2988351944059],[-122.433066074164,47.2988794520284],[-122.43307535392,47.2989092642404],[-122.433080146384,47.2989246608627],[-122.433088774282,47.2989705183235],[-122.433091900597,47.2990167203526],[-122.433089504818,47.2990629550802],[-122.433081606187,47.2991089126722],[-122.433068261022,47.2991542844749],[-122.433057360838,47.2991818023278],[-122.4330444566,47.2992089091219],[-122.433019012427,47.2992519075908],[-122.433016237242,47.2992565974563],[-122.433010551041,47.2992641529672],[-122.432999745217,47.2992797916891],[-122.432987509651,47.2992947704427],[-122.432981800718,47.2993023560226],[-122.432977760691,47.2993067043796],[-122.432972219906,47.2993134872808],[-122.432941427212,47.2993458121471],[-122.432906431918,47.2993775340666],[-122.43286830286,47.2994074826397],[-122.432827236259,47.2994355241284],[-122.432794216352,47.2994548604609],[-122.432369963008,47.299703297148],[-122.432301038422,47.2997433078473],[-122.432283401275,47.2997553228162],[-122.432201723274,47.2998109667718],[-122.432111171546,47.2998840561736],[-122.432044915157,47.2999477413382],[-122.431983810771,47.3000147443386],[-122.431929502939,47.3000850053852],[-122.431869842745,47.3001784205751],[-122.431867734361,47.300271341846],[-122.431884224889,47.3011381948961],[-122.433240405528,47.3011407945266],[-122.433273047389,47.3011408557174],[-122.433270691584,47.3016054993261],[-122.43334593704,47.3016058055636],[-122.433347370312,47.3020037714627],[-122.434558348064,47.3020124250103],[-122.434558346961,47.3020648433135],[-122.432088364265,47.3020486784551],[-122.432038274363,47.3018252589762],[-122.430622437051,47.301823840927],[-122.430653543861,47.3029314203181],[-122.430704781254,47.3047555942471],[-122.430635560649,47.3062659062995],[-122.430981955362,47.3065853948224],[-122.431041704213,47.3066403340357],[-122.431060149959,47.3066572496985],[-122.431650140079,47.3071023615311],[-122.432166725,47.3077309627859],[-122.432149571686,47.3080307316768],[-122.431836381563,47.3084839673507],[-122.431841049518,47.3084839561565],[-122.431755192436,47.308595072456],[-122.431673792656,47.3087048556826],[-122.431609748472,47.3088146376265],[-122.43155731577,47.308924482518],[-122.431515939407,47.3090343645321],[-122.431485063792,47.30914428214],[-122.431464298552,47.3092542301572],[-122.431458438211,47.3093281066436],[-122.431429169829,47.3095861166],[-122.431392113481,47.3099448653967],[-122.431346435422,47.3103851033918],[-122.431331782595,47.3104468511092],[-122.431215378991,47.3109378571171],[-122.431183197174,47.3110640852092],[-122.431133106351,47.3112722729869],[-122.430380770472,47.3112776141134],[-122.430337661064,47.3120640990791],[-122.427670503644,47.3120534181578],[-122.427679701197,47.3152650586343],[-122.426516651847,47.3152636549374],[-122.426510393793,47.3146090243405],[-122.42638943994,47.314608154591],[-122.426387962714,47.3144321461023],[-122.42507103907,47.3144318789657],[-122.425067409641,47.3140158118667],[-122.425053129026,47.3120442463479],[-122.419749862416,47.3120497178099],[-122.418404494036,47.3120632664627],[-122.418406145588,47.3138757122505],[-122.417067604021,47.3138746270261],[-122.417070924479,47.314575588316],[-122.416667768715,47.3145708305025],[-122.416672955261,47.3156676930738],[-122.414412732589,47.3156409938177],[-122.414368313494,47.3121038217578],[-122.40898496264,47.312131587971],[-122.409010030535,47.308412491281],[-122.408999685786,47.3047234844361],[-122.405124669272,47.3046964407722],[-122.398193385737,47.3046426269094],[-122.394977711472,47.3047095606654],[-122.38984329317,47.3010047100762],[-122.3874495845,47.2993811035344],[-122.382158009693,47.2957896991724],[-122.379096042001,47.2937110496465],[-122.376816399799,47.2921635976643],[-122.376817489094,47.2921052521171],[-122.373925840226,47.2901397503873],[-122.371372848188,47.2883505542429],[-122.370067991434,47.2874579794825],[-122.368550337823,47.2864197859901],[-122.367286667664,47.2855316074162],[-122.366129355006,47.2847395218998],[-122.365874184845,47.2845648731846],[-122.364766276549,47.2837980838673],[-122.363226352141,47.282731385808],[-122.357955956944,47.279028679385],[-122.355650695765,47.2774442971131],[-122.355684605402,47.2753498169655],[-122.355705325341,47.2744329552957],[-122.355726983748,47.273474586118],[-122.355762577688,47.2716761676008],[-122.353999528202,47.2716697798913],[-122.352511978563,47.2716718343189],[-122.35152587153,47.2716705805053],[-122.351601227942,47.2703273332622],[-122.350674213105,47.2703253567718],[-122.350633702479,47.2703281496987],[-122.350655318952,47.2699427426051],[-122.353165180192,47.269926990778],[-122.353228460728,47.268226529518],[-122.355827193065,47.2681806513616],[-122.355834517286,47.2645871875996],[-122.355978790454,47.2610828734835],[-122.353753722443,47.2610710342935],[-122.353756117589,47.2621932729643],[-122.350329697051,47.2622000055433],[-122.350342842154,47.2610525340345],[-122.349538811647,47.2610477147022],[-122.349612424822,47.2592111108163],[-122.349648130658,47.2583217340427],[-122.348374939162,47.2583106398205],[-122.348415428244,47.2573808923604],[-122.355929730183,47.257433604294],[-122.356627658786,47.2574421493923],[-122.356648579417,47.256478475886],[-122.359186617914,47.2564889647678],[-122.357598534424,47.2555721954809],[-122.3576040506,47.2553178051675],[-122.360664046715,47.2545141286744],[-122.360683023229,47.2536366175463],[-122.360684091429,47.2535832807585],[-122.359377622592,47.2535924842354],[-122.359408543389,47.2518149267211],[-122.359666398478,47.2518181800459],[-122.359690807131,47.2508728008734],[-122.359611038478,47.250877515978],[-122.359621557388,47.2504833028388],[-122.359540601664,47.2501402574619],[-122.359526809373,47.2500818102503],[-122.359528933619,47.2500022352471],[-122.359408612255,47.2500021614726],[-122.359409109196,47.2499439698018],[-122.359449211716,47.2463040763269],[-122.363190304956,47.246307542313],[-122.365403848488,47.2463095473394],[-122.367140491957,47.2463110912794],[-122.367429816273,47.2463113461467],[-122.367657044517,47.2463126925937],[-122.368563764267,47.2463180364329],[-122.372790032302,47.2463414659839],[-122.372787894637,47.2453316465601],[-122.377627343079,47.245358827912],[-122.377621980239,47.245846556648],[-122.378184711415,47.2458490087847],[-122.378229333617,47.2458491848481],[-122.380827728538,47.2458576863446],[-122.380814351948,47.2463569221965],[-122.380745020055,47.2463565716663],[-122.380740964896,47.2467976059515],[-122.380793917299,47.246797738434],[-122.380791018701,47.2468600734034],[-122.380851181852,47.2468604018703],[-122.385401736518,47.2468802607791],[-122.385414000164,47.2464697232249],[-122.385417568073,47.2459361574787],[-122.385417324051,47.2445518356628],[-122.385466097134,47.2445522121671],[-122.385882951233,47.2445537481461],[-122.388909030102,47.2445850519039],[-122.394348865022,47.2445973574372],[-122.394337366396,47.245008532658],[-122.396474261075,47.245017336773],[-122.396900090007,47.2450203507399],[-122.396907127992,47.2446078965785],[-122.398243023381,47.2446129158923],[-122.398237530765,47.2448459400326],[-122.399572165193,47.2448509467894],[-122.399609368897,47.2432113137639],[-122.399617759505,47.2428450904085],[-122.399619910778,47.2424227507543]]]},"properties":{"objectid_1":2,"objectid":18,"dist_id":2,"district":2,"councilmember":"Sarah Rumbaugh","councilmember_email":"SRumbaugh@tacoma.gov ","councilmember_photo":"https://tacoma.gov/wp-content/uploads/2026/02/Rumbaugh_NR.jpg","phonenumber":"(253) 591-5100","supportstaff":"S.Butterfield","supportstaff_email":"sbutterfield@tacoma.gov","webpage":"https://tacoma.gov/profile/council-member-sarah-rumbaugh/","globalid":"2be90c78-0c3c-4f33-bcb1-ec14a98b4f26","district_text":"2","Shape__Area":562763030.0418701,"Shape__Length":131943.4395000261}},{"type":"Feature","id":3,"geometry":{"type":"MultiPolygon","coordinates":[[[[-122.445139686093,47.2558502866471],[-122.444904328293,47.2548210873636],[-122.44443810199,47.2527620173978],[-122.44420274396,47.2517327574542],[-122.443968283272,47.250710184979],[-122.443735620053,47.2496772262038],[-122.443500260476,47.2486479056243],[-122.4432675973,47.2476179560241],[-122.443032238113,47.24658920624],[-122.442798676693,47.2455598263247],[-122.442563318124,47.2445292062626],[-122.442097093013,47.2424740052477],[-122.441743156181,47.2408987042977],[-122.44163977288,47.2404651449143],[-122.441157363507,47.2383564690058],[-122.440688359894,47.2362984617633],[-122.44048235704,47.2353374578179],[-122.440482165679,47.2353365855484],[-122.440411361654,47.2350134552949],[-122.440410442004,47.2350092444851],[-122.440410114202,47.2350077401637],[-122.440410104526,47.2350076917383],[-122.440304355688,47.2345214553576],[-122.440118353946,47.2337454517741],[-122.440252553741,47.2334866800507],[-122.440345378187,47.2333142804378],[-122.440636431791,47.2324749562586],[-122.440850230518,47.2317368762837],[-122.440894216515,47.2316113063715],[-122.440897652858,47.2316102968057],[-122.442034349468,47.2312764375773],[-122.443099349185,47.2309544343566],[-122.444047349123,47.2307494316435],[-122.444554348413,47.2306434303635],[-122.445465348749,47.2304934276825],[-122.445953349579,47.2304374267268],[-122.446984348552,47.2303304250156],[-122.447681349169,47.2302924234462],[-122.448513348682,47.2302784208708],[-122.449143348783,47.2302874203013],[-122.449706350031,47.2303134184591],[-122.450382349999,47.2303634184275],[-122.450881350451,47.2304174175334],[-122.451884350413,47.2305274152382],[-122.453438351897,47.2307214145137],[-122.455925353059,47.2310104105153],[-122.456851353913,47.2311124085447],[-122.457530353023,47.2311414073503],[-122.458226353722,47.2311184062473],[-122.458840353907,47.2310574042352],[-122.459342354303,47.2309674032992],[-122.459693353261,47.2308774026564],[-122.459887354101,47.2308274013385],[-122.46045535353,47.2306483996382],[-122.460716353879,47.2305553992887],[-122.460901352859,47.2304893985712],[-122.461198353142,47.2303483978487],[-122.461669353526,47.2300503953717],[-122.461812352857,47.2299423941042],[-122.462079352661,47.2297283928737],[-122.462430352813,47.2294103914654],[-122.462640351986,47.2291743899626],[-122.462863350831,47.2288973887412],[-122.462980350854,47.2287293885498],[-122.463105350805,47.2285253864682],[-122.463208350351,47.2283273854237],[-122.463235349319,47.2282523853635],[-122.46329434919,47.2280963843384],[-122.463382349494,47.2278053834142],[-122.463410348108,47.2276083823338],[-122.463454348127,47.2272003814563],[-122.463437348079,47.2267243785908],[-122.463443346378,47.226225377707],[-122.463467710949,47.225102809941],[-122.463471344234,47.2249353720708],[-122.463500342525,47.2241253692563],[-122.463502923054,47.2231339496503],[-122.463503340885,47.2229733649398],[-122.463521339055,47.2215553597259],[-122.463451336017,47.2203253551279],[-122.463394334277,47.2195803523185],[-122.463297333075,47.2187013483432],[-122.463054329676,47.2169133421751],[-122.463009329006,47.2165093407078],[-122.461722587035,47.2065750295314],[-122.462929023363,47.2066031015256],[-122.463447352255,47.2065548903289],[-122.463856084996,47.2064517530261],[-122.464491383572,47.2064275279476],[-122.464934503076,47.2064123492563],[-122.46706238526,47.2064198946871],[-122.470963556439,47.2064169675466],[-122.472311028187,47.2064261211093],[-122.473639636692,47.2064407679972],[-122.474373561309,47.206499965258],[-122.47497273695,47.2065017962297],[-122.475661745082,47.2064999651504],[-122.476256429155,47.2064987447886],[-122.476940047795,47.2065048470102],[-122.477543714878,47.2065201045976],[-122.477844650899,47.2065072881142],[-122.478180620778,47.2064731128952],[-122.478222841694,47.2064609071147],[-122.478389928857,47.2064322239727],[-122.47882920465,47.2063382414473],[-122.479098698445,47.2062839265035],[-122.479429279466,47.2062302216361],[-122.479623315705,47.2062113027384],[-122.480247644663,47.206211302969],[-122.481337301353,47.2062119130162],[-122.482424262678,47.2062039794635],[-122.48373310736,47.2062119134219],[-122.485067106205,47.2062222876279],[-122.485808216354,47.2062259493236],[-122.486582563054,47.2062302216301],[-122.487868950828,47.206235713999],[-122.489155338692,47.2062381552693],[-122.490446217918,47.2062412068303],[-122.49104090208,47.2062418171152],[-122.491705655639,47.2062430377542],[-122.493218419182,47.2062320526535],[-122.49444012773,47.2062357139077],[-122.494483246905,47.2062357139672],[-122.495176746211,47.2062808745248],[-122.495475884682,47.2063150502251],[-122.495737294244,47.206349836257],[-122.497010207651,47.2065127807324],[-122.498275035522,47.2065188832643],[-122.499547947565,47.2065219349461],[-122.500817267469,47.2065219349388],[-122.502090180767,47.206524986538],[-122.502284281576,47.2065259157441],[-122.502727984535,47.2065280381754],[-122.503242718416,47.2065115605051],[-122.504630615513,47.206518273135],[-122.505516934891,47.2065130170664],[-122.505473237487,47.2066220066354],[-122.505436107234,47.2067948553434],[-122.505409471582,47.2069685992154],[-122.505394812006,47.2071211207381],[-122.505388241557,47.2072739024798],[-122.50543344077,47.2072737103626],[-122.505437506671,47.2079056572526],[-122.505390448428,47.2080884811943],[-122.505391205233,47.2083677338765],[-122.505391264553,47.208389669022],[-122.505391323872,47.2084116041674],[-122.505392166105,47.2087224787304],[-122.505392543487,47.2088613874718],[-122.505392744313,47.208935413052],[-122.50539291487,47.2089984724202],[-122.505393767851,47.2093135973744],[-122.505394247457,47.2094902040328],[-122.505396050758,47.2101556845702],[-122.505396207871,47.2102139959129],[-122.505396802898,47.2104332536022],[-122.50539851745,47.2110661367021],[-122.5053990811,47.2112739026602],[-122.505403465692,47.2128919958795],[-122.505405934023,47.2138000428178],[-122.505404910695,47.2138548896265],[-122.505402194428,47.2141039912482],[-122.505398713481,47.2144230445354],[-122.505392321679,47.215008952965],[-122.505391873294,47.215050084998],[-122.505391424975,47.2150912188288],[-122.505389050651,47.2153087945691],[-122.505385765793,47.215611981819],[-122.50538208987,47.2159469754801],[-122.505378256822,47.2162982122268],[-122.505365843655,47.2174359986671],[-122.505346036858,47.2192544362386],[-122.505343928489,47.2194573502819],[-122.505328574736,47.2208593729749],[-122.505377839747,47.2210190723763],[-122.505437771663,47.2212133495754],[-122.505416807054,47.222818093037],[-122.505414697355,47.2229788974228],[-122.505392479105,47.2246028496014],[-122.505391173607,47.2246999274388],[-122.50539150394,47.2248054439812],[-122.505385068884,47.2263956826499],[-122.505384070523,47.2266424525774],[-122.505377634914,47.22823261638],[-122.505377299614,47.2283285822322],[-122.505176066273,47.2283299218987],[-122.505118994901,47.2319856169049],[-122.505099441454,47.2332530179176],[-122.505081127611,47.2344454309113],[-122.505062539141,47.235642505419],[-122.504998584257,47.2428653183023],[-122.504998124758,47.2429172790184],[-122.504542394611,47.2429323625695],[-122.508497733382,47.2472191714397],[-122.510897188836,47.2500189803608],[-122.512539636227,47.2518670954164],[-122.512862443609,47.2523413853605],[-122.513113448787,47.2529683859962],[-122.513349475744,47.2539084377729],[-122.513833464073,47.2554233873069],[-122.512999321,47.2554058071361],[-122.511737187965,47.2553997096988],[-122.511221555649,47.2553972712076],[-122.510274731375,47.255397270717],[-122.505124689189,47.2553747115533],[-122.503806861389,47.2553649560853],[-122.500730131483,47.2553448354765],[-122.499173351121,47.2553332502383],[-122.497857318713,47.2553308121283],[-122.496014874532,47.2553180081976],[-122.494287413593,47.2553161781973],[-122.494070021286,47.2553149596151],[-122.491665231384,47.2553131304921],[-122.49045969241,47.2553088622285],[-122.488985557085,47.2552917896616],[-122.486587055437,47.2552838635279],[-122.485117411959,47.255277766174],[-122.483638785173,47.2552680114736],[-122.482170039448,47.2552747182611],[-122.480694106959,47.2552722787308],[-122.479223564663,47.2552698398662],[-122.477747632499,47.2552698398759],[-122.47627259982,47.2552667914932],[-122.474802057257,47.2552649623481],[-122.47418491487,47.2552881316535],[-122.473610891533,47.2554058066305],[-122.473407871538,47.2554320245906],[-122.472488894855,47.2554387314348],[-122.471358814684,47.255439950782],[-122.470229632201,47.2554411699288],[-122.469094162179,47.2554417795367],[-122.468327899137,47.2554429994424],[-122.467142123269,47.2554490965942],[-122.46595634592,47.255450925714],[-122.464168698555,47.2554637297013],[-122.462921837665,47.2560941701112],[-122.46149082079,47.2562429383652],[-122.460058007678,47.256394144973],[-122.458624296608,47.2565447415556],[-122.457186992048,47.256700215423],[-122.455763162904,47.2568489825545],[-122.454325858055,47.2569977479642],[-122.452893944349,47.2571471234209],[-122.451459334469,47.2572952793844],[-122.450024724255,47.2574452637666],[-122.448555080657,47.2575989057728],[-122.447071962694,47.2577537668151],[-122.446341632536,47.2578299771021],[-122.445824203281,47.2578848497173],[-122.445615793006,47.2579250887469],[-122.445373248478,47.2568770284057],[-122.445139686093,47.2558502866471]]],[[[-122.506426770899,47.224745335927],[-122.506426408945,47.2246933125814],[-122.506744745883,47.2246912929127],[-122.511967596848,47.2246580091921],[-122.511964011226,47.2247036568975],[-122.511982034461,47.2254377287599],[-122.512466741119,47.225432798137],[-122.512468856163,47.225570599957],[-122.513218071879,47.2255637669076],[-122.513236751608,47.2264716629727],[-122.5137073453,47.2264674118549],[-122.513708970815,47.2265764935383],[-122.513858224837,47.2265750651051],[-122.513896790495,47.2281188772777],[-122.513900406779,47.2282773139491],[-122.513899063122,47.2282774120064],[-122.513592515624,47.2282775866999],[-122.512922811316,47.2282779641861],[-122.509544480259,47.2283004060309],[-122.509531762657,47.2272450169996],[-122.507680762571,47.227254862297],[-122.507668377937,47.2265128319932],[-122.506439068829,47.2265111671183],[-122.506426770899,47.224745335927]]]]},"properties":{"objectid_1":3,"objectid":19,"dist_id":3,"district":3,"councilmember":" Jamika Scott","councilmember_email":"jscott8@tacoma.gov","councilmember_photo":"https://tacoma.gov/wp-content/uploads/2025/09/CM_Scott-Portrait.jpg","phonenumber":"(253) 591-5100","supportstaff":"H.Campbell","supportstaff_email":"HCampbell2@tacoma.gov","webpage":"https://tacoma.gov/profile/council-member-jamika-scott/","globalid":"ccbba939-cd14-440c-b673-e2271d5c63af","district_text":"3","Shape__Area":243732340.52197266,"Shape__Length":76738.3997872183}},{"type":"Feature","id":4,"geometry":{"type":"Polygon","coordinates":[[[-122.420780775001,47.1916671172097],[-122.42091391988,47.1933370830541],[-122.420907630986,47.1940659299619],[-122.420911224231,47.1948081965556],[-122.420907632089,47.1953886950633],[-122.42091481775,47.1955358028618],[-122.42091481875,47.1962829317189],[-122.420893258129,47.1970440895675],[-122.420889665494,47.1972381916522],[-122.420893259045,47.1977710549012],[-122.42088966514,47.198137890804],[-122.42089056423,47.1985309705475],[-122.420880682267,47.1990320809877],[-122.420865411278,47.1999140492241],[-122.420877088296,47.2008320125546],[-122.420874393767,47.2017200545655],[-122.420879783243,47.202680098917],[-122.420884275302,47.2036138834892],[-122.420871698744,47.2045177456274],[-122.42087978349,47.2054209828658],[-122.420884275538,47.2063138303639],[-122.422753669215,47.2063181019106],[-122.423551373679,47.2063248146377],[-122.42377685061,47.206326035946],[-122.42481260767,47.2063296973801],[-122.426100792337,47.2063382414853],[-122.427987254816,47.2063449544281],[-122.428537921721,47.2063400724211],[-122.429878207499,47.2063492259281],[-122.430692081654,47.2063571602211],[-122.431302936295,47.20635899086],[-122.432652206142,47.2063669239793],[-122.43397272962,47.206374247463],[-122.436447587488,47.2063870630518],[-122.438113963099,47.2063858430627],[-122.43996988159,47.2063907254345],[-122.441825801485,47.2064017100332],[-122.44321010476,47.2064157462863],[-122.444537814566,47.2064242907477],[-122.445866423517,47.2064322245076],[-122.447151013858,47.206443208735],[-122.448458961798,47.2064450395486],[-122.449750738931,47.2064358861573],[-122.451072160556,47.2064352757516],[-122.452344174329,47.2064480915997],[-122.454720219354,47.2064828768858],[-122.456616561952,47.2064981342676],[-122.458495837795,47.2065310890763],[-122.458821027777,47.2065378023004],[-122.459324910878,47.2065333164702],[-122.461319310337,47.2065613042268],[-122.461473310757,47.206566304412],[-122.461477509136,47.2065664752919],[-122.461719310221,47.2065763042903],[-122.462293319035,47.2108533192114],[-122.462417320142,47.2118103231336],[-122.462513321097,47.2125463258802],[-122.462685325019,47.213879331077],[-122.462734324645,47.2142633322576],[-122.462918327798,47.2159143386326],[-122.463009329006,47.2165093407078],[-122.463054329676,47.2169133421751],[-122.463297333075,47.2187013483432],[-122.463394334277,47.2195803523185],[-122.463451336017,47.2203253551279],[-122.463521339055,47.2215553597259],[-122.463503340885,47.2229733649398],[-122.463502923054,47.2231339496503],[-122.463500342525,47.2241253692563],[-122.463471344234,47.2249353720708],[-122.463467710949,47.225102809941],[-122.463443346378,47.226225377707],[-122.463437348079,47.2267243785908],[-122.463454348127,47.2272003814563],[-122.463410348108,47.2276083823338],[-122.463382349494,47.2278053834142],[-122.46329434919,47.2280963843384],[-122.463235349319,47.2282523853635],[-122.463208350351,47.2283273854237],[-122.463105350805,47.2285253864682],[-122.462980350854,47.2287293885498],[-122.462863350831,47.2288973887412],[-122.462640351986,47.2291743899626],[-122.462430352813,47.2294103914654],[-122.462079352661,47.2297283928737],[-122.461812352857,47.2299423941042],[-122.461669353526,47.2300503953717],[-122.461198353142,47.2303483978487],[-122.460901352859,47.2304893985712],[-122.460716353879,47.2305553992887],[-122.46045535353,47.2306483996382],[-122.459887354101,47.2308274013385],[-122.459693353261,47.2308774026564],[-122.459342354303,47.2309674032992],[-122.458840353907,47.2310574042352],[-122.458226353722,47.2311184062473],[-122.457530353023,47.2311414073503],[-122.456851353913,47.2311124085447],[-122.455925353059,47.2310104105153],[-122.453438351897,47.2307214145137],[-122.451884350413,47.2305274152382],[-122.450881350451,47.2304174175334],[-122.450382349999,47.2303634184275],[-122.449706350031,47.2303134184591],[-122.449143348783,47.2302874203013],[-122.448513348682,47.2302784208708],[-122.447681349169,47.2302924234462],[-122.446984348552,47.2303304250156],[-122.445953349579,47.2304374267268],[-122.445465348749,47.2304934276825],[-122.444554348413,47.2306434303635],[-122.444047349123,47.2307494316435],[-122.443099349185,47.2309544343566],[-122.442034349468,47.2312764375773],[-122.440897652858,47.2316102968057],[-122.440890350126,47.2316124419165],[-122.440477248178,47.2317404973139],[-122.437694351128,47.2325534520189],[-122.436594350776,47.2328704543245],[-122.435872350744,47.2330314567712],[-122.435498351373,47.2330944580198],[-122.434985352037,47.2331704596404],[-122.434125351004,47.2332494615008],[-122.433257352317,47.2333184626708],[-122.432902351886,47.2333804642794],[-122.432096351681,47.2334634666662],[-122.432107350883,47.2333474657855],[-122.432094351448,47.2333014651931],[-122.431902350598,47.2333164659242],[-122.431418350638,47.2333584666514],[-122.431208350913,47.2333924681631],[-122.43086835118,47.2334474686131],[-122.430455350921,47.2335184693282],[-122.429289350697,47.2337824731409],[-122.428660351955,47.2339644752344],[-122.428417352401,47.2340404753914],[-122.428141265939,47.2341398099399],[-122.427854303375,47.2342432550871],[-122.427447367373,47.2344079437326],[-122.427443505786,47.234409594306],[-122.427601352502,47.2345284791711],[-122.426966352416,47.2347854817725],[-122.42506335501,47.2356034896953],[-122.424876354395,47.2356844904683],[-122.423063356564,47.2364734981603],[-122.421460357406,47.2372035041624],[-122.420816358561,47.2374845071404],[-122.419976359016,47.2378055091897],[-122.419666359025,47.2379135109084],[-122.419383358867,47.2380035116309],[-122.419091359513,47.2380905134205],[-122.418799360023,47.2381685141242],[-122.41836536021,47.2382705150379],[-122.417949359811,47.2383565161914],[-122.417437360342,47.2384565177715],[-122.416954359914,47.2385315193391],[-122.416626360487,47.2385765204955],[-122.415720360038,47.2386755231988],[-122.415479360631,47.2387025224544],[-122.412710360931,47.2389985302741],[-122.410538360949,47.2392055346747],[-122.410070360862,47.2392105363923],[-122.407275361049,47.2394155435393],[-122.406223361132,47.2394985452881],[-122.404730359949,47.2396035493083],[-122.404208360708,47.2396665510877],[-122.404078361801,47.2396865508087],[-122.403961361861,47.2397115516497],[-122.403107361368,47.2399275537665],[-122.402602361697,47.240077556181],[-122.40246936184,47.2401205571069],[-122.402033362936,47.2402965582127],[-122.401859363277,47.2403665587767],[-122.401759362746,47.2404025593097],[-122.401263362834,47.2405815609702],[-122.400729364339,47.2407735630277],[-122.400707364255,47.2407825636116],[-122.400041146441,47.2410454560433],[-122.399626076234,47.2412098888974],[-122.399629216088,47.2405917221878],[-122.399629952584,47.2404469229558],[-122.399264744297,47.2403613479559],[-122.398713474316,47.240232172205],[-122.398230943951,47.2400637002544],[-122.397850974741,47.2399310347168],[-122.397360761863,47.2397598247965],[-122.39687902687,47.2394892118814],[-122.396579029914,47.2393211196965],[-122.396432849808,47.2392392129396],[-122.396304858653,47.2391674965991],[-122.39617525913,47.239084865415],[-122.396020020695,47.2389813476639],[-122.395768146897,47.238812605814],[-122.395576242868,47.238683987112],[-122.39513373293,47.2383893952016],[-122.394662841269,47.2380774634628],[-122.394432871886,47.2379251228424],[-122.39426676221,47.2378150846771],[-122.394261731899,47.2354807542081],[-122.394264888412,47.2321662878956],[-122.394265131133,47.2318678834433],[-122.394287881115,47.2303417790354],[-122.394321648858,47.2281992811828],[-122.394334639621,47.2245689996667],[-122.394370306761,47.2208848314551],[-122.394420538402,47.2172558101121],[-122.394507076452,47.2135948902711],[-122.394474805694,47.2099351093895],[-122.39444071927,47.2062949692163],[-122.394545385374,47.2026324364851],[-122.394348701821,47.1989211218015],[-122.394392815964,47.1953689009367],[-122.394416887386,47.1937468330754],[-122.394446548115,47.1917480551434],[-122.394446608528,47.1916749332767],[-122.396083417709,47.1916693226761],[-122.397185675298,47.1916671655298],[-122.399782180892,47.1916589639457],[-122.399842475601,47.1916587737096],[-122.405768033944,47.1916618279871],[-122.405768487666,47.1916564938437],[-122.406425316159,47.1916565070771],[-122.40642505543,47.1916347880964],[-122.407053030912,47.1916351463528],[-122.407052836374,47.1916460341446],[-122.40775017063,47.1916462242309],[-122.407751982459,47.1895775713329],[-122.410377584072,47.1895697805933],[-122.410458118138,47.1895692343639],[-122.410455305173,47.1900232120667],[-122.411141100749,47.190026577177],[-122.411123761379,47.191645444482],[-122.412270062387,47.1916457695151],[-122.412270128562,47.1916430286003],[-122.412276863161,47.1916429199811],[-122.412282720841,47.1912564111952],[-122.412288904945,47.190848208727],[-122.412896676442,47.1908460626773],[-122.412891062076,47.191255420146],[-122.412886251795,47.1916060654936],[-122.413063297811,47.191606495032],[-122.413113250183,47.1916432697907],[-122.413617099613,47.1916434108361],[-122.413617098211,47.191646152481],[-122.414494720381,47.1916463932854],[-122.414563472885,47.191646180482],[-122.417339180925,47.1916468353713],[-122.417374058902,47.1916471391111],[-122.418977912742,47.1916475228623],[-122.419211091661,47.191639349372],[-122.41923913359,47.1916585479404],[-122.419668789377,47.1916586463608],[-122.419668788284,47.1916613880058],[-122.419890003593,47.1916614376913],[-122.419890001461,47.1916669218804],[-122.420780775001,47.1916671172097]]]},"properties":{"objectid_1":4,"objectid":20,"dist_id":4,"district":4,"councilmember":"Sandesh Sadalge","councilmember_email":"ssadalge@tacoma.gov","councilmember_photo":"https://tacoma.gov/wp-content/uploads/2026/02/CM_Sadalge_NR.jpg","phonenumber":"(253) 591-5100","supportstaff":"S.Butterfield","supportstaff_email":"sbutterfield@tacoma.gov","webpage":"https://tacoma.gov/profile/council-member-sandesh-sadalge/","globalid":"1ddd577f-c35f-4f5c-92eb-40b94df37ce7","district_text":"4","Shape__Area":213463109.1260376,"Shape__Length":68156.84503813778}},{"type":"Feature","id":5,"geometry":{"type":"Polygon","coordinates":[[[-122.420780775097,47.1916671199075],[-122.420781291172,47.1916122598893],[-122.420784180683,47.1912154307774],[-122.420785081243,47.1910857369011],[-122.420806837147,47.190850759055],[-122.420809007041,47.1905838159849],[-122.420820946417,47.1889691209377],[-122.420853197687,47.1846068369655],[-122.420839859196,47.1818001116937],[-122.420825836195,47.179076400017],[-122.420303093001,47.1790760958276],[-122.420302861761,47.1789375564317],[-122.420302755265,47.1788662881609],[-122.41977563101,47.1788629735021],[-122.419774974698,47.1788006069242],[-122.419773531099,47.1786635192145],[-122.420419069843,47.1786637187496],[-122.420823716855,47.1786640608377],[-122.420816539743,47.1772682365712],[-122.42081683253,47.1771858150914],[-122.420818130309,47.1768382852249],[-122.420335252601,47.1768381103636],[-122.420336337485,47.1765602075411],[-122.420337422359,47.176282304691],[-122.420820221953,47.1762826859086],[-122.420824389491,47.1752115375215],[-122.420341600891,47.1752112318801],[-122.420344434251,47.1744850829139],[-122.42035059228,47.1743204955029],[-122.420408555958,47.1743204517026],[-122.420418544933,47.1734473387393],[-122.420830845434,47.1734469753989],[-122.4208353023,47.1713536816128],[-122.420840125897,47.1709428833897],[-122.420821105357,47.1706529913144],[-122.420822835091,47.1701892244743],[-122.420821027863,47.1700238485767],[-122.423451496574,47.1700281786104],[-122.425016040314,47.1700302357141],[-122.425744763263,47.1700311875512],[-122.425744927905,47.1700229625496],[-122.426312299958,47.1700238514662],[-122.426312790226,47.1699511944273],[-122.428702946117,47.1699527493308],[-122.42949099451,47.1699537543377],[-122.431429822602,47.1699561978037],[-122.431550624134,47.1699568794986],[-122.432189859471,47.1699604236173],[-122.432190011713,47.1699494571383],[-122.432758272913,47.1699526048291],[-122.432758351204,47.1699498636611],[-122.433080000564,47.1699516443019],[-122.4330801584,47.169946161044],[-122.433878744959,47.1699505780535],[-122.434083178409,47.1699516949646],[-122.434109816031,47.1678453503352],[-122.43145489741,47.1678239811741],[-122.431462944483,47.1671396616711],[-122.434118494114,47.1671593378247],[-122.434120881257,47.1669706270265],[-122.434801281766,47.1669762560391],[-122.435647114311,47.1669843496417],[-122.43562748908,47.1682496901298],[-122.435429767157,47.1682491952549],[-122.435427360685,47.1684309735053],[-122.43541807011,47.1691320651272],[-122.435407027269,47.1699667264943],[-122.435815751805,47.1699691728886],[-122.436500621944,47.169973275351],[-122.436500514832,47.1699842248983],[-122.43720728173,47.1699881094659],[-122.43720745315,47.1699768978989],[-122.437253768915,47.1699769084329],[-122.437254012071,47.1699770654221],[-122.437254289795,47.1699771930389],[-122.43725459533,47.1699772868975],[-122.437254919382,47.169977345354],[-122.437255252623,47.1699773658655],[-122.438910992848,47.1699857018661],[-122.440646358081,47.1699960098969],[-122.441344073412,47.1699998168409],[-122.441343941529,47.1700107839209],[-122.441833564626,47.1700134534685],[-122.441985676178,47.1700142823541],[-122.441986299332,47.1699894826131],[-122.442139019086,47.169988119086],[-122.442139303805,47.1699882573713],[-122.442139618871,47.1699883591551],[-122.442139954991,47.1699884227942],[-122.442140302837,47.1699884457457],[-122.442857770384,47.1699929735835],[-122.443148153443,47.1699948052306],[-122.443552143764,47.1699919509795],[-122.444221847174,47.1700110678318],[-122.445027625908,47.1700340665601],[-122.445027421246,47.1700526318339],[-122.445487331078,47.1700590519307],[-122.44548765744,47.1700480860591],[-122.445528374194,47.1700212323694],[-122.44572935909,47.1700242978834],[-122.445778320096,47.170052486113],[-122.446039534505,47.1700565756874],[-122.446039585455,47.1700545197019],[-122.446348934678,47.1700593650854],[-122.446358808349,47.1700594427464],[-122.446861973628,47.1700632181799],[-122.446867853408,47.1700632622589],[-122.447282197783,47.1700663698604],[-122.447282535109,47.170054915205],[-122.448642960835,47.1700693737787],[-122.449242199283,47.1700757372545],[-122.449903709839,47.1700827914371],[-122.450234486314,47.170086317653],[-122.450582342001,47.1700899543502],[-122.45058242239,47.170087368784],[-122.45124916243,47.1700946374978],[-122.451628835862,47.1700988571201],[-122.451920455979,47.1701013171281],[-122.451920583989,47.1701039351705],[-122.452418573648,47.1701091351948],[-122.452459532122,47.1700794000817],[-122.452700817729,47.1700788874147],[-122.452740230457,47.1701089148068],[-122.45308922316,47.170107838636],[-122.4533883735,47.170106915005],[-122.453587806163,47.1701062985363],[-122.4540863865,47.170104756332],[-122.454485249187,47.1701035215874],[-122.454883779326,47.1701022847901],[-122.454883782632,47.1701050255124],[-122.455024718357,47.1701045910071],[-122.455065013432,47.1700798024427],[-122.455408749975,47.1700723547943],[-122.455728320568,47.1700711850903],[-122.456288416498,47.1700951702994],[-122.456288551197,47.1700951734195],[-122.4566122602,47.1700942677901],[-122.457237042122,47.1700922178723],[-122.457236923436,47.1700952288006],[-122.457236940685,47.1700954489588],[-122.457237009197,47.1700956637504],[-122.457237127491,47.1700958687015],[-122.4572372927,47.1700960575619],[-122.457237499419,47.1700962268241],[-122.457237742143,47.1700963702826],[-122.457238016852,47.1700964862059],[-122.45723831547,47.1700965702316],[-122.457238630019,47.1700966206952],[-122.457238951237,47.1700966368537],[-122.45770785365,47.1700938726194],[-122.458866866735,47.1700871182024],[-122.461033101517,47.1700803210388],[-122.461586210496,47.1700785551284],[-122.463113249299,47.1700737192077],[-122.463113810676,47.170073735772],[-122.46405251189,47.1700776291024],[-122.464191802793,47.1668370882137],[-122.465800150317,47.1668239191213],[-122.465706079423,47.1689129994548],[-122.465654425219,47.1700706412208],[-122.465871638076,47.1700711770103],[-122.468392595866,47.1700818183717],[-122.468387727761,47.1701914635416],[-122.468407759585,47.1737113930743],[-122.467783534892,47.1743354975808],[-122.467564734099,47.1745561354739],[-122.467347829264,47.1747708991652],[-122.467189989964,47.1749235461716],[-122.467037282636,47.1750786007924],[-122.466889786239,47.1752359843225],[-122.466753545361,47.1753849673809],[-122.466622006939,47.1755359029376],[-122.466487300707,47.1756958586681],[-122.466522498091,47.1757091260687],[-122.466367846517,47.1759099656418],[-122.4662141037,47.1761210733061],[-122.46606933996,47.1763351116949],[-122.465955802796,47.1765153337803],[-122.465848633362,47.1766973595632],[-122.465747889914,47.1768810845949],[-122.465657860039,47.17705777368],[-122.46557452693,47.1772359837936],[-122.465495372751,47.177415100888],[-122.465417972037,47.1774002027887],[-122.465408785608,47.1774222878382],[-122.465409134702,47.1774222711083],[-122.4652657376,47.1778097154035],[-122.464901748668,47.1785895291346],[-122.464865474956,47.1786524076509],[-122.464819872296,47.1787123952242],[-122.464765426645,47.1787688510315],[-122.464702721655,47.1788211712807],[-122.46463242704,47.1788687957071],[-122.464555293626,47.1789112166561],[-122.464472148075,47.1789479791738],[-122.464383878706,47.1789786902463],[-122.464291430285,47.1790030206884],[-122.464195789782,47.1790207125842],[-122.464097980922,47.1790315748816],[-122.463999049981,47.1790354917316],[-122.463999553713,47.1790903257177],[-122.463168396072,47.17909387815],[-122.46317091437,47.1793680453169],[-122.463812279975,47.1793653050158],[-122.463812773389,47.1794188137696],[-122.464889425271,47.1794429473966],[-122.464521527712,47.180777192151],[-122.463183758579,47.1807661771394],[-122.463219614394,47.1846688090737],[-122.464422672139,47.1846826305051],[-122.464762184762,47.1846877193349],[-122.464805105476,47.1845910416648],[-122.465231248973,47.1845959388824],[-122.465210460516,47.1846094083662],[-122.473768296367,47.1847073074127],[-122.47376925025,47.1847900202278],[-122.473889890821,47.184790959756],[-122.483684214173,47.1847458939844],[-122.494331060467,47.1847329227571],[-122.504977800802,47.1846977992917],[-122.505070891471,47.1904508105163],[-122.506850911424,47.190457447188],[-122.506851294762,47.1904437428186],[-122.507813184615,47.1904473402292],[-122.507813192421,47.1904610495148],[-122.508643003869,47.1904641132114],[-122.508645749755,47.1906276833198],[-122.508657518706,47.1919830442723],[-122.509690783199,47.1919852442044],[-122.514736437798,47.1919701726593],[-122.515771531851,47.192657200907],[-122.515925143297,47.1956009441654],[-122.52102172657,47.1955419681325],[-122.521084107386,47.1956403475484],[-122.521127155215,47.1957178004359],[-122.521138499962,47.1957381889267],[-122.52114777947,47.1957571225155],[-122.521188961897,47.1958426432406],[-122.521222654976,47.1959254145094],[-122.521346636449,47.196284623401],[-122.521234674361,47.1962864399684],[-122.521267576919,47.198675697106],[-122.521376535783,47.1987511579913],[-122.521505832383,47.1988887090655],[-122.521463653505,47.1990266285633],[-122.521274031995,47.199208478932],[-122.521274331445,47.1991661000573],[-122.519566071173,47.1991750677989],[-122.519511008107,47.1989885275108],[-122.518945539946,47.1988141059941],[-122.518715138702,47.1988429004611],[-122.518056356445,47.1990652231703],[-122.518061459002,47.1991829437953],[-122.515943239005,47.1991940002751],[-122.508821896494,47.1992341651285],[-122.505218095214,47.1992535758613],[-122.5052348738,47.2018340297282],[-122.506173682074,47.2018298641982],[-122.506166672743,47.2027527712641],[-122.508262925131,47.2027349593973],[-122.508438937711,47.2027352084994],[-122.508432554859,47.2027469222176],[-122.508424066589,47.2027623220708],[-122.508415135338,47.202778339677],[-122.508406114806,47.2027943354371],[-122.508397004892,47.2028103066534],[-122.508388173912,47.2028256161731],[-122.50830496259,47.202962276157],[-122.508217757729,47.2031031615544],[-122.508103391154,47.2032668359932],[-122.508002416325,47.2033976628455],[-122.507878955261,47.2035444022361],[-122.507747196793,47.203687751029],[-122.507609205873,47.2038278866217],[-122.507459593464,47.2039634088156],[-122.507053198711,47.2043642080909],[-122.506448481117,47.2049589142787],[-122.506349249199,47.2050581748964],[-122.506249393227,47.2051635765708],[-122.506276161526,47.2051827011003],[-122.506050436566,47.205457359504],[-122.505936010058,47.2056230975371],[-122.505832775703,47.20579223613],[-122.505740948771,47.2059644206608],[-122.505723618626,47.206002194062],[-122.505660719306,47.2061392924432],[-122.505614300096,47.2062557526044],[-122.505573025427,47.2063731124558],[-122.505516933672,47.2065130197869],[-122.504630615513,47.206518273135],[-122.503242718416,47.2065115605051],[-122.502727984535,47.2065280381754],[-122.502090180767,47.206524986538],[-122.500817267469,47.2065219349388],[-122.499547947565,47.2065219349461],[-122.498275035522,47.2065188832643],[-122.497010207651,47.2065127807324],[-122.495737294244,47.206349836257],[-122.495475884682,47.2063150502251],[-122.495176746211,47.2062808745248],[-122.494483246905,47.2062357139672],[-122.49444012773,47.2062357139077],[-122.493218419182,47.2062320526535],[-122.491705655639,47.2062430377542],[-122.49104090208,47.2062418171152],[-122.490446217918,47.2062412068303],[-122.489155338692,47.2062381552693],[-122.487868950828,47.206235713999],[-122.486582563054,47.2062302216301],[-122.485808216354,47.2062259493236],[-122.485067106205,47.2062222876279],[-122.48373310736,47.2062119134219],[-122.482424262678,47.2062039794635],[-122.481337301353,47.2062119130162],[-122.480247644663,47.206211302969],[-122.479623315705,47.2062113027384],[-122.479429279466,47.2062302216361],[-122.479098698445,47.2062839265035],[-122.47882920465,47.2063382414473],[-122.478389928857,47.2064322239727],[-122.478222841694,47.2064609071147],[-122.478180620778,47.2064731128952],[-122.477844650899,47.2065072881142],[-122.477543714878,47.2065201045976],[-122.476940047795,47.2065048470102],[-122.476256429155,47.2064987447886],[-122.475661745082,47.2064999651504],[-122.47497273695,47.2065017962297],[-122.474373561309,47.206499965258],[-122.473639636692,47.2064407679972],[-122.472311028187,47.2064261211093],[-122.470963556439,47.2064169675466],[-122.469619676019,47.2064157461942],[-122.468961211669,47.2064151365735],[-122.466853762828,47.2064187978346],[-122.466369571983,47.206416966775],[-122.465160439177,47.2064139158691],[-122.464896335086,47.2064120849572],[-122.463856084996,47.2064517530261],[-122.463447352255,47.2065548903289],[-122.462929023363,47.2066031015256],[-122.461936385798,47.2065768594886],[-122.461722587035,47.2065750295314],[-122.461477346102,47.2065652642441],[-122.461322836568,47.2065597724122],[-122.459327677492,47.2065316995021],[-122.458821027777,47.2065378023004],[-122.458495837795,47.2065310890763],[-122.456616561952,47.2064981342676],[-122.454720219354,47.2064828768858],[-122.452344174329,47.2064480915997],[-122.451072160556,47.2064352757516],[-122.449750738931,47.2064358861573],[-122.448458961798,47.2064450395486],[-122.447151013858,47.206443208735],[-122.445866423517,47.2064322245076],[-122.444537814566,47.2064242907477],[-122.44321010476,47.2064157462863],[-122.441825801485,47.2064017100332],[-122.43996988159,47.2063907254345],[-122.438113963099,47.2063858430627],[-122.436447587488,47.2063870630518],[-122.43397272962,47.206374247463],[-122.432652206142,47.2063669239793],[-122.431302936295,47.20635899086],[-122.430692081654,47.2063571602211],[-122.429878207499,47.2063492259281],[-122.428537921721,47.2063400724211],[-122.427987254816,47.2063449544281],[-122.426100792337,47.2063382414853],[-122.42481260767,47.2063296973801],[-122.42377685061,47.206326035946],[-122.423551373679,47.2063248146377],[-122.422753669215,47.2063181019106],[-122.420884275538,47.2063138303639],[-122.42087978349,47.2054209828658],[-122.420871698744,47.2045177456274],[-122.420884275302,47.2036138834892],[-122.420879783243,47.202680098917],[-122.420874393767,47.2017200545655],[-122.420877088296,47.2008320125546],[-122.420865411278,47.1999140492241],[-122.420880682267,47.1990320809877],[-122.42089056423,47.1985309705475],[-122.42088966514,47.198137890804],[-122.420893259045,47.1977710549012],[-122.420889665494,47.1972381916522],[-122.420893258129,47.1970440895675],[-122.42091481875,47.1962829317189],[-122.42091481775,47.1955358028618],[-122.420907632089,47.1953886950633],[-122.420911224231,47.1948081965556],[-122.420907630986,47.1940659299619],[-122.42091391988,47.1933370830541],[-122.420780775097,47.1916671199075]]]},"properties":{"objectid_1":5,"objectid":21,"dist_id":5,"district":5,"councilmember":"Joe Bushnell","councilmember_email":"JBushnell2@tacoma.gov ","councilmember_photo":"https://tacoma.gov/wp-content/uploads/2024/11/Bushnell.jpg","phonenumber":"(253) 591-5100","supportstaff":"S.Butterfield","supportstaff_email":"sbutterfield@tacoma.gov","webpage":"https://tacoma.gov/profile/deputy-mayor-chanjolee-joe-bushnell/","globalid":"dc95ff21-4864-4ade-8615-7a582fbfc14e","district_text":"5","Shape__Area":236475904.37420654,"Shape__Length":87290.93190301934}}]}